site,state,state_full,type,latitude,longitude,county,town,latlongsource,lat_short,long_short,county_centroid,used.town,UTM,UTM_E,UTM_N,NAD,elevation_m,notes,X2012,X2013,X2014,altitude_m,grts_cell_id_master,notes_grts,source
1813,KY,kentucky,hiber,NA,NA,jackson,NA,NA,NA,NA,NA,NA,NA,NA,NA,NA,NA,NA,NA,NA,NA,NA,NA,NA,NA
17 adits mazourka canyon,CA,california,hiber,36.92522,-118.06636,inyo,NA,NA,NA,NA,NA,NA,NA,NA,NA,NA,2389,NA,NA,NA,NA,2385,105875,NA,NA
27 spiders cave,TN,tennessee,hiber,34.915767,-85.262608,hamilton,NA,NA,NA,NA,NA,NA,NA,NA,NA,NA,NA,NA,NA,NA,NA,230.5,34027,"duplicate with chambliss cave, haha cave, lookout mountain battlefield pit 1, lookout mountain battlefield pit 2",NA
7 caves of st. peter,MN,minnesota,hiber,44.2977,-93.9896,nicollet,st. peter,NA,NA,NA,NA,NA,NA,NA,NA,NA,NA,NA,NA,NA,NA,240.4,34907,NA,NA
a lead mine,IL,illinois,hiber,NA,NA,jo daviess,NA,NA,NA,NA,NA,NA,NA,NA,NA,NA,NA,NA,NA,NA,NA,NA,NA,NA,NA
across the road,KY,kentucky,hiber,NA,NA,rockcastle,NA,NA,NA,NA,NA,NA,NA,NA,NA,NA,NA,NA,NA,NA,NA,NA,NA,NA,NA
ad-14,OK,oklahoma,hiber,35.73,-95.54,adair,NA,NA,NA,NA,NA,NA,NA,NA,NA,NA,206,NA,NA,NA,NA,206,93188,NA,NA
ad-7,OK,oklahoma,hiber,35.4547,-94.4409,adair,NA,NA,NA,NA,NA,NA,NA,NA,NA,NA,NA,NA,NA,NA,NA,172.8,12767,NA,NA
ad-8,OK,oklahoma,hiber,36.15,-94.79,adair,KANSAS,NA,NA,NA,NA,NA,NA,NA,NA,NA,324,NA,NA,NA,NA,322,31647,NA,NA
adair bat,OK,oklahoma,hiber,NA,NA,adair,NA,NA,NA,NA,NA,NA,NA,NA,NA,NA,NA,NA,NA,NA,NA,NA,NA,NA,NA
adcock cave,AL,alabama,hiber,NA,NA,blount,NA,NA,NA,NA,NA,NA,NA,NA,NA,NA,NA,NA,NA,NA,NA,NA,12923,duplicate with horse cave,NA
aeolus,VT,vermont,hiber,43.2406603,-73.05622474,bennington,east dorset,NA,NA,NA,NA,NA,NA,NA,NA,NA,NA,NA,NA,NA,NA,NA,96040,NA,NA
aitkin,PA,pennsylvania,hiber-logger,40.7408333,-77.51416666,mifflin,NA,NA,NA,NA,NA,NA,NA,NA,NA,NA,NA,NA,NA,NA,NA,221,74771,NA,NA
ALA-001,FL,florida,hiber,NA,NA,alachua,NA,NA,NA,NA,NA,NA,NA,NA,NA,NA,NA,NA,NA,NA,NA,NA,34972,NA,NA
ALA-004,FL,florida,hiber,NA,NA,alachua,NA,NA,NA,NA,NA,NA,NA,NA,NA,NA,NA,NA,NA,NA,NA,NA,68752,NA,NA
ALA-005,FL,florida,hiber,NA,NA,alachua,NA,NA,NA,NA,NA,NA,NA,NA,NA,NA,NA,NA,NA,NA,NA,NA,68752,NA,NA
ALA-006,FL,florida,hiber,NA,NA,alachua,NA,NA,NA,NA,NA,NA,NA,NA,NA,NA,NA,NA,NA,NA,NA,NA,34972,NA,NA
ALA-007,FL,florida,hiber,NA,NA,alachua,NA,NA,NA,NA,NA,NA,NA,NA,NA,NA,NA,NA,NA,NA,NA,NA,68752,NA,NA
ALA-008,FL,florida,hiber,NA,NA,alachua,NA,NA,NA,NA,NA,NA,NA,NA,NA,NA,NA,NA,NA,NA,NA,NA,68752,NA,NA
ALA-009,FL,florida,hiber,NA,NA,alachua,NA,NA,NA,NA,NA,NA,NA,NA,NA,NA,NA,NA,NA,NA,NA,NA,68752,NA,NA
ALA-010,FL,florida,hiber,NA,NA,alachua,NA,NA,NA,NA,NA,NA,NA,NA,NA,NA,NA,NA,NA,NA,NA,NA,68752,NA,NA
ALA-011,FL,florida,hiber,NA,NA,alachua,NA,NA,NA,NA,NA,NA,NA,NA,NA,NA,NA,NA,NA,NA,NA,NA,75024,NA,NA
ALA-012,FL,florida,hiber,NA,NA,alachua,NA,NA,NA,NA,NA,NA,NA,NA,NA,NA,NA,NA,NA,NA,NA,NA,34972,NA,NA
ALA-013,FL,florida,hiber,NA,NA,alachua,NA,NA,NA,NA,NA,NA,NA,NA,NA,NA,NA,NA,NA,NA,NA,NA,34972,NA,NA
ALA-014,FL,florida,hiber,NA,NA,alachua,NA,NA,NA,NA,NA,NA,NA,NA,NA,NA,NA,NA,NA,NA,NA,NA,75024,NA,NA
ALA-301,FL,florida,hiber,NA,NA,alachua,NA,NA,NA,NA,NA,NA,NA,NA,NA,NA,NA,NA,NA,NA,NA,NA,33180,NA,NA
ALA-302,FL,florida,hiber,NA,NA,alachua,NA,NA,NA,NA,NA,NA,NA,NA,NA,NA,NA,NA,NA,NA,NA,NA,90181,NA,NA
ALA-303,FL,florida,hiber,NA,NA,alachua,NA,NA,NA,NA,NA,NA,NA,NA,NA,NA,NA,NA,NA,NA,NA,NA,90181,NA,NA
ALA-304,FL,florida,hiber,NA,NA,alachua,NA,NA,NA,NA,NA,NA,NA,NA,NA,NA,NA,NA,NA,NA,NA,NA,98544,NA,NA
ALA-305,FL,florida,hiber,NA,NA,alachua,NA,NA,NA,NA,NA,NA,NA,NA,NA,NA,NA,NA,NA,NA,NA,NA,90181,NA,NA
ALA-307,FL,florida,hiber,NA,NA,alachua,NA,NA,NA,NA,NA,NA,NA,NA,NA,NA,NA,NA,NA,NA,NA,NA,74109,NA,NA
ALA-309,FL,florida,hiber,NA,NA,alachua,NA,NA,NA,NA,NA,NA,NA,NA,NA,NA,NA,NA,NA,NA,NA,NA,4508,NA,NA
ALA-310,FL,florida,hiber,NA,NA,alachua,NA,NA,NA,NA,NA,NA,NA,NA,NA,NA,NA,NA,NA,NA,NA,NA,115924,NA,NA
ALA-311,FL,florida,hiber,NA,NA,alachua,NA,NA,NA,NA,NA,NA,NA,NA,NA,NA,NA,NA,NA,NA,NA,NA,115924,NA,NA
ALA-315,FL,florida,hiber,NA,NA,alachua,NA,NA,NA,NA,NA,NA,NA,NA,NA,NA,NA,NA,NA,NA,NA,NA,48284,NA,NA
ALA-316,FL,florida,hiber,NA,NA,alachua,NA,NA,NA,NA,NA,NA,NA,NA,NA,NA,NA,NA,NA,NA,NA,NA,128991,NA,NA
ALA-317,FL,florida,hiber,NA,NA,alachua,NA,NA,NA,NA,NA,NA,NA,NA,NA,NA,NA,NA,NA,NA,NA,NA,66660,NA,NA
ALA-321,FL,florida,hiber,NA,NA,alachua,NA,NA,NA,NA,NA,NA,NA,NA,NA,NA,NA,NA,NA,NA,NA,NA,101287,NA,NA
ALA-325,FL,florida,hiber,NA,NA,alachua,NA,NA,NA,NA,NA,NA,NA,NA,NA,NA,NA,NA,NA,NA,NA,NA,101287,NA,NA
ALA-326,FL,florida,hiber,NA,NA,alachua,NA,NA,NA,NA,NA,NA,NA,NA,NA,NA,NA,NA,NA,NA,NA,NA,4508,NA,NA
ALA-327,FL,florida,hiber,NA,NA,alachua,NA,NA,NA,NA,NA,NA,NA,NA,NA,NA,NA,NA,NA,NA,NA,NA,82471,NA,NA
ALA-328,FL,florida,hiber,NA,NA,alachua,NA,NA,NA,NA,NA,NA,NA,NA,NA,NA,NA,NA,NA,NA,NA,NA,90181,NA,NA
ALA-329,FL,florida,hiber,NA,NA,alachua,NA,NA,NA,NA,NA,NA,NA,NA,NA,NA,NA,NA,NA,NA,NA,NA,82471,NA,NA
ALA-331,FL,florida,hiber,NA,NA,bradford,NA,NA,NA,NA,NA,NA,NA,NA,NA,NA,NA,NA,NA,NA,NA,NA,32924,NA,NA
ALA-332,FL,florida,hiber,NA,NA,columbia,NA,NA,NA,NA,NA,NA,NA,NA,NA,NA,NA,NA,NA,NA,NA,NA,58780,NA,NA
ALA-334,FL,florida,hiber,NA,NA,alachua,NA,NA,NA,NA,NA,NA,NA,NA,NA,NA,NA,NA,NA,NA,NA,NA,98544,NA,NA
ALA-335,FL,florida,hiber,NA,NA,columbia,NA,NA,NA,NA,NA,NA,NA,NA,NA,NA,NA,NA,NA,NA,NA,NA,58780,NA,NA
alexander,TN,tennessee,hiber,NA,NA,perry,NA,NA,NA,NA,NA,NA,NA,NA,NA,NA,NA,NA,NA,NA,NA,NA,NA,NA,NA
all tunnel,PA,pennsylvania,hiber-logger,39.95777,-78.8486111,NA,NA,NA,NA,NA,NA,NA,NA,NA,NA,NA,NA,NA,NA,NA,NA,722.1,87840,NA,NA
allagash_1,ME,maine,hiber,NA,NA,piscataquis,NA,NA,NA,NA,NA,NA,NA,NA,NA,NA,NA,NA,NA,NA,NA,NA,77878,NA,NA
allegheny mtn,PA,pennsylvania,hiber,NA,NA,somerset,NA,NA,NA,NA,NA,NA,NA,NA,NA,NA,NA,s penn tunnel,NA,NA,NA,NA,NA,NA,NA
altamont,NY,new york,maternity,NA,NA,NA,NA,NA,NA,NA,NA,NA,NA,NA,NA,NA,NA,NA,NA,NA,NA,NA,NA,NA,NA
amphitheatre,AR,arkansas,hiber,NA,NA,stone,NA,NA,NA,NA,NA,NA,NA,NA,NA,NA,NA,"Arkansas Ecological Services Field Office, AR-49",NA,NA,NA,NA,NA,NA,NA
anderson,MO,missouri,hiber,NA,NA,dent,NA,NA,NA,NA,NA,NA,NA,NA,NA,NA,NA,NA,NA,NA,NA,NA,NA,NA,NA
anderson cave,AL,alabama,hiber,NA,NA,shelby,NA,NA,NA,NA,NA,NA,NA,NA,NA,NA,NA,NA,NA,NA,NA,NA,22404,duplicate with lake purdy corkscrew cave,NA
arbogast cave hollow,WV,west virginia,hiber,39.01281,-79.46375,tucker,GLADWIN,NA,NA,NA,NA,NA,17,633006,4319321,NAD83,1169,NA,NA,NA,NA,991.9,121584,NA,NA
arco tunnel,ID,idaho,hiber,NA,NA,butte,NA,NA,NA,NA,NA,NA,NA,NA,NA,NA,NA,NA,NA,NA,NA,NA,17226,NA,NA
argobrites,WV,west virginia,hiber,NA,NA,monroe,NA,NA,NA,NA,NA,NA,NA,NA,NA,NA,NA,NA,NA,NA,NA,NA,NA,NA,NA
armstrong,AL,alabama,hiber,NA,NA,lawrence,NA,NA,NA,NA,NA,NA,NA,NA,NA,NA,NA,"Daphne, AL field office",NA,NA,NA,NA,67297,NA,NA
arnold hill mine,NY,new york,hiber,44.48333,-73.63055,clinton,,,,,,,,,,,,,,,,,,,
ash,KY,kentucky,hiber,NA,NA,lee,NA,NA,NA,NA,NA,NA,NA,NA,NA,NA,NA,NA,NA,NA,NA,NA,NA,NA,NA
ashcraft,IN,indiana,hiber,NA,NA,greene,NA,NA,NA,NA,NA,NA,NA,NA,NA,NA,NA,NA,NA,NA,NA,NA,NA,NA,NA
atkinsons diggings,WI,wisconsin,hiber,NA,NA,grant,NA,NA,NA,NA,NA,NA,NA,NA,NA,NA,NA,NA,NA,NA,NA,NA,NA,NA,NA
autograph,WI,wisconsin,hiber,43.88574,-90.22245,juneau,NA,NA,NA,NA,NA,NA,NA,NA,NA,NA,NA,NA,NA,NA,NA,294,44443,NA,NA
ava cave,IL,illinois,hiber,NA,NA,jackson,NA,NA,NA,NA,NA,NA,NA,NA,NA,NA,NA,NA,NA,NA,NA,NA,92968,NA,NA
avondale,NL,newfoundland and labrador,hiber,47.420842,-53.195266,Division No. 6,avondale,NOT LISTED,NA,NA,no,yes,NA,NA,NA,NA,NA,NA,NA,NA,NA,6.3,84892,NA,NA
azure,MT,montana,hiber,47.89926,-108.54402,phillips,NA,NA,NA,NA,NA,NA,NA,NA,NA,NA,NA,NA,NA,NA,NA,1357,108235,NA,NA
b and o cave,KY,kentucky,hiber,37.77264,-86.43115,breckinridge,NA,NA,NA,NA,yes,NA,NA,NA,NA,NA,NA,NA,NA,NA,NA,216.6,97376,NA,NA
back obeyond cave,AR,arkansas,hiber,35.99642,-92.72915,searcy,GILBERT,NA,NA,NA,NA,NA,15S,524412,3983585,NAD83,176,NA,NA,NA,NA,200.1,113312,NA,NA
backward confusion,AL,alabama,hiber,NA,NA,lawrence,NA,NA,NA,NA,NA,NA,NA,NA,NA,NA,NA,"Daphne, AL field office, bats cave",NA,NA,NA,NA,98134,duplicate with mountain springs cave and saltpeter cave lawrence al,NA
baker,KY,kentucky,hiber,NA,NA,pulaski,NA,NA,NA,NA,NA,NA,NA,NA,NA,NA,NA,NA,NA,NA,NA,NA,NA,NA,NA
baker cave,AL,alabama,hiber,NA,NA,lauderdale,NA,NA,NA,NA,NA,NA,NA,NA,NA,NA,NA,NA,NA,NA,NA,NA,99833,NA,NA
bald eagle,MO,missouri,hiber,NA,NA,shannon,NA,NA,NA,NA,NA,NA,NA,NA,NA,NA,NA,NA,NA,NA,NA,NA,NA,NA,NA
ball barn,VA,virginia,maternity,NA,NA,NA,NA,NA,NA,NA,NA,NA,NA,NA,NA,NA,NA,NA,NA,NA,NA,NA,NA,NA,NA
bangor cave,AL,alabama,hiber,NA,NA,blount,NA,NA,NA,NA,NA,NA,NA,NA,NA,NA,NA,NA,NA,NA,NA,NA,105585,NA,NA
barbour big rock cave,AL,alabama,hiber,NA,NA,barbour,NA,NA,NA,NA,NA,NA,NA,NA,NA,NA,NA,NA,NA,NA,NA,NA,52500,NA,NA
barefoot pit,KY,kentucky,hiber,NA,NA,wayne,NA,NA,NA,NA,NA,NA,NA,NA,NA,NA,NA,NA,NA,NA,NA,NA,NA,NA,NA
barkshed saltpetre,AR,arkansas,hiber,NA,NA,stone,NA,NA,NA,NA,NA,NA,NA,NA,NA,NA,NA,"Arkansas Ecological Services Field Office, AR-50",NA,NA,NA,NA,NA,NA,NA
barney grace mine,IL,illinois,hiber,NA,NA,union,NA,NA,NA,NA,NA,NA,NA,NA,NA,NA,NA,NA,NA,NA,NA,NA,NA,NA,NA
barrys pit,AL,alabama,hiber,NA,NA,franklin,NA,NA,NA,NA,NA,NA,NA,NA,NA,NA,NA,NA,NA,NA,NA,NA,31867,NA,NA
barton,PA,pennsylvania,hiber-logger,39.7669444,-79.7013888,fayette,NA,NA,NA,NA,NA,NA,NA,NA,NA,NA,NA,NA,NA,NA,NA,756,107383,NA,NA
barton hill mine,NY,new york,hiber-logger,44.09805,-73.53444,essex,NA,NA,NA,NA,NA,NA,NA,NA,NA,NA,NA,NA,NA,NA,NA,538.1,88480,duplicate with fisher hill mine,NA
barytes cave,NY,new york,hiber,42.691381,-74.384713,schoharie,,,,,,,,,,,,,,,,,,,
bat anderson mo,MO,missouri,hiber,NA,NA,dent,NA,NA,NA,NA,NA,NA,NA,NA,NA,NA,NA,NA,NA,NA,NA,NA,NA,NA,NA
bat carter caves srp,KY,kentucky,hiber,NA,NA,carter,NA,NA,NA,NA,NA,NA,NA,NA,NA,NA,NA,NA,NA,NA,NA,NA,NA,NA,NA
bat cave ar,AR,arkansas,hiber,NA,NA,marion,NA,NA,NA,NA,NA,NA,NA,NA,NA,NA,NA,"Arkansas Ecological Services Field Office, AR-92",NA,NA,NA,NA,NA,NA,NA
bat cave ky,KY,kentucky,hiber,37.18861,-86.1015,edmonson,NA,NA,NA,NA,used nps,NA,NA,NA,NA,NA,NA,NA,NA,NA,NA,231.4,71632,"duplicate with jt cave, lee cave, long cave, mammoth cave historic entrancee, wildcat hollow sink",NA
bat cave mo,MO,missouri,hiber,37.4045,-89.4908,shannon,Eminence,NA,NA,NA,NA,NA,NA,NA,NA,NA,NA,NA,NA,NA,NA,148.8,47343,duplicate with mystery cave,NA
bat cave no 1,MO,missouri,hiber,NA,NA,franklin,NA,NA,NA,NA,NA,NA,NA,NA,NA,NA,NA,NA,NA,NA,NA,NA,NA,NA,NA
bat cave preserve,NC,north carolina,hiber,NA,NA,rutherford,NA,NA,NA,NA,NA,NA,NA,NA,NA,NA,NA,NA,NA,NA,NA,NA,NA,NA,NA
bat crawford mo,MO,missouri,hiber,NA,NA,crawford,NA,NA,NA,NA,NA,NA,NA,NA,NA,NA,NA,NA,NA,NA,NA,NA,NA,NA,NA
bat pulaski mo,MO,missouri,hiber,NA,NA,pulaski,NA,NA,NA,NA,NA,NA,NA,NA,NA,NA,NA,NA,NA,NA,NA,NA,NA,NA,NA
batwing,IN,indiana,hiber,NA,NA,crawford,NA,NA,NA,NA,NA,NA,NA,NA,NA,NA,NA,NA,NA,NA,NA,NA,NA,NA,NA
bay city mine,WI,wisconsin,hiber,44.5941,-92.4258,pierce,NA,Paul White email,NA,NA,yes,NA,NA,NA,NA,NA,211,NA,NA,NA,NA,259.6,71462,NA,NA
bay city,WI,wisconsin,hiber,44.5941,-92.4258,pierce,NA,Paul White email,NA,NA,yes,NA,NA,NA,NA,NA,211,NA,NA,NA,NA,259.6,71462,NA,NA
bear,MO,missouri,hiber,NA,NA,franklin,NA,NA,NA,NA,NA,NA,NA,NA,NA,NA,NA,"cave 017, mud sink",NA,NA,NA,NA,NA,NA,NA
bear,PA,pennsylvania,hiber,NA,NA,westmoreland,NA,NA,NA,NA,NA,NA,NA,NA,NA,NA,NA,NA,NA,NA,NA,NA,NA,NA,NA
bear creek,WI,wisconsin,hiber,43.36709,-90.11934,sauk,NA,NA,NA,NA,NA,NA,NA,NA,NA,NA,NA,NA,NA,NA,NA,343.1,80120,NA,NA
bear creek_wi,WI,wisconsin,hiber,43.36709,-90.11934,sauk,NA,NA,NA,NA,NA,NA,NA,NA,NA,NA,NA,NA,NA,NA,NA,343.1,80120,NA,NA
bear creek_AR,AR,arkansas,hiber,NA,NA,searcy,NA,NA,NA,NA,NA,NA,NA,NA,NA,NA,NA,NA,NA,NA,NA,NA,NA,NA,NA
bear den cave #4,OK,oklahoma,hiber,34.796367,-94.90935,lee,NA,NA,NA,NA,NA,NA,15S,674673,3852123,NAD83,NA,NA,NA,NA,NA,581.6,127197,NA,NA
bear den le flore ok,OK,oklahoma,hiber,NA,NA,le flore,NA,NA,NA,NA,NA,NA,NA,NA,NA,NA,NA,NA,NA,NA,NA,NA,NA,NA,NA
beatens cave,MI,michigan,hiber,46.720387,-89.188296,ontonagon,NA,Al Kurta email,NA,NA,NA,NA,NA,NA,NA,NA,335,elevation estimated off of topographic map,no,no,yes,323.5,56547,"duplicate with glen adit, south bluff adit",NA
beck cave,MO,missouri,hiber,38.04632244,-93.31689433,hickory,NA,NA,NA,NA,NA,NA,15N,472195,4211002,83,NA,NA,NA,NA,NA,822.7,26687,NA,NA
beckers quarry,IA,iowa,hiber,NA,NA,dubuque,NA,NA,NA,NA,NA,NA,NA,NA,NA,NA,NA,"Rock Island, IL",NA,NA,NA,NA,NA,NA,NA
beckners saltpeter,KY,kentucky,hiber,NA,NA,edmonson,NA,NA,NA,NA,NA,NA,NA,NA,NA,NA,NA,NA,NA,NA,NA,NA,NA,NA,NA
beldings cave,MS,mississippi,hiber,31.91539,-89.09466,jasper,NA,NA,NA,NA,NA,NA,NA,NA,NA,NA,NA,NA,NA,NA,NA,106.3,1668,NA,NA
bellamy cave,TN,tennessee,hiber,36.49048,-87.57266,montgomery,NA,NA,NA,NA,NA,NA,NA,NA,NA,NA,NA,NA,NA,NA,NA,133.9,54971,duplicate with cooper creek cave,NA
belt,KY,kentucky,hiber,NA,NA,hardin,NA,NA,NA,NA,NA,NA,NA,NA,NA,NA,NA,NA,NA,NA,NA,NA,NA,NA,NA
bennett hill hitchcock mine,NY,new york,hiber-logger,43.91805,-73.615,warren,NA,NA,NA,NA,NA,NA,NA,NA,NA,NA,NA,NA,NA,NA,NA,448,21719,duplicate with hitchcock,NA
bensons cave,NY,new york,hiber,42.70427284,-74.38833883,schoharie,,,,,,,,,,,,,,,,,,,
bentz,IN,indiana,hiber,NA,NA,crawford,NA,NA,NA,NA,NA,NA,NA,NA,NA,NA,NA,NA,NA,NA,NA,NA,NA,NA,NA
betsey,KY,kentucky,hiber,NA,NA,powell,NA,NA,NA,NA,NA,NA,NA,NA,NA,NA,NA,NA,NA,NA,NA,NA,NA,NA,NA
bicycle sandstone,KY,kentucky,hiber,NA,NA,menifee,NA,NA,NA,NA,NA,NA,NA,NA,NA,NA,NA,NA,NA,NA,NA,NA,NA,NA,NA
biehle cave,IN,indiana,hiber,38.9406,-85.62356,jennings,NA,NA,NA,NA,NA,NA,NA,NA,NA,NA,NA,NA,NA,NA,NA,206.9,27051,duplicate with showroom cave,NA
biffle,TN,tennessee,hiber,NA,NA,wayne,NA,NA,NA,NA,NA,NA,NA,NA,NA,NA,NA,NA,NA,NA,NA,NA,NA,NA,NA
big,MO,missouri,hiber,NA,NA,shannon,NA,NA,NA,NA,NA,NA,NA,NA,NA,NA,NA,NA,NA,NA,NA,NA,NA,NA,NA
big amos,KY,kentucky,hiber,NA,NA,menifee,NA,NA,NA,NA,NA,NA,NA,NA,NA,NA,NA,NA,NA,NA,NA,NA,NA,NA,NA
big bat,KY,kentucky,hiber,NA,NA,breckinridge,NA,NA,NA,NA,NA,NA,NA,NA,NA,NA,NA,NA,NA,NA,NA,NA,NA,NA,NA
big bear,MO,missouri,hiber,NA,NA,shannon,NA,NA,NA,NA,NA,NA,NA,NA,NA,NA,NA,NA,NA,NA,NA,NA,NA,NA,NA
big brown bat,MO,missouri,hiber,NA,NA,madison,NA,NA,NA,NA,NA,NA,NA,NA,NA,NA,NA,NA,NA,NA,NA,NA,NA,NA,NA
big jordan,TN,tennessee,hiber,NA,NA,pickett,NA,NA,NA,NA,NA,NA,NA,NA,NA,NA,NA,NA,NA,NA,NA,NA,NA,NA,NA
big kelly,VA,virginia,hiber,,,wise,,,,,,,,,,,,,,,,,,,
big ridge mica mine,NC,north carolina,hiber,35.41714,-82.97641,haywood,WAYNESVILLE,NA,35.42,-82.98,NA,NA,17S,320558,3921098,NAD83,1437,NA,NA,NA,NA,1426.7,8939,NA,NA
big room,TN,tennessee,hiber,NA,NA,grundy,NA,NA,NA,NA,NA,NA,NA,NA,NA,NA,NA,NA,NA,NA,NA,NA,NA,NA,NA
big salt cave,KY,kentucky,hiber,NA,NA,bell,NA,NA,NA,NA,NA,NA,NA,NA,NA,NA,NA,NA,NA,NA,NA,NA,118307,NA,NA
big salt cave,VA,virginia,hiber,36.601504,-83.66107,lee,NA,NA,NA,NA,NA,NA,NA,NA,NA,NA,NA,fred used another park entrance from google earth,NA,NA,NA,NA,118307,"duplicate with gap cave, grassy springs cave, old formation pit",NA
big springs,WV,west virginia,hiber,NA,NA,tucker,NA,NA,NA,NA,NA,NA,NA,NA,NA,NA,NA,blowing,NA,NA,NA,NA,NA,NA,NA
big sulphur,KY,kentucky,hiber,NA,NA,trigg,NA,NA,NA,NA,NA,NA,NA,NA,NA,NA,NA,NA,NA,NA,NA,NA,NA,NA,NA
binkley,IN,indiana,hiber,NA,NA,harrison,NA,NA,NA,NA,NA,NA,NA,NA,NA,NA,NA,NA,NA,NA,NA,NA,NA,NA,NA
binkley cave,IN,indiana,hiber,38.191868,-86.118402,harrison,NA,NA,NA,NA,NA,NA,NA,NA,NA,NA,NA,NA,NA,NA,NA,210.9,125733,NA,NA
biology,AR,arkansas,hiber,NA,NA,stone,NA,NA,NA,NA,NA,NA,NA,NA,NA,NA,NA,"Arkansas Ecological Services Field Office, AR-51",NA,NA,NA,NA,NA,NA,NA
birk 2,IL,illinois,hiber,NA,NA,alexander,NA,NA,NA,NA,NA,NA,NA,NA,NA,NA,NA,NA,NA,NA,NA,NA,NA,NA,NA
birk 3,IL,illinois,hiber,NA,NA,alexander,NA,NA,NA,NA,NA,NA,NA,NA,NA,NA,NA,NA,NA,NA,NA,NA,NA,NA,NA
bishopella cave,AL,alabama,hiber,NA,NA,blount,NA,NA,NA,NA,NA,NA,NA,NA,NA,NA,NA,NA,NA,NA,NA,NA,1659,"duplicate with crowson cave, second cave, sewer cave, and horseshoe cave",NA
black diamond tunnel,GA,georgia,hiber,34.88575,-83.28835,rabun,NA,NA,NA,NA,NA,NA,NA,NA,NA,NA,536,NA,NA,NA,NA,531.9,109299,NA,NA
black hand cave,TX,texas,hiber,34.5366,-100.36627,childress,NA,NA,NA,NA,NA,NA,NA,NA,NA,NA,NA,NA,NA,NA,NA,542.9,116665,NA,NA
black rock cliffs cave,NC,north carolina,hiber,36.094,-81.81488,avery,NA,NA,NA,NA,NA,NA,NA,NA,NA,NA,NA,NA,NA,NA,NA,1431.2,58300,NA,NA
black run cave 1,OH,ohio,hiber,NA,NA,adams,NA,NA,NA,NA,NA,NA,NA,NA,NA,NA,NA,NA,NA,NA,NA,NA,NA,NA,NA
blackball,IL,illinois,hiber,41.34401,-89.04213,lasalle,NA,NA,NA,NA,NA,NA,NA,NA,NA,NA,171,NA,NA,NA,NA,149.3,125291,duplicate with zimmerman,NA
blanchard,AR,arkansas,hiber,35.961111,-92.181667,stone,NA,NA,NA,NA,NA,NA,NA,NA,NA,NA,NA,"blanchard springs caverns, AR-41",NA,NA,NA,184,3375,NA,NA
blankenship cave,TN,tennessee,hiber,35.657523,-84.236553,loudon,NA,NA,NA,NA,NA,NA,NA,NA,NA,NA,NA,NA,NA,NA,NA,280.4,3643,NA,NA
blowho,AL,alabama,hiber,NA,NA,jackson,NA,NA,NA,NA,NA,NA,NA,NA,NA,NA,NA,NA,NA,NA,NA,NA,10475,duplicate with wheeler-saltpeter cave,nabat
blowing,TN,tennessee,hiber,NA,NA,hickman,NA,NA,NA,NA,NA,NA,NA,NA,NA,NA,NA,NA,NA,NA,NA,NA,NA,NA,NA
blowing pulaski ky,KY,kentucky,hiber,NA,NA,pulaski,NA,NA,NA,NA,NA,NA,NA,NA,NA,NA,NA,NA,NA,NA,NA,NA,NA,NA,NA
blowing saltpeter cave,AL,alabama,hiber-logger,34.00501,-86.63732,blount,NA,NA,NA,NA,NA,NA,NA,NA,NA,NA,NA,NA,NA,NA,NA,NA,45691,duplicate with posey cave and white cave,NA
blowing wayne ky,KY,kentucky,hiber,NA,NA,wayne,NA,NA,NA,NA,NA,NA,NA,NA,NA,NA,NA,NA,NA,NA,NA,NA,NA,NA,NA
blue spring,TN,tennessee,hiber,NA,NA,montgomery,NA,NA,NA,NA,NA,NA,NA,NA,NA,NA,NA,NA,NA,NA,NA,NA,NA,NA,NA
blufca,AL,alabama,hiber,NA,NA,jackson,NA,NA,NA,NA,NA,NA,NA,NA,NA,NA,NA,NA,NA,NA,NA,NA,41851,NA,nabat
bluff cave,AL,alabama,hiber,,,jackson,,,,,,,,,,,,,,,,,,,
bluff house,IN,indiana,hiber,NA,NA,monroe,NA,NA,NA,NA,NA,NA,NA,NA,NA,NA,NA,NA,NA,NA,NA,NA,NA,NA,NA
blythe ferry,TN,tennessee,hiber,35.4086,-85.0133,meigs,NA,NA,NA,NA,NA,NA,NA,NA,NA,NA,NA,NA,NA,NA,NA,208,100323,NA,NA
bob gee,WV,west virginia,hiber,NA,NA,greenbrier,NA,NA,NA,NA,NA,NA,NA,NA,NA,NA,NA,NA,NA,NA,NA,NA,NA,NA,NA
bob overton,KY,kentucky,hiber,NA,NA,christian,NA,NA,NA,NA,NA,NA,NA,NA,NA,NA,NA,NA,NA,NA,NA,NA,NA,NA,NA
bone hole,KY,kentucky,hiber,NA,NA,carter,NA,NA,NA,NA,NA,NA,NA,NA,NA,NA,NA,NA,NA,NA,NA,NA,NA,NA,NA
boones,KY,kentucky,hiber,NA,NA,taylor,NA,NA,NA,NA,NA,NA,NA,NA,NA,NA,NA,NA,NA,NA,NA,NA,NA,NA,NA
bos cave,AL,alabama,hiber,NA,NA,madison,NA,NA,NA,NA,NA,NA,NA,NA,NA,NA,NA,NA,NA,NA,NA,NA,79972,duplicate with sandy cave,NA
boscobel bear,WI,wisconsin,hiber,43.221,-90.743,richland,NA,NA,NA,NA,NA,NA,NA,NA,NA,NA,NA,NA,NA,NA,NA,311,11099,NA,NA
bowden cave,WV,west virginia,hiber,38.91028,-79.70861,randolph,NA,NA,NA,NA,NA,NA,NA,NA,NA,NA,NA,bear heaven,NA,NA,NA,673,7408,NA,NA
bowers trail,OK,oklahoma,hiber,NA,NA,pushmataha,NA,NA,NA,NA,NA,NA,NA,NA,NA,NA,NA,NA,NA,NA,NA,NA,NA,NA,NA
bowman saltpeter,KY,kentucky,hiber,NA,NA,jackson,NA,NA,NA,NA,NA,NA,NA,NA,NA,NA,NA,NA,NA,NA,NA,NA,NA,NA,NA
brainerd,IL,illinois,hiber,NA,NA,jersey,NA,NA,NA,NA,NA,NA,NA,NA,NA,NA,NA,NA,NA,NA,NA,NA,NA,NA,NA
brandon silver mine,VT,vermont,hiber,43.78677,-73.02355,rutland,NA,NA,NA,NA,NA,NA,NA,NA,NA,NA,NA,NA,NA,NA,NA,NA,NA,NA,NA
branson,MO,missouri,hiber,NA,NA,shannon,NA,NA,NA,NA,NA,NA,NA,NA,NA,NA,NA,NA,NA,NA,NA,NA,NA,NA,NA
brasher,IL,illinois,hiber,NA,NA,pope,NA,NA,NA,NA,NA,NA,NA,NA,NA,NA,NA,NA,NA,NA,NA,NA,34667,NA,NA
breathing,VA,virginia,hiber,38.20804,-79.63758,bath,NA,NA,NA,NA,NA,NA,NA,NA,NA,NA,717,NA,NA,NA,NA,713.8,105347,NA,NA
brewer cave,AR,arkansas,hiber,36.14563,-92.912519,boone,NA,NA,NA,NA,NA,NA,NA,NA,NA,NA,NA,NA,NA,NA,NA,272.2,81951,NA,NA
bridgewater mine 2,VT,vermont,hiber,43.64776,-72.70627,windsor,,,,,,,,,,,,,,,,,,,
bronsons,IN,indiana,hiber,NA,NA,lawrence,NA,NA,NA,NA,NA,NA,NA,NA,NA,NA,NA,NA,NA,NA,NA,NA,NA,NA,NA
brooks,MO,missouri,hiber-logger,NA,NA,pulaski,NA,NA,NA,NA,NA,NA,NA,NA,NA,NA,NA,NA,NA,NA,NA,NA,NA,NA,NA
broughs tunnel,IN,indiana,hiber,38.759241,-85.430109,jefferson,NA,NA,NA,NA,NA,NA,NA,NA,NA,NA,NA,NA,NA,NA,NA,242.5,37547,NA,NA
bruce,MO,missouri,hiber,NA,NA,pulaski,NA,NA,NA,NA,NA,NA,NA,NA,NA,NA,NA,NA,NA,NA,NA,NA,NA,NA,NA
buck creek culvert,GA,georgia,hiber,NA,NA,haralson,NA,NA,NA,NA,NA,NA,NA,NA,NA,NA,NA,NA,NA,NA,NA,NA,49643,NA,NA
buckeye,KY,kentucky,hiber,NA,NA,letcher,NA,NA,NA,NA,NA,NA,NA,NA,NA,NA,NA,NA,NA,NA,NA,NA,NA,NA,NA
buckner,IN,indiana,hiber,NA,NA,monroe,NA,NA,NA,NA,NA,NA,NA,NA,NA,NA,NA,NA,NA,NA,NA,NA,NA,NA,NA
bucks pocket cave,AL,alabama,hiber,NA,NA,dekalb,NA,NA,NA,NA,NA,NA,NA,NA,NA,NA,NA,NA,NA,NA,NA,NA,124530,NA,NA
buddy penley,VA,virginia,hiber,37.10255,-81.11621,bland,bland,NA,NA,NA,town centroid,NA,NA,NA,NA,NA,NA,NA,NA,NA,NA,742.9,54188,NA,NA
bull,TN,tennessee,hiber,NA,NA,blount,NA,NA,NA,NA,NA,NA,NA,NA,NA,NA,NA,NA,NA,NA,NA,NA,NA,NA,NA
bull mine,NY,new york,hiber,41.36722,-74.20083,orange,NA,NA,NA,NA,NA,NA,NA,NA,NA,NA,NA,NA,NA,NA,NA,241.4,41520,NA,NA
bullock county culvert 1105,AL,alabama,hiber,NA,NA,bullock,NA,NA,NA,NA,NA,NA,NA,NA,NA,NA,NA,NA,NA,NA,NA,NA,59668,NA,NA
bunker 204,NH,new hampshire,hiber,43.0446,-70.71532,rockingham,NA,NA,NA,NA,NA,NA,NA,NA,NA,NA,NA,NA,NA,NA,NA,8.7,64951,NA,NA
bunkum cave,TN,tennessee,,,,pickett,,,,,,,,,,,,,,,,,,,
burton,IL,illinois,hiber,39.89,-91.25,adams,NA,NA,39.89,-91.25,NA,NA,NA,NA,NA,NA,NA,NA,NA,NA,NA,189,131694,NA,NA
bus stop,KY,kentucky,hiber,NA,NA,lee,NA,NA,NA,NA,NA,NA,NA,NA,NA,NA,NA,NA,NA,NA,NA,NA,NA,NA,NA
buzzard,KY,kentucky,hiber,NA,NA,breckinridge,NA,NA,NA,NA,NA,NA,NA,NA,NA,NA,NA,NA,NA,NA,NA,NA,NA,NA,NA
buzzard,MO,missouri,hiber,NA,NA,pike,NA,NA,NA,NA,NA,NA,NA,NA,NA,NA,NA,NA,NA,NA,NA,NA,NA,NA,NA
buzzards den cave,AL,alabama,hiber,NA,NA,clarke,NA,NA,NA,NA,NA,NA,NA,NA,NA,NA,NA,NA,NA,NA,NA,NA,34180,NA,NA
cagle saltpeter,TN,tennessee,hiber,NA,NA,van buren,NA,NA,NA,NA,NA,NA,NA,NA,NA,NA,NA,NA,NA,NA,NA,NA,NA,NA,NA
calcote branch cave,MS,mississippi,hiber,31.50956,-90.73511,franklin,brookhaven,NA,NA,NA,NA,NA,NA,NA,NA,NA,NA,NA,no,no,yes,103.1,4020,NA,NA
calderwood cave,TN,tennessee,hiber,NA,NA,blount,NA,NA,NA,NA,NA,NA,NA,NA,NA,NA,NA,NA,NA,NA,NA,NA,NA,NA,NA
camps gulf,TN,tennessee,hiber,NA,NA,van buren,NA,NA,NA,NA,NA,NA,NA,NA,NA,NA,NA,NA,NA,NA,NA,NA,NA,NA,NA
campsey cave,TX,texas,hiber,34.2382669,-99.96713231,hardeman,NA,NA,NA,NA,NA,NA,NA,NA,NA,NA,NA,NA,NA,NA,NA,463.2,75371,duplicate with cedar cave,NA
carbide cave,MA,massachusetts,hiber,NA,NA,franklin,NA,NA,NA,NA,NA,NA,NA,NA,NA,NA,NA,NA,NA,NA,NA,NA,103406,duplicate with easter cave,NA
carlton cave,TN,tennessee,hiber,35.008056,-86.148611,franklin,NA,NA,NA,NA,NA,NA,NA,NA,NA,NA,NA,NAD83,NA,NA,NA,NA,115514,NA,NA
carroll,MO,missouri,hiber,NA,NA,camden,NA,NA,NA,NA,NA,NA,NA,NA,NA,NA,NA,NA,NA,NA,NA,NA,NA,NA,NA
cascade,KY,kentucky,hiber,NA,NA,carter,NA,NA,NA,NA,NA,NA,NA,NA,NA,NA,NA,NA,NA,NA,NA,NA,NA,NA,NA
case,GA,georgia,hiber,NA,NA,dade,NA,NA,NA,NA,NA,NA,NA,NA,NA,NA,NA,Geogia FO,NA,NA,NA,NA,NA,NA,NA
casparis mine,PA,pennsylvania,hiber-logger,39.97055555,-79.561111,fayette,NA,NA,NA,NA,NA,NA,NA,NA,NA,NA,NA,NA,NA,NA,NA,508,32752,duplicate with dunbar,NA
cass,WV,west virginia,hiber,NA,NA,pocahontas,NA,NA,NA,NA,NA,NA,NA,NA,NA,NA,NA,NA,NA,NA,NA,NA,NA,NA,NA
casselman river mine,PA,pennsylvania,hiber,NA,NA,somerset,NA,NA,NA,NA,NA,NA,NA,NA,NA,NA,NA,NA,NA,NA,NA,NA,NA,NA,NA
cat hollow cave,MO,missouri,hiber,37.4355,-92.5351,dallas,NA,NA,NA,NA,NA,NA,NA,NA,NA,NA,NA,NA,NA,NA,yes,379.1,12143,NA,NA
catacombs cave,AL,alabama,hiber,NA,NA,monroe,NA,NA,NA,NA,NA,NA,NA,NA,NA,NA,NA,NA,NA,NA,NA,NA,42116,duplicate with manistee cave,NA
cathedral,MO,missouri,hiber,NA,NA,crawford,NA,NA,NA,NA,NA,NA,NA,NA,NA,NA,NA,NA,NA,NA,NA,NA,NA,NA,NA
cathedral caverns,AL,alabama,hiber,NA,NA,marshall,NA,NA,NA,NA,NA,NA,NA,NA,NA,NA,NA,"Daphne, AL field office",NA,NA,NA,NA,70172,duplicate with grossk,NA
cave branch,KY,kentucky,hiber,NA,NA,menifee,NA,NA,NA,NA,NA,NA,NA,NA,NA,NA,NA,NA,NA,NA,NA,NA,NA,NA,NA
cave hollow cave,KY,kentucky,hiber,NA,NA,lee,NA,NA,NA,NA,NA,NA,NA,NA,NA,NA,NA,NA,NA,NA,NA,NA,NA,NA,NA
cave hollow cave,MO,missouri,hiber,37.6037,-91.0885,iron,BIXBY,NA,NA,NA,NA,NA,NA,NA,NA,NA,NA,NA,NA,NA,yes,358.4,107439,NA,NA
cave hollow pit,KY,kentucky,hiber,NA,NA,lee,NA,NA,NA,NA,NA,NA,NA,NA,NA,NA,NA,NA,NA,NA,NA,NA,NA,NA,NA
cave mountain,AR,arkansas,hiber,NA,NA,newton,NA,NA,NA,NA,NA,NA,NA,NA,NA,NA,NA,"Arkansas Ecological Services Field Office, AR-32",NA,NA,NA,NA,NA,NA,NA
cave mountain,WV,west virginia,hiber,NA,NA,pendleton,NA,NA,NA,NA,NA,NA,NA,NA,NA,NA,NA,NA,NA,NA,NA,NA,NA,NA,NA
cave of the bats,NS,nova scotia,hiber-logger,44.99883,-63.44284,NA,NA,NA,NA,NA,NA,NA,NA,NA,NA,NA,NA,NA,NA,NA,NA,24.8,47644,NA,NA
cave spring,IL,illinois,hiber,NA,NA,hardin,NA,NA,NA,NA,NA,NA,NA,NA,NA,NA,NA,"shetlerville cave, james watters cave",NA,NA,NA,NA,NA,NA,NA
cave spring cave TX,TX,texas,hiber,31.98183,-94.39616,panola,gary city,NA,NA,NA,NA,NA,NA,NA,NA,NA,NA,NA,NA,NA,NA,NA,99481,NA,NA
cave springs,AR,arkansas,hiber,NA,NA,benton,NA,NA,NA,NA,NA,NA,NA,NA,NA,NA,NA,"Arkansas Ecological Services Field Office, AR-09",NA,NA,NA,NA,NA,NA,NA
cave springs cave,AL,alabama,hiber,34.569,-86.909,morgan,Decatur,NA,NA,NA,NA,yes,NA,NA,NA,NA,NA,NA,NA,NA,NA,179.4,117083,NA,NA
cave mountain cave,AL,alabama,hiber,NA,NA,marshall,NA,NA,NA,NA,NA,NA,NA,NA,NA,NA,NA,NA,NA,NA,NA,NA,31355,NA,nabat
cedar cave,TX,texas,hiber,34.24501,-99.96801,hardeman,NA,NA,NA,NA,NA,NA,NA,NA,NA,NA,NA,NA,NA,NA,NA,481.2,75371,duplicate with campsey cave,NA
cedar post,KY,kentucky,hiber,NA,NA,jackson,NA,NA,NA,NA,NA,NA,NA,NA,NA,NA,NA,NA,NA,NA,NA,NA,NA,NA,NA
chambliss cave,GA,georgia,hiber,34.915225,-85.263787,dade,NA,NA,NA,NA,NA,NA,NA,NA,NA,NA,NA,NA,NA,NA,NA,225.4,34027,"duplicate with 27 spiders cave, haha cave, lookout mountain battlefield pit 1, lookout mountain battlefield pit 2",NA
charlton mine,AR,arkansas,hiber,34.51522292,-93.38283755,garland,NA,NA,NA,NA,NA,NA,NA,NA,NA,NA,NA,NA,NA,NA,NA,198.4,69439,NA,NA
cheever mine,NY,new york,hiber,44.07583,-73.45277,essex,NA,NA,NA,NA,NA,NA,NA,NA,NA,NA,NA,NA,NA,NA,NA,NA,NA,NA,NA
cherry hollow cave,AL,alabama,hiber,NA,NA,marshall,NA,NA,NA,NA,NA,NA,NA,NA,NA,NA,NA,NA,NA,NA,NA,NA,114991,duplicate with kings spring cave,NA
chester emery mine,MA,massachusetts,hiber,NA,NA,hampden,NA,NA,NA,NA,NA,NA,NA,NA,NA,NA,NA,NA,NA,NA,NA,NA,NA,NA,NA
chimney rock,MO,missouri,hiber,NA,NA,barry,NA,NA,NA,NA,NA,NA,NA,NA,NA,NA,NA,NA,NA,NA,NA,NA,NA,NA,NA
chispc,AL,alabama,hiber,NA,NA,jackson,NA,NA,NA,NA,NA,NA,NA,NA,NA,NA,NA,NA,NA,NA,NA,NA,58235,duplicate with rdsdca,nabat
cinderwall cave,ID,idaho,hiber,NA,NA,fremont,NA,NA,NA,NA,NA,NA,NA,NA,NA,NA,NA,NA,NA,NA,NA,NA,103308,NA,NA
civil war bunker,TN,tennessee,hiber,,,tipton,,,,,,,,,,,,,,,,,,,
clarks,VA,virginia,hiber,NA,NA,bath,NA,NA,NA,NA,NA,NA,NA,NA,NA,NA,NA,NA,NA,NA,NA,NA,NA,NA,NA
clarksville cave,NY,new york,hiber,42.57719,-73.9637,albany,,,,,,,,,,,,,,,,,,,
clay cave,AR,arkansas,hiber,35.99758,-91.99005,izard,NA,NA,NA,NA,NA,NA,NA,NA,NA,NA,NA,NA,NA,NA,NA,NA,36143,NA,NA
clear creek cave 1,OH,ohio,hiber,NA,NA,hocking,NA,NA,NA,NA,NA,NA,NA,NA,NA,NA,NA,NA,NA,NA,NA,NA,NA,NA,NA
clear creek cave 2,OH,ohio,hiber,NA,NA,hocking,NA,NA,NA,NA,NA,NA,NA,NA,NA,NA,NA,NA,NA,NA,NA,NA,NA,NA,NA
cliff,MO,missouri,hiber,NA,NA,st louis,NA,NA,NA,NA,NA,NA,NA,NA,NA,NA,NA,NA,NA,NA,NA,NA,NA,NA,NA
cliff cave,KY,kentucky,hiber,NA,NA,bell,NA,NA,NA,NA,NA,NA,NA,NA,NA,NA,NA,NA,NA,NA,NA,NA,118307,NA,NA
cliff cave,WV,west virginia,hiber,38.78639,-79.12333,pendleton,NA,NA,NA,NA,NA,NA,NA,NA,NA,NA,NA,NA,NA,NA,NA,430.1,49648,NA,NA
climax,KY,kentucky,hiber,NA,NA,rockcastle,NA,NA,NA,NA,NA,NA,NA,NA,NA,NA,NA,NA,NA,NA,NA,NA,NA,NA,NA
clinton,NY,new york,hiber,44.47944,-73.57416,clinton,,,,,,,,,,,,,,,,,,,
clyfty cave,IN,indiana,hiber,39.13256,-86.8353,greene,NA,NA,NA,NA,NA,NA,NA,NA,NA,NA,NA,dooley cave,NA,NA,NA,180.8,125340,NA,NA
coach,KY,kentucky,hiber,37.21304,-86.24562,edmonson,NA,NA,NA,NA,yes,NA,NA,NA,NA,NA,NA,NA,NA,NA,NA,133.3,40619,"duplicate with currie cave, hickory flat cave",NA
coal run,WV,west virginia,hiber,NA,NA,tucker,NA,NA,NA,NA,NA,NA,NA,NA,NA,NA,NA,NA,NA,NA,NA,NA,NA,NA,NA
cochran cave,TN,tennessee,hiber,36.0881,-82.9794,greene,NA,NA,NA,NA,NA,NA,NA,NA,NA,NA,NA,NA,NA,NA,NA,339.9,36843,NA,NA
coffin cave,MO,missouri,hiber,37.78,-92.85,laclede,NA,NA,NA,NA,NA,NA,NA,NA,NA,NA,NA,NA,NA,NA,yes,291,110519,NA,NA
coldwater creek cave,AR,arkansas,hiber,36.13624,-92.2906,baxter,norfork,NA,NA,NA,NA,NA,NA,NA,NA,NA,232,NA,NA,NA,NA,233.3,48431,NA,NA
coldwater springs cave,MO,missouri,hiber,37.42,-90.135,ste genevieve,NA,NA,37.7,-90.23,NA,NA,NA,743959,4176326,NA,239,NA,NA,NA,yes,243,55023,NA,NA
cole springs cave,AL,alabama,hiber,NA,NA,morgan,NA,NA,NA,NA,NA,NA,NA,NA,NA,NA,NA,NA,NA,NA,NA,NA,93953,duplicate with collie,NA
coleman,TN,tennessee,hiber,NA,NA,montgomery,NA,NA,NA,NA,NA,NA,NA,NA,NA,NA,NA,NA,NA,NA,NA,NA,NA,NA,NA
collie,AL,alabama,hiber,NA,NA,morgan,NA,NA,NA,NA,NA,NA,NA,NA,NA,NA,NA,NA,NA,NA,NA,NA,93953,cuplicate with cole springs coffee,nabat
collier,AL,alabama,hiber,34.7589,-87.7519,lauderdale,NA,NA,NA,NA,NA,NA,NA,NA,NA,NA,NA,NA,NA,NA,NA,158.5,96959,duplicate with key,nabat says colbert co
colossal,KY,kentucky,hiber-logger,NA,NA,edmonson,NA,NA,NA,NA,NA,NA,NA,NA,NA,NA,NA,NA,NA,NA,NA,NA,71632,NA,NA
colslb,AL,alabama,hiber,NA,NA,lauderdale,NA,NA,NA,NA,NA,NA,NA,NA,NA,NA,NA,NA,NA,NA,NA,NA,132805,duplicate with mckinney cave,nabat
cookstove cave,MO,missouri,hiber,37.234,-91.2054,shannon,NA,NA,NA,NA,NA,NA,NA,NA,NA,NA,NA,dance hall,NA,NA,NA,268.8,14191,NA,NA
cool springs,KY,kentucky,hiber,NA,NA,trigg,NA,NA,NA,NA,NA,NA,NA,NA,NA,NA,NA,NA,NA,NA,NA,NA,NA,NA,NA
coon,IN,indiana,hiber,NA,NA,monroe,NA,NA,NA,NA,NA,NA,NA,NA,NA,NA,NA,NA,NA,NA,NA,NA,NA,NA,NA
coon,VA,virginia,hiber,37.115,-80.978,bland,NA,NA,NA,NA,from newberry baines offset,NA,NA,NA,NA,NA,NA,NA,NA,NA,NA,809.8,77514,duplicate with newberry,NA
coon track cave,AL,alabama,hiber,NA,NA,shelby,NA,NA,NA,NA,NA,NA,NA,NA,NA,NA,NA,NA,NA,NA,NA,NA,81408,NA,NA
cooncave_in,IN,indiana,hiber-logger,39.13976264,-86.66182452,crawford,NA,NA,NA,NA,NA,NA,NA,NA,NA,NA,NA,NA,NA,NA,NA,258,62891,duplicate with grotto cave,NA
cooper creek cave,TN,tennessee,hiber,36.51778,-87.55972,montgomery,NA,NA,NA,NA,NA,NA,NA,NA,NA,NA,NA,fosters cave,NA,NA,NA,135.1,54971,duplicate with bellamy cave,NA
copper hollow sink,MO,missouri,hiber,NA,NA,franklin,NA,NA,NA,NA,NA,NA,NA,NA,NA,NA,NA,cave 009,NA,NA,NA,NA,NA,NA,NA
copperhead mine,IN,indiana,hiber,39.80734,-87.389612,vermillion,NA,NA,NA,NA,NA,NA,NA,NA,NA,NA,NA,NA,NA,NA,NA,179.6,67544,NA,NA
coriolis,TN,tennessee,hiber,NA,NA,fentress,NA,NA,NA,NA,NA,NA,NA,NA,NA,NA,NA,NA,NA,NA,NA,NA,NA,NA,NA
corkscrew,AR,arkansas,hiber,NA,NA,newton,NA,NA,NA,NA,NA,NA,NA,NA,NA,NA,NA,"Arkansas Ecological Services Field Office, AR-48",NA,NA,NA,NA,NA,NA,NA
cornstarch,TN,tennessee,hiber,NA,NA,fentress,NA,NA,NA,NA,NA,NA,NA,NA,NA,NA,NA,NA,NA,NA,NA,NA,NA,NA,NA
cornwell,WV,west virginia,hiber,NA,NA,preston,NA,NA,NA,NA,NA,NA,NA,NA,NA,NA,NA,NA,NA,NA,NA,NA,NA,NA,NA
cow-counterfeiter,KY,kentucky,hiber,NA,NA,carter,NA,NA,NA,NA,NA,NA,NA,NA,NA,NA,NA,NA,NA,NA,NA,NA,NA,NA,NA
cp tunnel,WI,wisconsin,hiber-logger,44.00808,-90.578987,monroe,NA,NA,NA,NA,NA,NA,NA,NA,NA,NA,NA,NA,NA,NA,NA,NA,62619,,NA
crabtree,MD,maryland,hiber,39.5068496,-79.1386591,garrett,NA,NA,NA,NA,NA,NA,NA,NA,NA,NA,NA,NA,no,no,yes,563.7,61680,NA,NA
craig barn,VA,virginia,maternity,NA,NA,NA,NA,NA,NA,NA,NA,NA,NA,NA,NA,NA,NA,NA,NA,NA,NA,NA,NA,NA,NA
craig cave,CA,california,hiber,41.71743,-121.4587,siskiyou,NA,NA,NA,NA,NA,NA,NA,NA,NA,NA,1334,NA,NA,NA,NA,1332.2,29498,"duplicate with incline cave, juniper-hercules leg, labrynth lavabrook, north bend",NA
cranberry iron mine,NC,north carolina,hiber,36.13991,-81.97237,avery,CRANBERRY,NA,36.14,-81.97,NA,NA,17S,412516,3999904,NAD83,989,NA,NA,NA,NA,993.6,65452,NA,NA
cranberry mine,NY,new york,hiber,41.30157,-74.05159,orange,,,,,,,,,,,,,,,,,,,
creech cave,MO,missouri,hiber,39.05,-90.95,lincoln,NA,NA,NA,NA,NA,NA,NA,NA,NA,NA,NA,NA,NA,NA,NA,195,72291,NA,NA
cripps mill,TN,tennessee,hiber,NA,NA,dekalb,NA,NA,NA,NA,NA,NA,NA,NA,NA,NA,NA,NA,NA,NA,NA,NA,NA,NA,NA
crooked creek ice,KY,kentucky,hiber,NA,NA,rockcastle,NA,NA,NA,NA,NA,NA,NA,NA,NA,NA,NA,NA,NA,NA,NA,NA,NA,NA,NA
crosca,AL,alabama,hiber,NA,NA,jackson,NA,NA,NA,NA,NA,NA,NA,NA,NA,NA,NA,NA,NA,NA,NA,NA,109896,duplicate with fern and onlcav,nabat
crossroads,VA,virginia,hiber,38.0534,-79.6918,bath,NA,NA,NA,NA,NA,NA,NA,NA,NA,NA,479,NA,NA,NA,NA,476.7,41132,NA,NA
crowson cave,AL,alabama,hiber,NA,NA,blount,NA,NA,NA,NA,NA,NA,NA,NA,NA,NA,NA,NA,NA,NA,NA,NA,1659,"duplicate with bishopella cave, second cave, sewer cave, and horseshoe cave",NA
crump,KY,kentucky,hiber,NA,NA,warren,NA,NA,NA,NA,NA,NA,NA,NA,NA,NA,NA,NA,NA,NA,NA,NA,NA,NA,NA
crump cave,AL,alabama,hiber,NA,NA,blount,NA,NA,NA,NA,NA,NA,NA,NA,NA,NA,NA,"Daphne, AL field office",NA,NA,NA,NA,NA,NA,"in nabat as dale co, same cave or same name?"
crystal,KY,kentucky,hiber,NA,NA,letcher,NA,NA,NA,NA,NA,NA,NA,NA,NA,NA,NA,NA,NA,NA,NA,NA,NA,NA,NA
crystal cave,OK,oklahoma,hiber,35.64,-94.82,cherokee,NA,NA,NA,NA,NA,NA,NA,NA,NA,NA,282,NA,NA,NA,NA,282,12191,duplicate with sq-1,NA
crystal_wi,WI,wisconsin,hiber,44.833055,-92.251915,pierce,NA,NA,NA,NA,NA,NA,NA,NA,NA,NA,NA,NA,NA,NA,NA,NA,96551,duplicate with south portal,NA
csm,PA,pennsylvania,hiber-logger,40.8722222,-80.3130555,lawrence,NA,NA,NA,NA,NA,NA,NA,NA,NA,NA,NA,NA,NA,NA,NA,300,752,NA,NA
cumberland gap saltpeter,VA,virginia,hiber,NA,NA,lee,NA,NA,NA,NA,NA,NA,NA,NA,NA,NA,NA,"gap, cudjos, soldiers, king solomon's, big salt",NA,NA,NA,NA,NA,NA,NA
currie cave,KY,kentucky,hiber,37.1954995,-86.2806738,edmonson,NA,NA,NA,NA,NA,NA,NA,NA,NA,NA,NA,"lat long approximated from google maps, spot chosen randomly within Mammoth National Park, KY",NA,NA,NA,NA,40619,"duplicate with coach, hickory flat cave",NA
cushman,AR,arkansas,hiber,NA,NA,independence,NA,NA,NA,NA,NA,NA,NA,NA,NA,NA,NA,"Arkansas Ecological Services Field Office, AR-73",NA,NA,NA,NA,NA,NA,NA
dancehall cave,IA,iowa,hiber,42.11932,-90.77288,jackson,maquoketa,NA,NA,NA,NA,NA,NA,NA,NA,NA,NA,NA,NA,NA,NA,257.1,99777,NA,NA
davis cave no 2,MO,missouri,hiber,NA,NA,pulaski,NA,NA,NA,NA,NA,NA,NA,NA,NA,NA,NA,NA,NA,NA,NA,NA,NA,NA,NA
delaware mine,MI,michigan,hiber,47.424308,-88.092305,keweenaw,NA,Al Kurta email,NA,NA,NA,NA,NA,NA,NA,NA,NA,NEED TO GET LAT/LONGS,no,no,yes,387.7,84990,NA,NA
dells culvert,WI,wisconsin,hiber,43.62126,-89.77126,sauk,NA,NA,NA,NA,NA,NA,NA,NA,NA,NA,NA,NA,NA,NA,NA,265.1,219,NA,NA
derringer colliery mine,PA,pennsylvania,hiber,NA,NA,luzerne,NA,NA,NA,NA,NA,NA,NA,NA,NA,NA,NA,"buck mountain, penn wind hazelton 09",NA,NA,NA,NA,NA,NA,NA
devils cave,AR,arkansas,hiber,35.77972,-94.24667,washington,NA,NA,NA,NA,NA,NA,NA,NA,NA,NA,361,"devils den state park caves, AR-55",NA,NA,NA,346,45471,NA,NA
devils icebox,MO,missouri,hiber,NA,NA,boone,NA,NA,NA,NA,NA,NA,NA,NA,NA,NA,NA,NA,NA,NA,NA,NA,NA,NA,NA
dixon cave,KY,kentucky,hiber,NA,NA,hart,NA,NA,NA,NA,NA,NA,NA,NA,NA,NA,NA,NA,NA,NA,NA,NA,71632,NA,NA
dl-21,OK,oklahoma,hiber,36.180161,-94.522275,delaware,NA,NA,NA,NA,NA,NA,NA,NA,NA,NA,NA,NA,NA,NA,NA,351.3,101028,NA,NA
dl-38,OK,oklahoma,hiber,36.46,-94.97,delaware,NA,NA,NA,NA,NA,NA,NA,NA,NA,NA,321,NA,NA,NA,NA,317,59295,NA,NA
dl-39,OK,oklahoma,hiber,36.32,-94.71,delaware,NA,NA,NA,NA,NA,NA,NA,NA,NA,NAD27,273,NA,NA,NA,NA,274,99984,NA,NA
dl-91,OK,oklahoma,hiber,36.280943,-94.540295,delaware,NA,NA,NA,NA,NA,NA,NA,NA,NA,NA,NA,NA,NA,NA,NA,364.4,18335,NA,NA
dobkin spring,MO,missouri,hiber,NA,NA,crawford,NA,NA,NA,NA,NA,NA,NA,NA,NA,NA,NA,NA,NA,NA,NA,NA,NA,NA,NA
dodd,AR,arkansas,hiber,NA,NA,independence,NA,NA,NA,NA,NA,NA,NA,NA,NA,NA,NA,"Arkansas Ecological Services Field Office, AR-12",NA,NA,NA,NA,NA,NA,NA
donovan,MO,missouri,hiber,NA,NA,texas,NA,NA,NA,NA,NA,NA,NA,NA,NA,NA,NA,dunvin,NA,NA,NA,NA,NA,NA,NA
double mouth cave,TN,tennessee,hiber,36.17334,-82.84603,greene,NA,NA,NA,NA,yes,NA,NA,NA,NA,NA,NA,NA,NA,NA,NA,443.1,103159,duplicate with poplar cave,NA
douglas hollow cave,MO,missouri,hiber,NA,NA,shannon,NA,NA,NA,NA,NA,NA,NA,NA,NA,NA,NA,NA,NA,NA,NA,NA,NA,NA,NA
dragon's breath,TN,tennessee,hiber,NA,NA,fentress,NA,NA,NA,NA,NA,NA,NA,NA,NA,NA,NA,NA,NA,NA,NA,NA,NA,NA,NA
dreen,WV,west virginia,hiber,38.4729,-80.113,pocahontas,NA,NA,NA,NA,NA,NA,NA,NA,NA,NA,NA,NA,NA,NA,NA,799.8,108973,NA,NA
dripping springs,KY,kentucky,hiber,NA,NA,hardin,NA,NA,NA,NA,NA,NA,NA,NA,NA,NA,NA,NA,NA,NA,NA,NA,NA,NA,NA
dry cave paint township,OH,ohio,hiber,NA,NA,highland,NA,NA,NA,NA,NA,NA,NA,NA,NA,NA,NA,NA,NA,NA,NA,NA,NA,NA,NA
dunbar,PA,pennsylvania,hiber-logger,39.96,-79.59722,NA,NA,NA,NA,NA,NA,NA,NA,NA,NA,NA,NA,NA,NA,NA,NA,426,32752,duplicate with casparis mine,NA
dunbar cave,TN,tennessee,hiber,36.49548,-87.38154,montgomery,NA,NA,NA,NA,yes - with offset,NA,NA,NA,NA,NA,NA,NA,NA,NA,NA,109.3,9915,NA,NA
dunham,AL,alabama,hiber,NA,NA,marshall,NA,NA,NA,NA,NA,NA,NA,NA,NA,NA,NA,NA,NA,NA,NA,NA,93170,"duplicate with kings school, quarry cave, and mitchell cave",nabat
dunham,TN,tennessee,hiber,34.4661,-86.2792,marshall,guntersville,NA,NA,NA,NA,NA,NA,NA,NA,NA,NA,NA,NA,NA,NA,NA,93170,"duplicate with kings school, quarry cave, and mitchell cave",NA
durham,PA,pennsylvania,hiber-logger,40.5797222,-75.203888,NA,NA,NA,NA,NA,NA,NA,NA,NA,NA,NA,NA,NA,NA,NA,NA,66,84221,NA,NA
dworshale tunnels,ID,idaho,hiber,46.668015,-115.65764,clearwater,NA,NOT LISTED,NA,NA,yes,NA,NA,NA,NA,NA,NA,NA,NA,NA,NA,1193.9,101234,listed as dworshak tunnels in nabat_combo_grids,NA
dyers,WV,west virginia,hiber,NA,NA,hardy,NA,NA,NA,NA,NA,NA,NA,NA,NA,NA,NA,NA,NA,NA,NA,NA,NA,NA,NA
dykes bridge,KY,kentucky,hiber,NA,NA,pulaski,NA,NA,NA,NA,NA,NA,NA,NA,NA,NA,NA,NA,NA,NA,NA,NA,NA,NA,NA
eagle,NY,new york,hiber,43.69777,-74.21194,hamilton,indian lake,NA,NA,NA,NA,NA,NA,NA,NA,NA,NA,NA,NA,NA,NA,638.4,32663,NA,NA
eagle creek mine,NC,north carolina,hiber,35.47819,-83.76967,swain,NA,NA,NA,NA,NA,NA,NA,NA,NA,NA,NA,NA,NA,NA,NA,573,100936,duplicate with hazel creek mine,NA
east fork saltpeter,TN,tennessee,hiber,36.41275,-85.02528,fentress,NA,NA,NA,NA,NA,NA,NA,NA,NA,NA,NA,NA,NA,NA,NA,229.2,96536,NA,NA
easter cave,MA,massachusetts,hiber,NA,NA,franklin,NA,NA,NA,NA,NA,NA,NA,NA,NA,NA,NA,NA,NA,NA,NA,NA,103406,duplicate with carbide cave,NA
eaves cave,TN,tennessee,,,,,,,,,,,,,,,,,,,,,,,
ed johnson cave,AL,alabama,hiber,NA,NA,franklin,NA,NA,NA,NA,NA,NA,NA,NA,NA,NA,NA,NA,NA,NA,NA,NA,15483,NA,NA
edgeman,AR,arkansas,hiber,NA,NA,newton,NA,NA,NA,NA,NA,NA,NA,NA,NA,NA,NA,"Arkansas Ecological Services Field Office, AR-47",NA,NA,NA,NA,NA,NA,NA
el abismo ,TN,tennessee,hiber,NA,NA,white,NA,NA,NA,NA,NA,NA,NA,NA,NA,NA,NA,NA,NA,NA,NA,NA,NA,NA,NA
el dorado springs,MO,missouri,hiber,37.870833,-94.021111,cedar,NA,NA,NA,NA,NA,NA,NA,NA,NA,NA,NA,NA,NA,NA,yes,267,62783,NA,NA
elkton cave,MO,missouri,hiber,37.849797,-93.410544,hickory,NA,NA,NA,NA,NA,NA,NA,NA,NA,NA,NA,NA,NA,NA,yes,315.6,75499,NA,NA
ellis cave,IL,illinois,hiber,37.48,-88.45,pope,NA,NA,37.48,-88.45,NA,NA,NA,NA,NA,NA,NA,NA,NA,NA,NA,109,77122,NA,NA
ellisons cave,GA,georgia,hiber,34.70925,-85.35661,walker,NA,NA,NA,NA,NA,NA,NA,NA,NA,NA,NA,NA,NA,NA,NA,NA,21739,duplicate with fricks,NA
elm,AR,arkansas,hiber,NA,NA,marion,NA,NA,NA,NA,NA,NA,NA,NA,NA,NA,NA,"Arkansas Ecological Services Field Office, AR-13",NA,NA,NA,NA,NA,NA,NA
elroy sparta,WI,wisconsin,hiber,43.86371,-90.67402,monroe,NA,NA,NA,NA,NA,NA,NA,NA,NA,NA,NA,NA,NA,NA,NA,363.5,66659,NA,NA
ely copper mine,VT,vermont,hiber,43.92896,-72.2847,orange,NA,NA,NA,NA,NA,NA,NA,NA,NA,NA,NA,NA,NA,NA,NA,427.6,54903,NA,NA
emanuel county creek culvert,GA,georgia,hiber,NA,NA,emanuel,NA,NA,NA,NA,NA,NA,NA,NA,NA,NA,NA,NA,NA,NA,NA,NA,129970,NA,NA
emerson,GA,georgia,hiber,NA,NA,bartow,NA,NA,NA,NA,NA,NA,NA,NA,NA,NA,NA,NA,NA,NA,NA,NA,53739,NA,NA
endless cave,IN,indiana,hiber,38.6911,-86.25537,washington,NA,NA,NA,NA,NA,NA,NA,NA,NA,NA,NA,dry clifty cave,NA,NA,NA,213.6,28075,NA,NA
equality cave,IL,illinois,hiber,37.69,-88.41,saline,NA,NA,37.69,-88.41,NA,NA,NA,NA,NA,NA,NA,NA,NA,NA,NA,176,34987,duplicate with equality cave,NA
eucutta cave,MS,mississippi,hiber,31.81203,-88.82715,wayne,NA,NA,NA,NA,NA,NA,NA,NA,NA,NA,NA,NA,NA,NA,NA,81.1,54916,NA,NA
eves cave,TN,tennessee,hiber,35.5533,-84.7922,meigs,NA,NA,NA,NA,NA,NA,NA,NA,NA,NA,NA,NA,NA,NA,NA,225.8,7739,NA,NA
fahnestock,NY,new york,hiber,41.466366,-73.824669,putnam/dutchess,carmel,NA,NA,NA,NA,NA,NA,NA,NA,NA,NA,NA,NA,NA,NA,NA,129066,NA,NA
falling springs,WV,west virginia,hiber,NA,NA,randolph,NA,NA,NA,NA,NA,NA,NA,NA,NA,NA,NA,NA,NA,NA,NA,NA,NA,NA,NA
fern,AL,alabama,hiber,34.65316,-86.29837,jackson,Fern Cave NWR,NA,NA,NA,NA,NWR used,NA,NA,NA,NA,NA,NA,NA,NA,NA,266.8,109896,duplicate with crosca and onlcav,NA
fiery fork,MO,missouri,hiber,NA,NA,camden,NA,NA,NA,NA,NA,NA,NA,NA,NA,NA,NA,NA,NA,NA,NA,NA,NA,NA,NA
fisher,MO,missouri,hiber,NA,NA,franklin,NA,NA,NA,NA,NA,NA,NA,NA,NA,NA,NA,NA,NA,NA,NA,NA,NA,NA,NA
fisher hill mine,NY,new york,hiber,44.11056,-73.52417,essex,ELIZABETHTOWN,NA,NA,NA,NA,NA,NA,NA,NA,NA,455,NA,NA,NA,NA,456.1,88480,duplicate with barton hill mine,NA
fitton,AR,arkansas,hiber,NA,NA,newton,NA,NA,NA,NA,NA,NA,NA,NA,NA,NA,NA,"Arkansas Ecological Services Field Office, AR-58",NA,NA,NA,NA,NA,NA,NA
flea,AR,arkansas,hiber,NA,NA,newton,NA,NA,NA,NA,NA,NA,NA,NA,NA,NA,NA,"Arkansas Ecological Services Field Office, AR-35",NA,NA,NA,NA,NA,NA,NA
flutter-putter cave,AL,alabama,hiber,NA,NA,jackson,NA,NA,NA,NA,NA,NA,NA,NA,NA,NA,NA,NA,NA,NA,NA,NA,55531,NA,NA
fly creek culvert,AL,alabama,hiber,NA,NA,baldwin,NA,NA,NA,NA,NA,NA,NA,NA,NA,NA,NA,fly creek culvert at hwy 98,NA,NA,NA,NA,15828,NA,NA
fog,KY,kentucky,hiber,NA,NA,lee,NA,NA,NA,NA,NA,NA,NA,NA,NA,NA,NA,NA,NA,NA,NA,NA,NA,NA,NA
fogelpole cave,IL,illinois,hiber,38.17,-90.13,monroe,NA,NA,38.17,-90.13,NA,NA,NA,NA,NA,NA,NA,NA,NA,NA,NA,206,29359,duplicate with illinois caverns,NA
fort delaware,DE,delaware,hiber,39.589452,-75.568167,new castle,DELAWARE CITY,NA,NA,NA,NA,NA,NA,NA,NA,NA,0,NA,NA,NA,NA,0,14336,NA,NA
fort lick,WV,west virginia,hiber,38.5992,-80.07707,randolph,ELKWATER,NA,NA,NA,NA,NA,17,580368,4272705,NAD83,769,NA,NA,NA,NA,768.9,14444,NA,NA
foushee,AR,arkansas,hiber,NA,NA,independence,NA,NA,NA,NA,NA,NA,NA,NA,NA,NA,NA,"Arkansas Ecological Services Field Office, blowing cave, AR-120",NA,NA,NA,NA,NA,NA,NA
fox,KY,kentucky,hiber,NA,NA,jackson,NA,NA,NA,NA,NA,NA,NA,NA,NA,NA,NA,NA,NA,NA,NA,NA,NA,NA,NA
fox hole,TN,tennessee,hiber,NA,NA,van buren,NA,NA,NA,NA,NA,NA,NA,NA,NA,NA,NA,NA,NA,NA,NA,NA,NA,NA,NA
FR17BT1g,AR,arkansas,hiber,NA,NA,franklin,NA,NA,NA,NA,NA,NA,NA,NA,NA,NA,NA,"Arkansas Ecological Services Field Office, rosson hollow crevices",NA,NA,NA,NA,NA,NA,NA
FR17BT1h,AR,arkansas,hiber,NA,NA,franklin,NA,NA,NA,NA,NA,NA,NA,NA,NA,NA,NA,"Arkansas Ecological Services Field Office, rosson hollow crevices",NA,NA,NA,NA,NA,NA,NA
frankford,MO,missouri,hiber,NA,NA,pike,NA,NA,NA,NA,NA,NA,NA,NA,NA,NA,NA,NA,NA,NA,NA,NA,NA,NA,NA
frankford cave,MO,missouri,hiber,39.295,-91.191,pike,NA,NA,39.5,-91.32,NA,NA,NA,644321,4373522,NA,250,NA,NA,NA,yes,248.6,5039,NA,NA
frenchmans knob pit,KY,kentucky,hiber,NA,NA,hart,NA,NA,NA,NA,NA,NA,NA,NA,NA,NA,NA,NA,NA,NA,NA,NA,NA,NA,NA
fricks,GA,georgia,hiber,NA,NA,walker,NA,NA,NA,NA,NA,NA,NA,NA,NA,NA,NA,NA,NA,NA,NA,NA,21739,duplicate with ellisons cave,NA
friends point mine #1,NY,new york,hiber,43.752167,-73.49432,warren,,,,,,,,,,,,,,,,,,,
furlough,KY,kentucky,hiber,NA,NA,jackson,NA,NA,NA,NA,NA,NA,NA,NA,NA,NA,NA,NA,NA,NA,NA,NA,NA,NA,NA
ganister cave no 3,PA,pennsylvania,hiber,NA,NA,blair,NA,NA,NA,NA,NA,NA,NA,NA,NA,NA,NA,NA,NA,NA,NA,NA,NA,NA,NA
gap cave,KY,kentucky,hiber,NA,NA,bell,NA,NA,NA,NA,NA,NA,NA,NA,NA,NA,NA,NA,NA,NA,NA,NA,118307,NA,NA
gap cave,VA,virginia,hiber,36.602823,-83.666711,lee,NA,NA,NA,NA,NA,NA,NA,NA,NA,NA,NA,"fred pulled from google earth; image of bat in cave, a.k.a. cudjos",NA,NA,NA,NA,118307,"duplicate with big salt cave, grassy springs cave, old formation pit",NA
gate city cave,AL,alabama,hiber-logger,NA,NA,jefferson,NA,NA,NA,NA,NA,NA,NA,NA,NA,NA,NA,NA,NA,NA,NA,NA,56196,NA,NA
gateway storage mine,PA,pennsylvania,hiber,NA,NA,lawrence,NA,NA,NA,NA,NA,NA,NA,NA,NA,NA,NA,NA,NA,NA,NA,NA,NA,NA,NA
geiger beer cave,WI,wisconsin,hiber,45.31855,-92.707601,polk,osceola,NA,NA,NA,NA,NA,NA,NA,NA,NA,248,NA,NA,NA,NA,NA,128154,NA,NA
general davis,WV,west virginia,hiber,NA,NA,greenbrier,NA,NA,NA,NA,NA,NA,NA,NA,NA,NA,NA,NA,NA,NA,NA,NA,NA,NA,NA
georgetown cave,AL,alabama,hiber,NA,NA,lauderdale,NA,NA,NA,NA,NA,NA,NA,NA,NA,NA,NA,NA,NA,NA,NA,NA,17531,NA,NA
ghost cave,TN,tennessee,,,,,,,,,,,,,,,,,,,,,,,
gilbert pass copper queen,CA,california,hiber,37.45944,-117.96611,inyo,NA,NA,NA,NA,NA,NA,NA,NA,NA,NA,1856,NA,NA,NA,NA,1859.7,91763,NA,NA
glen adit,MI,michigan,hiber,46.692165,-89.231907,ontonagon,NA,NA,NA,NA,NA,NA,NA,NA,NA,NA,275,NA,NA,NA,NA,NA,56547,"duplicate with beatens cave, south bluff adit",NA
glen lyon sinkhole,PA,pennsylvania,hiber,NA,NA,luzerne,NA,NA,NA,NA,NA,NA,NA,NA,NA,NA,NA,anthracite mine,NA,NA,NA,NA,NA,NA,NA
glen park,NY,new york,hiber,NA,NA,jefferson,NA,NA,NA,NA,NA,NA,NA,NA,NA,NA,NA,NA,NA,NA,NA,NA,NA,NA,NA
glen park caves,NY,new york,hiber-logger,43.99805,-75.95527,jefferson,NA,NA,NA,NA,NA,NA,NA,NA,NA,NA,NA,NA,NA,NA,NA,109,71493,NA,NA
glen park commercial,NY,new york,hiber,NA,NA,jefferson,NA,NA,NA,NA,NA,NA,NA,NA,NA,NA,NA,NA,NA,NA,NA,NA,NA,NA,NA
goochland,KY,kentucky,hiber,NA,NA,rockcastle,NA,NA,NA,NA,NA,NA,NA,NA,NA,NA,NA,NA,NA,NA,NA,NA,NA,NA,NA
gore mine,IL,illinois,hiber,NA,NA,jo daviess,NA,NA,NA,NA,NA,NA,NA,NA,NA,NA,NA,chestnut mine,NA,NA,NA,NA,NA,NA,NA
grahamton,KY,kentucky,hiber,NA,NA,meade,NA,NA,NA,NA,NA,NA,NA,NA,NA,NA,NA,NA,NA,NA,NA,NA,NA,NA,NA
grand view mine,CA,california,hiber,37.33472,-118.20472,inyo,NA,NA,NA,NA,NA,NA,NA,NA,NA,NA,2506,NA,NA,NA,NA,2490.2,7350,NA,NA
graphite,NY,new york,hiber,43.75194,-73.57416,essex,hague,NA,NA,NA,NA,NA,NA,NA,NA,NA,NA,NA,NA,NA,NA,477.1,131211,NA,NA
grass skeleton,AL,alabama,hiber,34.5839,-86.1319,jackson,NA,NA,NA,NA,NA,NA,NA,NA,NA,NA,NA,NA,NA,NA,NA,203.4,84808,duplicate with sauta,NA
grassy cove saltpeter,TN,tennessee,hiber,NA,NA,cumberland,NA,NA,NA,NA,NA,NA,NA,NA,NA,NA,NA,NA,NA,NA,NA,NA,NA,NA,NA
grassy springs cave,VA,virginia,hiber,36.602903,-83.698499,lee,NA,NA,NA,NA,NA,NA,NA,NA,NA,NA,NA,fred used google earth gps coords at park entrance,NA,NA,NA,NA,118307,"duplicate with big salt cave, gap cave, old formation pit",NA
great expectations,TN,tennessee,hiber,NA,NA,white,NA,NA,NA,NA,NA,NA,NA,NA,NA,NA,NA,NA,NA,NA,NA,NA,NA,NA,NA
great saltpeter,KY,kentucky,hiber,NA,NA,rockcastle,NA,NA,NA,NA,NA,NA,NA,NA,NA,NA,NA,NA,NA,NA,NA,NA,NA,NA,NA
great scott cave,MO,missouri,hiber,38.09,-91.1,washington,NA,NA,NA,NA,NA,NA,NA,NA,NA,NA,NA,cave 029,NA,NA,NA,237,61615,NA,NA
great spirit,MO,missouri,hiber,NA,NA,pulaski,NA,NA,NA,NA,NA,NA,NA,NA,NA,NA,NA,inca,NA,NA,NA,NA,NA,NA,NA
great wonderland,KY,kentucky,hiber,NA,NA,hardin,NA,NA,NA,NA,NA,NA,NA,NA,NA,NA,NA,NA,NA,NA,NA,NA,NA,NA,NA
greeley talc mine,VT,vermont,hiber,43.7925,-72.76836,windsor,,,,,,,,,,,,,,,,,,,
green,KY,kentucky,hiber,NA,NA,letcher,NA,NA,NA,NA,NA,NA,NA,NA,NA,NA,NA,NA,NA,NA,NA,NA,NA,NA,NA
greenville saltpeter cave,WV,west virginia,hiber,37.54701,-80.68099,monroe,GREENVILLE,NA,NA,NA,NA,NA,17,528180,4155605,NAD83,230,NA,NA,NA,NA,496.9,128575,duplicate with laurel creek cave,NA
greises,MD,maryland,hiber,NA,NA,allegany,NA,NA,NA,NA,NA,NA,NA,NA,NA,NA,NA,NA,NA,NA,NA,NA,NA,NA,NA
griffith,IL,illinois,hiber,37.45239,-88.33904,hardin,NA,NA,37.45,-88.34,NA,NA,NA,NA,NA,NA,NA,NA,NA,NA,NA,123.7,85484,NA,NA
grindstaff cave,TN,tennessee,hiber,36.29591,-82.12892,carter,NA,NA,NA,NA,yes,NA,NA,NA,NA,NA,NA,NA,NA,NA,NA,647.8,236,NA,NA
grossk,AL,alabama,hiber,NA,NA,marshall,NA,NA,NA,NA,NA,NA,NA,NA,NA,NA,NA,NA,NA,NA,NA,NA,70172,duplicate with cathedral averes,nabat
grotto cave,IN,indiana,hiber,39.14354,-86.6505,monroe,NA,NA,NA,NA,NA,NA,NA,NA,NA,NA,NA,NA,NA,NA,NA,237.3,62891,duplicate with cooncave_in,NA
guelph aqueduct,CT,connecticut,hiber,NA,NA,new haven,NA,NA,NA,NA,NA,NA,NA,NA,NA,NA,NA,"New England FO, Concord, NH",NA,NA,NA,NA,NA,NA,NA
guffy cave,AL,alabama,hiber,NA,NA,marshall,NA,NA,NA,NA,NA,NA,NA,NA,NA,NA,NA,NA,NA,NA,NA,NA,9083,duplicate with hans kennamer cave,NA
gustafson,AR,arkansas,hiber,NA,NA,stone,NA,NA,NA,NA,NA,NA,NA,NA,NA,NA,NA,"Arkansas Ecological Services Field Office, AR-52",NA,NA,NA,NA,NA,NA,NA
gutherie hardin il,IL,illinois,hiber,NA,NA,hardin,NA,NA,NA,NA,NA,NA,NA,NA,NA,NA,NA,NA,NA,NA,NA,NA,NA,NA,NA
gutherie union il,IL,illinois,hiber,NA,NA,union,NA,NA,NA,NA,NA,NA,NA,NA,NA,NA,NA,NA,NA,NA,NA,NA,NA,NA,NA
gypsy bill allen cave,IN,indiana,hiber,38.642163,-86.686387,martin,NA,NA,NA,NA,NA,NA,NA,NA,NA,NA,NA,NA,NA,NA,NA,192.2,63147,NA,NA
haha cave,GA,georgia,hiber,34.913674,-85.263207,dade,NA,NA,NA,NA,NA,NA,NA,NA,NA,NA,NA,NA,NA,NA,NA,226.5,34027,"duplicate with 27 spiders cave, chambliss cave, lookout mountain battlefield pit 1, lookout mountain battlefield pit 2",NA
hail,KY,kentucky,hiber,NA,NA,pulaski,NA,NA,NA,NA,NA,NA,NA,NA,NA,NA,NA,NA,NA,NA,NA,NA,NA,NA,NA
hailes cave,NY,new york,hiber,42.66472,-74.02027,albany,GUILDERLAND,NA,NA,NA,NA,NA,NA,NA,NA,NA,373,NA,NA,NA,NA,373,87545,NA,NA
hale branch,KY,kentucky,hiber,NA,NA,menifee,NA,NA,NA,NA,NA,NA,NA,NA,NA,NA,NA,NA,NA,NA,NA,NA,NA,NA,NA
hall sink,KY,kentucky,hiber,NA,NA,menifee,NA,NA,NA,NA,NA,NA,NA,NA,NA,NA,NA,NA,NA,NA,NA,NA,NA,NA,NA
hamilton,MO,missouri,hiber,NA,NA,washington,NA,NA,NA,NA,NA,NA,NA,NA,NA,NA,NA,NA,NA,NA,NA,NA,NA,NA,NA
hamilton,VA,virginia,hiber,NA,NA,bland,NA,NA,NA,NA,NA,NA,NA,NA,NA,NA,NA,NA,NA,NA,NA,NA,NA,NA,NA
hamilton,WV,west virginia,hiber,NA,NA,pendleton,NA,NA,NA,NA,NA,NA,NA,NA,NA,NA,NA,NA,NA,NA,NA,NA,NA,NA,NA
hammet mine,SC,south carolina,hiber-logger,NA,NA,spartanburg,pacolet mills,NA,NA,NA,NA,NA,NA,NA,NA,NA,NA,NA,NA,NA,NA,NA,NA,NA,NA
hankins,AR,arkansas,hiber,NA,NA,independence,NA,NA,NA,NA,NA,NA,NA,NA,NA,NA,NA,"Arkansas Ecological Services Field Office, AR-14",NA,NA,NA,NA,NA,NA,NA
hans kennamer cave,AL,alabama,hiber,NA,NA,marshall,NA,NA,NA,NA,NA,NA,NA,NA,NA,NA,NA,NA,NA,NA,NA,NA,9083,duplicate with guffy cave,NA
happy jack chalk mine,NE,nebraska,hiber,41.4415,-98.708083,greeley,Scotia,NA,NA,NA,NA,NA,NA,NA,NA,NA,NA,NA,NA,NA,NA,592.4,12178,NA,NA
harris little creek culvert,GA,georgia,hiber,NA,NA,harris,NA,NA,NA,NA,NA,NA,NA,NA,NA,NA,NA,NA,NA,NA,NA,NA,1000043,NA,NA
hartman mine,PA,pennsylvania,hiber,NA,NA,blair,NA,NA,NA,NA,NA,NA,NA,NA,NA,NA,NA,canoe creek mine,NA,NA,NA,NA,NA,NA,NA
hasbrouck mine,NY,new york,hiber,41.92206,-73.97915,ulster,NA,NA,NA,NA,NA,NA,NA,NA,NA,NA,NA,NA,NA,NA,NA,55.7,83069,NA,NA
haunted cave,KY,kentucky,hiber,NA,NA,edmonson,NA,NA,NA,NA,NA,NA,NA,NA,NA,NA,NA,NA,NA,NA,NA,NA,NA,NA,NA
hayes cave,NS,nova scotia,hiber-logger,45.24331389,-63.52760833,NA,NA,NA,NA,NA,NA,NA,NA,NA,NA,NA,NA,NA,NA,NA,NA,46.2,220876,NA,NA
hazel creek mine,NC,north carolina,hiber,35.51402,-83.70277,swain,NA,NA,NA,NA,NA,NA,NA,NA,NA,NA,NA,NA,NA,NA,NA,843.3,100936,duplicate with eagle creek mine,NA
hedley,MO,missouri,hiber,NA,NA,crawford,NA,NA,NA,NA,NA,NA,NA,NA,NA,NA,NA,NA,NA,NA,NA,NA,NA,NA,NA
hellhole,WV,west virginia,hiber,NA,NA,pendleton,NA,NA,NA,NA,NA,NA,NA,NA,NA,NA,NA,NA,NA,NA,NA,NA,NA,NA,NA
hells well #1,NY,new york,hiber,,,schoharie,,,,,,,,,,,,,,,,,,,
herd o coons ,TN,tennessee,hiber,NA,NA,union,NA,NA,NA,NA,NA,NA,NA,NA,NA,NA,NA,NA,NA,NA,NA,NA,NA,NA,NA
hering cave,AL,alabama,hiber,NA,NA,madison,NA,NA,NA,NA,NA,NA,NA,NA,NA,NA,NA,NA,NA,NA,NA,NA,3707,NA,NA
hewitt station,NC,north carolina,hiber,NA,NA,swain,NA,NA,NA,NA,NA,NA,NA,NA,NA,NA,NA,NA,NA,NA,NA,NA,NA,NA,NA
hibernia mine,NJ,new jersey,hiber,40.94704,-74.49213,morris,ROCKAWAY TWP,NA,NA,NA,NA,NA,NA,NA,NA,NA,204,NA,NA,NA,NA,198,130111,NA,NA
hickory flat cave,KY,kentucky,hiber,37.195499,-86.2806738,edmonson,NA,NA,NA,NA,NA,NA,NA,NA,NA,NA,NA,"lat long approximated from google maps, spot chosen randomly within Mammoth National Park, KY",NA,NA,NA,NA,40619,"duplicate with currie cave, coach; different grts_cell_id in nabat combo grids: 44715",NA
hidden ledge,MO,missouri,hiber,NA,NA,crawford,NA,NA,NA,NA,NA,NA,NA,NA,NA,NA,NA,NA,NA,NA,NA,NA,NA,NA,NA
hidden springs,AR,arkansas,hiber,36.01333,-92.17972,stone,NA,NA,NA,NA,NA,NA,NA,NA,NA,NA,433,NA,NA,NA,NA,241,31023,NA,NA
higgenbottham no 1,VA,virginia,hiber,NA,NA,tazewell,NA,NA,NA,NA,NA,NA,NA,NA,NA,NA,NA,"elvas, elavas, devils slide",NA,NA,NA,NA,NA,NA,NA
higginbothams no 1,WV,west virginia,hiber,NA,NA,greenbrier,NA,NA,NA,NA,NA,NA,NA,NA,NA,NA,NA,NA,NA,NA,NA,NA,NA,NA,NA
hipple,PA,pennsylvania,hiber,NA,NA,bedford,NA,NA,NA,NA,NA,NA,NA,NA,NA,NA,NA,NA,NA,NA,NA,NA,NA,NA,NA
hitchcock,NY,new york,hiber,43.91805,-73.615,essex,NA,NA,NA,NA,NA,NA,NA,NA,NA,NA,NA,NA,NA,NA,NA,448,21719,duplicate with bennett hill hitchcock mine,NA
hodges cave,AL,alabama,hiber,NA,NA,covington,NA,NA,NA,NA,NA,NA,NA,NA,NA,NA,NA,NA,NA,NA,NA,NA,63300,NA,NA
holmes hollow,MO,missouri,hiber,NA,NA,shannon,NA,NA,NA,NA,NA,NA,NA,NA,NA,NA,NA,NA,NA,NA,NA,NA,NA,NA,NA
honacker,WV,west virginia,hiber,NA,NA,mercer,NA,NA,NA,NA,NA,NA,NA,NA,NA,NA,NA,NA,NA,NA,NA,NA,NA,NA,NA
hooper cave,NY,new york,hiber,43.56083,-73.48694,washington,DRESDEN,NA,NA,NA,NA,NA,NA,NA,NA,NA,343,NA,NA,NA,NA,345.9,125984,NA,NA
hope cave,AL,alabama,hiber,NA,NA,dekalb,NA,NA,NA,NA,NA,NA,NA,NA,NA,NA,NA,NA,NA,NA,NA,NA,75194,NA,NA
horicon beer,WI,wisconsin,hiber,43.4465988,-88.6304414,dodge,horicon,NA,NA,NA,NA,NA,NA,NA,NA,NA,NA,NA,NA,NA,NA,NA,26843,NA,NA
horse cave,AL,alabama,hiber,NA,NA,blount,NA,NA,NA,NA,NA,NA,NA,NA,NA,NA,NA,NA,NA,NA,NA,NA,12923,duplicate with adcock cave,NA
horse thief,AR,arkansas,hiber,NA,NA,madison,NA,NA,NA,NA,NA,NA,NA,NA,NA,NA,NA,"Arkansas Ecological Services Field Office, AR-16",NA,NA,NA,NA,NA,NA,NA
horseshoe,AR,arkansas,hiber,NA,NA,newton,NA,NA,NA,NA,NA,NA,NA,NA,NA,NA,NA,"Arkansas Ecological Services Field Office, AR-36",NA,NA,NA,NA,NA,NA,NA
horseshoe bay,WI,wisconsin,hiber,45.01695,-87.32715,door,NA,NA,NA,NA,NA,NA,NA,NA,NA,NA,NA,NA,NA,NA,NA,196.7,63443,NA,NA
horseshoe cave,AL,alabama,hiber,NA,NA,blount,NA,NA,NA,NA,NA,NA,NA,NA,NA,NA,NA,NA,NA,NA,NA,NA,1659,"duplicate with crowson cave, bishopella cave, second cave, and sewer cave",NA
howe barn,MA,massachusetts,maternity,NA,NA,NA,NA,NA,NA,NA,NA,NA,NA,NA,NA,NA,NA,NA,NA,NA,NA,NA,NA,NA,NA
howe cave,NY,new york,hiber,43.29666,-74.39861,schoharie,COBLESKILL,NA,NA,NA,NA,NA,NA,NA,NA,NA,712,NA,NA,NA,NA,708.1,94863,NA,NA
howling dog,KY,kentucky,hiber,NA,NA,jackson,NA,NA,NA,NA,NA,NA,NA,NA,NA,NA,NA,NA,NA,NA,NA,NA,NA,NA,NA
howwat,GA,georgia,hiber,NA,NA,dade,NA,NA,NA,NA,NA,NA,NA,NA,NA,NA,NA,NA,NA,NA,NA,NA,102243,duplicate with sittons cave,NA
hubbards cave,TN,tennessee,hiber,35.54776,-85.6812,warren,NA,NA,NA,NA,NA,NA,NA,NA,NA,NA,NA,NA,NA,NA,NA,288.9,76803,duplicate with little bat,NA
huffman barn,VA,virginia,maternity,NA,NA,NA,NA,NA,NA,NA,NA,NA,NA,NA,NA,NA,NA,NA,NA,NA,NA,NA,NA,NA,NA
hughes,AL,alabama,hiber,NA,NA,morgan,NA,NA,NA,NA,NA,NA,NA,NA,NA,NA,NA,"Daphne, AL field office",NA,NA,NA,NA,4731,NA,NA
humongous canyon,KY,kentucky,hiber,NA,NA,rockcastle,NA,NA,NA,NA,NA,NA,NA,NA,NA,NA,NA,NA,NA,NA,NA,NA,NA,NA,NA
hunters cave,MO,missouri,hiber,38.830889,-92.283147,boone,NA,NA,NA,NA,NA,NA,NA,NA,NA,NA,NA,NA,NA,NA,yes,200.9,80653,NA,NA
hupmans,VA,virginia,hiber,38.247,-79.52268,highland,NA,NA,NA,NA,NA,NA,NA,NA,NA,NA,720,NA,NA,NA,NA,720.2,28844,NA,NA
hurricane river,AR,arkansas,hiber,NA,NA,searcy,NA,NA,NA,NA,NA,NA,NA,NA,NA,NA,NA,"Arkansas Ecological Services Field Office, AR-76",NA,NA,NA,NA,NA,NA,NA
hydens pit,KY,kentucky,hiber,NA,NA,pulaski,NA,NA,NA,NA,NA,NA,NA,NA,NA,NA,NA,NA,NA,NA,NA,NA,NA,NA,NA
hyptop drop,TN,tennessee,hiber,NA,NA,franklin,NA,NA,NA,NA,NA,NA,NA,NA,NA,NA,NA,NA,NA,NA,NA,NA,NA,NA,NA
i20 culvert,AL,alabama,hiber,NA,NA,cleburne,NA,NA,NA,NA,NA,NA,NA,NA,NA,NA,NA,NA,NA,NA,NA,NA,129795,NA,NA
illinois caverns,IL,illinois,hiber,38.24,-90.14,monroe,NA,NA,38.24,-90.14,NA,NA,NA,NA,NA,NA,NA,NA,NA,NA,NA,205,29359,duplicate with fogelpole cave,NA
incline cave,CA,california,hiber,41.72921,-121.51663,siskiyou,NA,NA,NA,NA,NA,NA,NA,NA,NA,NA,1407,NA,NA,NA,NA,1405.9,29498,"duplicate with craig cave, juniper-hercules leg, labrynth lavabrook, north bend",NA
indian,AL,alabama,hiber,NA,NA,limestone,NA,NA,NA,NA,NA,NA,NA,NA,NA,NA,NA,"Daphne, AL field office",NA,NA,NA,NA,726555,NA,NA
indian,TN,tennessee,hiber,NA,NA,grainger,NA,NA,NA,NA,NA,NA,NA,NA,NA,NA,NA,NA,NA,NA,NA,NA,NA,NA,NA
indian barren ky,KY,kentucky,hiber,NA,NA,barren,NA,NA,NA,NA,NA,NA,NA,NA,NA,NA,NA,NA,NA,NA,NA,NA,NA,NA,NA
indian bone pit,KY,kentucky,hiber,NA,NA,rockcastle,NA,NA,NA,NA,NA,NA,NA,NA,NA,NA,NA,NA,NA,NA,NA,NA,NA,NA,NA
indian cave bell ky,KY,kentucky,hiber,NA,NA,bell,NA,NA,NA,NA,NA,NA,NA,NA,NA,NA,NA,NA,NA,NA,NA,NA,118307,NA,NA
indian caverns,PA,pennsylvania,hiber,NA,NA,huntingdon,NA,NA,NA,NA,NA,NA,NA,NA,NA,NA,NA,indian cave,NA,NA,NA,NA,NA,NA,NA
indian creek cavern,MO,missouri,hiber,36.667992,-93.378303,stone,NA,NA,NA,NA,NA,NA,NA,NA,NA,NA,NA,NA,NA,NA,yes,322.2,43423,NA,NA
indian oven,NY,new york,hiber,41.994292,-73.549822,columbia,NA,NA,NA,NA,NA,NA,NA,NA,NA,NA,NA,NA,NA,NA,NA,NA,122173,NA,NA
indigo tunnel,MD,maryland,hiber,39.632435,-76.3737099,allegany,NA,NA,NA,NA,NA,NA,NA,NA,NA,NA,NA,NA,no,no,yes,101.4,33216,NA,NA
iron mountain mine,MI,michigan,hiber,45.78488,-87.8645,dickinson,NA,NA,NA,NA,NA,NA,16T,432801,5070510,NAD83,357,NA,NA,NA,NA,364.8,84499,"duplicate with jones adit, norway mine",NA
ironton mine,OH,ohio,hiber,NA,NA,lawrence,NA,NA,NA,NA,NA,NA,NA,NA,NA,NA,NA,NA,NA,NA,NA,NA,NA,NA,NA
isbell spring cave,AL,alabama,hiber,NA,NA,jackson,NA,NA,NA,NA,NA,NA,NA,NA,NA,NA,NA,NA,NA,NA,NA,NA,54139,duplicate with limrock blowing cave,NA
izaak walton,WV,west virginia,hiber,38.7849,-79.8233,randolph,NA,NA,NA,NA,NA,NA,NA,NA,NA,NA,NA,NA,NA,NA,NA,834.8,65699,NA,NA
jagged canyon,MO,missouri,hiber,NA,NA,crawford,NA,NA,NA,NA,NA,NA,NA,NA,NA,NA,NA,NA,NA,NA,NA,NA,NA,NA,NA
jamesville quarry cave,NY,new york,hiber-logger,43.00444,-76.025,onondaga,NA,NA,NA,NA,NA,NA,NA,NA,NA,NA,NA,NA,NA,NA,NA,195,87056,NA,NA
jason mine,IL,illinois,hiber,NA,NA,union,NA,NA,NA,NA,NA,NA,NA,NA,NA,NA,NA,NA,NA,NA,NA,NA,89700,NA,NA
jaybird,TN,tennessee,hiber,NA,NA,perry,NA,NA,NA,NA,NA,NA,NA,NA,NA,NA,NA,NA,NA,NA,NA,NA,NA,NA,NA
jesse james,KY,kentucky,hiber,NA,NA,edmonson,NA,NA,NA,NA,NA,NA,NA,NA,NA,NA,NA,NA,NA,NA,NA,NA,NA,NA,NA
joe bright,AR,arkansas,hiber,NA,NA,stone,NA,NA,NA,NA,NA,NA,NA,NA,NA,NA,NA,"Arkansas Ecological Services Field Office, AR-43",NA,NA,NA,NA,NA,NA,NA
john coffee,KY,kentucky,hiber,NA,NA,jackson,NA,NA,NA,NA,NA,NA,NA,NA,NA,NA,NA,NA,NA,NA,NA,NA,NA,NA,NA
john eddings,AR,arkansas,hiber,NA,NA,newton,NA,NA,NA,NA,NA,NA,NA,NA,NA,NA,NA,NA,NA,NA,NA,NA,NA,NA,NA
john friend,MD,maryland,hiber,NA,NA,garrett,NA,NA,NA,NA,NA,NA,NA,NA,NA,NA,NA,friends salt petre cave (on USGS 7.5 Min. Quad); john friend's saltpeter cave,NA,NA,NA,NA,NA,NA,NA
john griffin,KY,kentucky,hiber,NA,NA,jackson,NA,NA,NA,NA,NA,NA,NA,NA,NA,NA,NA,NA,NA,NA,NA,NA,NA,NA,NA
john henry,KY,kentucky,hiber,NA,NA,jackson,NA,NA,NA,NA,NA,NA,NA,NA,NA,NA,NA,NA,NA,NA,NA,NA,NA,NA,NA
john rogers,KY,kentucky,hiber,NA,NA,jackson,NA,NA,NA,NA,NA,NA,NA,NA,NA,NA,NA,NA,NA,NA,NA,NA,NA,NA,NA
johnston pottery,WI,wisconsin,hiber,42.87161,-90.16832,iowa,NA,NA,NA,NA,NA,NA,NA,NA,NA,NA,NA,NA,NA,NA,NA,326,126409,duplicate with pump station,NA
jones,KY,kentucky,hiber,NA,NA,adair,NA,NA,NA,NA,NA,NA,NA,NA,NA,NA,NA,NA,NA,NA,NA,NA,NA,NA,NA
jones adit,MI,michigan,hiber,45.786405,-87.875715,dickinson,NA,Al Kurta email,NA,NA,NA,NA,NA,NA,NA,NA,NA,NEED TO GET LAT/LONGS,no,no,yes,333.8,84499,"duplicate with iron mountain mine, norway mine",NA
joy,MO,missouri,hiber,NA,NA,pulaski,NA,NA,NA,NA,NA,NA,NA,NA,NA,NA,NA,NA,NA,NA,NA,NA,NA,NA,NA
jt cave,KY,kentucky,hiber,37.18822,-86.098328,edmonson,NA,NA,NA,NA,NA,NA,NA,NA,NA,NA,NA,NA,NA,NA,NA,200.3,71632,"duplicate with bat cave ky, lee cave, long cave, mammoth cave historic entrancee, wildcat hollow sink",NA
jug hole,IN,indiana,hiber,NA,NA,harrison,NA,NA,NA,NA,NA,NA,NA,NA,NA,NA,NA,NA,NA,NA,NA,NA,NA,NA,NA
juniper-hercules leg,CA,california,hiber,41.7032,-121.51652,siskiyou,NA,NA,NA,NA,NA,NA,NA,NA,NA,NA,1541,NA,NA,NA,NA,1537.8,29498,"duplicate with craig cave, incline cave, labrynth lavabrook, north bend",NA
kansas city quarry,MO,missouri,hiber,39.03993982,-94.51517431,jackson,kansas city,NA,NA,NA,NA,NA,15N,368869,4322301,83,NA,NA,NA,NA,NA,235.8,120481,NA,NA
keel ridge adit,MI,michigan,hiber,45.813925,-88.027489,dickinson,NA,Al Kurta email,NA,NA,NA,NA,NA,NA,NA,NA,NA,NEED TO GET LAT/LONGS,no,no,yes,370.8,90771,NA,NA
keizor cave,AR,arkansas,hiber,36.01224,-93.72307,madison,NA,NOT LISTED,NA,NA,yes,NA,NA,NA,NA,NA,NA,NA,NA,NA,NA,438.9,68361,NA,NA
kelley ridge,TN,tennessee,hiber,NA,NA,blount,NA,NA,NA,NA,NA,NA,NA,NA,NA,NA,NA,ridge cave,NA,NA,NA,NA,NA,NA,NA
kelly,VA,virginia,hiber,36.90042,-82.70954,wise,NA,NA,NA,NA,NA,NA,NA,NA,NA,NA,663,NA,NA,NA,NA,673.4,64219,NA,NA
kelly hollow,MO,missouri,hiber,NA,NA,oregon,NA,NA,NA,NA,NA,NA,NA,NA,NA,NA,NA,NA,NA,NA,NA,NA,NA,NA,NA
kesler tunnel,MD,maryland,hiber,39.5516,-78.4492,allegany,NA,NA,NA,NA,NA,NA,NA,NA,NA,NA,NA,NA,NA,NA,NA,204.8,51440,NA,NA
key,AL,alabama,hiber,34.741865,-87.737138,lauderdale,Florence,NA,NA,NA,NA,NA,NA,NA,NA,NA,NA,NA,NA,NA,NA,149,96959,duplicate with collier,NA
kids cave,ID,idaho,hiber,NA,NA,blaine,NA,NA,NA,NA,NA,NA,NA,NA,NA,NA,NA,NA,NA,NA,NA,NA,35658,NA,NA
king blair/brinegar,IN,indiana,hiber,NA,NA,monroe,NA,NA,NA,NA,NA,NA,NA,NA,NA,NA,NA,NA,NA,NA,NA,NA,NA,NA,NA
kings school,AL,alabama,hiber,NA,NA,marshall,NA,NA,NA,NA,NA,NA,NA,NA,NA,NA,NA,"Daphne, AL field office",NA,NA,NA,NA,93170,"duplicate with dunham, quarry cave and mitchell cave",NA
kings spring cave,AL,alabama,hiber,NA,NA,marshall,NA,NA,NA,NA,NA,NA,NA,NA,NA,NA,NA,NA,NA,NA,NA,NA,114991,duplicate with cherry hollow cave,NA
kitchen,NC,north carolina,hiber,NA,NA,jackson,NA,NA,NA,NA,NA,NA,NA,NA,NA,NA,NA,NA,NA,NA,NA,NA,NA,NA,NA
kline gap,WV,west virginia,hiber,39.08333,-79.22722,grant,NA,NA,NA,NA,NA,NA,NA,NA,NA,NA,NA,NA,NA,NA,NA,511.9,66312,NA,NA
knaust,NY,new york,hiber,NA,NA,ulster,NA,NA,NA,NA,NA,NA,NA,NA,NA,NA,NA,NA,NA,NA,NA,NA,NA,NA,NA
knife,MO,missouri,hiber,NA,NA,pulaski,NA,NA,NA,NA,NA,NA,NA,NA,NA,NA,NA,NA,NA,NA,NA,NA,NA,NA,NA
knox cave,NY,new york,hiber,42.68917,-74.12889,albany,KNOX,NA,NA,NA,NA,NA,NA,NA,NA,NA,404,NA,NA,NA,NA,404,43120,duplicate with schoharie,NA
labrynth lavabrook,CA,california,hiber,41.71199,-121.51277,siskiyou,NA,NA,NA,NA,NA,NA,NA,NA,NA,NA,1404,NA,NA,NA,NA,1482.6,29498,"duplicate with craig cave, incline cave, juniper-hercules leg, north bend",NA
lainhart no 2,KY,kentucky,hiber,NA,NA,jackson,NA,NA,NA,NA,NA,NA,NA,NA,NA,NA,NA,NA,NA,NA,NA,NA,NA,NA,NA
lake purdy corkscrew cave,AL,alabama,hiber,NA,NA,shelby,NA,NA,NA,NA,NA,NA,NA,NA,NA,NA,NA,NA,NA,NA,NA,NA,22404,duplicate with anderson cave,NA
lakes,KY,kentucky,hiber,NA,NA,jackson,NA,NA,NA,NA,NA,NA,NA,NA,NA,NA,NA,NA,NA,NA,NA,NA,NA,NA,NA
lamar graham cave,MS,mississippi,hiber,31.78026,-88.71877,wayne,shubuta,NA,NA,NA,NA,NA,NA,NA,NA,NA,NA,NA,no,no,yes,65.2,117479,NA,NA
lapp hole,GA,georgia,hiber,34.9055708,-85.6589146,dade,NA,NA,NA,NA,NA,NA,NA,NA,NA,NA,NA,"lat long approximated from google maps, spot chosen randomly within Dade County, GA",NA,NA,NA,NA,6379,NA,NA
laurel,KY,kentucky,hiber,NA,NA,carter,NA,NA,NA,NA,NA,NA,NA,NA,NA,NA,NA,NA,NA,NA,NA,NA,NA,NA,NA
laurel caverns,PA,pennsylvania,hiber,NA,NA,fayette,NA,NA,NA,NA,NA,NA,NA,NA,NA,NA,NA,dulany cave,NA,NA,NA,NA,NA,NA,NA
laurel creek cave,WV,west virginia,hiber,37.55889,-80.66556,monroe,NA,NA,NA,NA,NA,NA,NA,NA,NA,NA,NA,NA,NA,NA,NA,534.1,128575,duplicate with greenville saltpetre cave,NA
lawrenceville mine,NY,new york,hiber,41.84226,-74.09594,ulster,NA,NA,NA,NA,NA,NA,NA,NA,NA,NA,NA,NA,NA,NA,NA,NA,NA,NA,NA
layoff,IL,illinois,hiber,NA,NA,hardin,NA,NA,NA,NA,NA,NA,NA,NA,NA,NA,NA,NA,NA,NA,NA,NA,NA,NA,NA
layton,PA,pennsylvania,hiber-logger,40.0922222,-79.730555,berks,NA,NA,NA,NA,NA,NA,NA,NA,NA,NA,NA,NA,NA,NA,NA,294,73237,NA,NA
layton fire clay mine,PA,pennsylvania,hiber,NA,NA,franklin,NA,NA,NA,NA,NA,NA,NA,NA,NA,NA,NA,NA,NA,NA,NA,NA,NA,NA,NA
ledgeview,WI,wisconsin,hiber,44.00189,-88.15023,calumet,NA,NA,NA,NA,NA,NA,NA,NA,NA,NA,NA,NA,NA,NA,NA,283.7,8143,NA,NA
lee cave,KY,kentucky,hiber,37.184361,-86.103055,edmonson,NA,NA,NA,NA,NA,NA,NA,NA,NA,NA,NA,fred pulled generic park coords from google earth,NA,NA,NA,NA,71632,"duplicate with bat cave ky, jt cave, long cave, mammoth cave historic entrance, wildcat hollow sink",NA
lees summit quarry,MO,missouri,hiber,38.9225,-94.374167,jackson,NA,NA,NA,NA,NA,NA,NA,NA,NA,NA,NA,NA,NA,NA,yes,315,133486,NA,NA
leonard springs,IN,indiana,hiber,39.100657,-86.60539,monroe,NA,NA,NA,NA,NA,NA,NA,NA,NA,NA,NA,NA,NA,NA,NA,266.1,131090,NA,NA
lewis and clark,MO,missouri,hiber,NA,NA,boone,NA,NA,NA,NA,NA,NA,NA,NA,NA,NA,NA,NA,NA,NA,NA,NA,NA,NA,NA
LEWIS AND CLARK CAVERS,MT,montana,hiber,45.8367305,-111.87795,jefferson,01N02W17,NA,NA,NA,NA,NA,NA,NA,NA,NA,NA,NA,NA,NA,NA,NA,46917,NA,NA
lewisburg limeston mine,OH,ohio,hiber,NA,NA,preble,NA,NA,NA,NA,NA,NA,NA,NA,NA,NA,NA,NA,NA,NA,NA,NA,NA,NA,NA
lick creek,MT,montana,hiber,47.1323002,-111.0184687,case,16N6E19,NA,NA,NA,NA,NA,NA,NA,NA,NA,NA,NA,NA,NA,NA,1767,84257,NA,NA
lime kiln,MO,missouri,hiber,39.81331,-91.62416,marion,NA,NA,NA,NA,yes,NA,NA,NA,NA,NA,NA,sodalis nature preserve,NA,NA,NA,203,85697,NA,NA
limestone,KY,kentucky,hiber,NA,NA,whitley,NA,NA,NA,NA,NA,NA,NA,NA,NA,NA,NA,NA,NA,NA,NA,NA,NA,NA,NA
limestone jr,KY,kentucky,hiber,NA,NA,whitley,NA,NA,NA,NA,NA,NA,NA,NA,NA,NA,NA,NA,NA,NA,NA,NA,NA,NA,NA
limrock blowing cave,AL,alabama,hiber,NA,NA,jackson,NA,NA,NA,NA,NA,NA,NA,NA,NA,NA,NA,NA,NA,NA,NA,NA,54139,duplicate with isbell spring cave,NA
line fork,KY,kentucky,hiber,NA,NA,letcher,NA,NA,NA,NA,NA,NA,NA,NA,NA,NA,NA,NA,NA,NA,NA,NA,NA,NA,NA
linville caverns,NC,north carolina,hiber,35.91888,-81.93904,mcdowell,MARION,NA,35.92,-81.94,NA,NA,17S,415279,3975358,NAD83,783,NA,NA,NA,NA,706,133229,NA,NA
linway terrace,VA,virginia,maternity,NA,NA,NA,NA,NA,NA,NA,NA,NA,NA,NA,NA,NA,NA,NA,NA,NA,NA,NA,NA,NA,NA
lions den cave,AL,alabama,hiber,NA,NA,clarke,NA,NA,NA,NA,NA,NA,NA,NA,NA,NA,NA,NA,NA,NA,NA,NA,28292,NA,NA
little amos,KY,kentucky,hiber,NA,NA,menifee,NA,NA,NA,NA,NA,NA,NA,NA,NA,NA,NA,NA,NA,NA,NA,NA,NA,NA,NA
little bat,TN,tennessee,hiber,35.549817,-85.683302,warren,Irving College,NA,NA,NA,NA,NA,NA,NA,NA,NA,NA,NA,NA,NA,NA,287.8,76803,duplicate with hubbards cave,NA
little hichitee creek culvert,GA,georgia,hiber,NA,NA,chattahoochee,NA,NA,NA,NA,NA,NA,NA,NA,NA,NA,NA,NA,NA,NA,NA,NA,39956,NA,NA
little jack creek,TN,tennessee,hiber,NA,NA,fentress,NA,NA,NA,NA,NA,NA,NA,NA,NA,NA,NA,NA,NA,NA,NA,NA,NA,NA,NA
little river culvert,GA,georgia,hiber,NA,NA,newton,NA,NA,NA,NA,NA,NA,NA,NA,NA,NA,NA,NA,NA,NA,NA,NA,101238,NA,NA
little saltpeter cave,VA,virginia,hiber,36.646,-83.569,lee,NA,NA,NA,NA,offset in park,NA,NA,NA,NA,NA,NA,NA,NA,NA,NA,883.5,124579,NA,NA
lobelia saltpeter,WV,west virginia,hiber,NA,NA,pocahontas,NA,NA,NA,NA,NA,NA,NA,NA,NA,NA,NA,NA,NA,NA,NA,NA,NA,NA,NA
locklin cave,AL,alabama,hiber,NA,NA,clarke,NA,NA,NA,NA,NA,NA,NA,NA,NA,NA,NA,NA,NA,NA,NA,NA,22213,NA,NA
logan,AR,arkansas,hiber,NA,NA,benton,NA,NA,NA,NA,NA,NA,NA,NA,NA,NA,NA,"Steve Hensley, Ozark Plateau NWR, AR-20",NA,NA,NA,NA,NA,NA,NA
logue hollow,KY,kentucky,hiber,NA,NA,lee,NA,NA,NA,NA,NA,NA,NA,NA,NA,NA,NA,NA,NA,NA,NA,NA,NA,NA,NA
lone hill onyx,MO,missouri,hiber,NA,NA,franklin,NA,NA,NA,NA,NA,NA,NA,NA,NA,NA,NA,NA,NA,NA,NA,NA,NA,NA,NA
long cave,KY,kentucky,hiber,37.209,-86.106,edmonson,NA,NA,NA,NA,offset inside nps,NA,NA,NA,NA,NA,NA,NA,NA,NA,NA,153,71632,"duplicate with bat cave ky, jt cave, lee cave, long cave, wildcat hollow sink",NA
long run mine,PA,pennsylvania,hiber,NA,NA,armstrong,NA,NA,NA,NA,NA,NA,NA,NA,NA,NA,NA,NA,NA,NA,NA,NA,NA,NA,NA
lookout mountain battlefield pit,TN,tennessee,hiber,36.89006,-85.25849,hamilton,NA,NA,NA,NA,site,NA,NA,NA,NA,NA,NA,NA,NA,NA,NA,269.7,47659,NA,NA
lookout mountain battlefield pit 1,TN,tennessee,hiber,34.913664,-85.261899,hamilton,NA,NA,NA,NA,NA,NA,NA,NA,NA,NA,NA,NA,NA,NA,NA,228,34027,"duplicate with 27 spiders cave, chambliss cave, haha cave, lookout mountain battlefield pit 2",NA
lookout mountain battlefield pit 2,TN,tennessee,hiber,34.917688,-85.26084,hamilton,NA,NA,NA,NA,NA,NA,NA,NA,NA,NA,NA,NA,NA,NA,NA,231.3,34027,"duplicate with 27 spiders cave, chambliss cave, haha cave, lookout mountain battlefield pit 1",NA
lost cove cave,TN,tennessee,hiber,35.1195,-85.9103,franklin,NA,NA,NA,NA,NA,NA,NA,NA,NA,NA,NA,NAD83,NA,NA,NA,NA,15227,NA,NA
lost creek,TN,tennessee,hiber,NA,NA,white,NA,NA,NA,NA,NA,NA,NA,NA,NA,NA,NA,dodson,NA,NA,NA,NA,NA,NA,NA
lost river,WI,wisconsin,hiber,NA,NA,NA,NA,NA,NA,NA,NA,NA,NA,NA,NA,NA,NA,NA,NA,NA,NA,NA,NA,NA,NA
louisville culvert,MS,mississippi,hiber,33.16066,-89.08218,winston,louisville,NA,NA,NA,NA,NA,NA,NA,NA,NA,NA,NA,NA,NA,NA,148.4,47684,duplicate with prison culvert,NA
macia mine,MA,massachusetts,hiber,42.29103,-72.937005,hampden,,,,,,,,,,,,,,,,,,coordinates are on town level,
macon 5,GA,georgia,hiber,NA,NA,rabun,NA,NA,NA,NA,NA,NA,NA,NA,NA,NA,NA,NA,NA,NA,NA,NA,86303,NA,NA
maddens,VA,virginia,hiber,NA,NA,shenandoah,NA,NA,NA,NA,NA,NA,NA,NA,NA,NA,NA,NA,NA,NA,NA,NA,NA,NA,NA
magazine,IL,illinois,hiber,37.23319,-89.27499,alexander,tamms,NA,NA,NA,office property,NA,NA,NA,NA,NA,NA,NA,NA,NA,NA,103,127335,NA,NA
maiden rock mine,WI,wisconsin,hiber,44.5626,-92.3027,pierce,NA,Paul White email,NA,NA,NA,NA,NA,NA,NA,NA,346,NA,NA,NA,NA,242.9,94460,NA,NA
maiden rock,WI,wisconsin,hiber,44.5626,-92.3027,pierce,NA,Paul White email,NA,NA,NA,NA,NA,NA,NA,NA,346,NA,NA,NA,NA,242.9,94460,NA,NA
main entrance,AL,alabama,hiber,NA,NA,jackson,NA,NA,NA,NA,NA,NA,NA,NA,NA,NA,NA,NA,NA,NA,NA,NA,51435,"duplicate with russell cave, picnic entrance, and ridley cave",nabat
main graphite mine,NY,new york,hiber,43.75194,-73.57416,warren,,,,,,,,,,,,,,,,,,,
mammoth cave historic entrance,KY,kentucky,hiber,37.189072,-86.101931,edmonson,NA,NA,NA,NA,NA,NA,NA,NA,NA,NA,NA,fred pulled from google earth (photo of historic entrance),NA,NA,NA,NA,71632,"duplicate with bat cave ky, jt cave, lee cave, long cave, wildcat hollow sink",NA
manistee cave,AL,alabama,hiber,NA,NA,monroe,NA,NA,NA,NA,NA,NA,NA,NA,NA,NA,NA,NA,NA,NA,NA,NA,42116,duplicate with catacombs cave,NA
marble bluff,TN,tennessee,hiber,35.7622,-84.4467,roane,NA,NA,NA,NA,NA,NA,NA,NA,NA,NA,NA,NA,NA,NA,NA,238.3,52027,NA,NA
marble falls,AR,arkansas,hiber,NA,NA,marion,NA,NA,NA,NA,NA,NA,NA,NA,NA,NA,NA,"Arkansas Ecological Services Field Office, AR-54",NA,NA,NA,NA,NA,NA,NA
marcellus,MO,missouri,hiber,NA,NA,phelps,NA,NA,NA,NA,NA,NA,NA,NA,NA,NA,NA,NA,NA,NA,NA,NA,NA,NA,NA
maribel,WI,wisconsin,hiber,44.28879,-87.77423,manitowoc,NA,NA,NA,NA,NA,NA,NA,NA,NA,NA,NA,NA,NA,NA,NA,197.8,86419,NA,NA
marthas cave,WV,west virginia,hiber,38.12646,-80.24558,pocahontas,NA,NA,NA,NA,NA,NA,17,566123,4220115,NAD83,679,NA,NA,NA,NA,673.7,90157,NA,NA
martin mine,NY,new york,hiber,41.8736,-74.069,ulster,ROSENDALE,NA,NA,NA,NA,NA,NA,NA,NA,NA,66,NA,NA,NA,NA,67,1584,"duplicate with walter williams preserve, williams hotel mine, williams lake mine",NA
martin1,MO,missouri,hiber,37.15971,-91.40327,shannon,NA,NA,NA,NA,NA,NA,NA,NA,NA,NA,NA,NA,NA,NA,NA,196,114070,NA,NA
marvel,MO,missouri,hiber,NA,NA,shannon,NA,NA,NA,NA,NA,NA,NA,NA,NA,NA,NA,NA,NA,NA,NA,NA,NA,NA,NA
mary lawson,MO,missouri,hiber,NA,NA,laclede,NA,NA,NA,NA,NA,NA,NA,NA,NA,NA,NA,NA,NA,NA,NA,NA,NA,NA,NA
mass c,MI,michigan,hiber,46.758938,-89.106646,ontonagon,mass city,NA,NA,NA,NA,NA,NA,NA,NA,NA,NA,NA,NA,NA,NA,NA,94759,duplicate with south lake mine,NA
mcfarland blowing cave,AL,alabama,hiber,NA,NA,jackson,NA,NA,NA,NA,NA,NA,NA,NA,NA,NA,NA,NA,NA,NA,NA,NA,107153,duplicate with mcfarland spring cave and williams saltpeter cave,NA
mcfarland spring cave,AL,alabama,hiber,NA,NA,jackson,NA,NA,NA,NA,NA,NA,NA,NA,NA,NA,NA,NA,NA,NA,NA,NA,107153,duplicate with mcfarland blowing cave and williams saltpeter cave,NA
mcferrin,WV,west virginia,hiber,NA,NA,greenbrier,NA,NA,NA,NA,NA,NA,NA,NA,NA,NA,NA,NA,NA,NA,NA,NA,NA,NA,NA
mckinney cave,AL,alabama,hiber,NA,NA,lauderdale,NA,NA,NA,NA,NA,NA,NA,NA,NA,NA,NA,NA,NA,NA,NA,NA,132805,duplicate with colslb,NA
mead mine,MI,michigan,hiber-logger,46.81472,-89.71611,ontonagon,NA,NA,NA,NA,NA,NA,NA,NA,NA,NA,NA,NA,NA,NA,NA,NA,92962,NA,NA
meader,NY,new york,maternity,NA,NA,NA,NA,NA,NA,NA,NA,NA,NA,NA,NA,NA,NA,NA,NA,NA,NA,NA,NA,NA,NA
meents,MO,missouri,hiber,NA,NA,laclede,NA,NA,NA,NA,NA,NA,NA,NA,NA,NA,NA,NA,NA,NA,NA,NA,NA,NA,NA
meffords,FL,florida,hiber,29.362316,-82.2000943,marion,Reddick,NA,NA,NA,NA,NA,NA,NA,NA,NA,NA,NA,NA,NA,NA,39.3,26780,NA,NA
meredith,TN,tennessee,hiber,NA,NA,campbell,NA,NA,NA,NA,NA,NA,NA,NA,NA,NA,NA,NA,NA,NA,NA,NA,NA,NA,NA
meridian nas north,MS,mississippi,hiber,32.56358,-88.5504,lauderdale,meridian,NA,NA,NA,NA,NA,NA,NA,NA,NA,NA,NA,NA,NA,NA,NA,118231,NA,NA
merill,NH,new hampshire,maternity,NA,NA,NA,NA,NA,NA,NA,NA,NA,NA,NA,NA,NA,NA,NA,NA,NA,NA,NA,NA,NA,NA
mertz cave,MO,missouri,hiber,37.74,-89.82,perry,NA,NA,NA,NA,NA,NA,NA,NA,NA,NA,NA,NA,NA,NA,NA,182,50671,NA,NA
middle butte cave,ID,idaho,hiber,43.21648,-112.39844,bingham,NA,NA,NA,NA,NA,NA,NA,NA,NA,NA,259,NA,NA,NA,NA,1365,74492,NA,NA
mill hill,VA,virginia,hiber,37.988056,-79.960833,bath,Mill Hill,NA,NA,NA,NA,NA,NA,NA,NA,NA,NA,NA,NA,NA,NA,555,24748,NA,NA
millers,KY,kentucky,hiber,NA,NA,rockcastle,NA,NA,NA,NA,NA,NA,NA,NA,NA,NA,NA,NA,NA,NA,NA,NA,NA,NA,NA
millers pit 2,KY,kentucky,hiber,NA,NA,rockcastle,NA,NA,NA,NA,NA,NA,NA,NA,NA,NA,NA,NA,NA,NA,NA,NA,NA,NA,NA
miltons cave,FL,florida,hiber,30.821375,-85.30308,alachua,Newberry,NA,NA,NA,NA,NA,NA,NA,NA,NA,NA,NA,no,no,yes,39.2,1556,NA,NA
minasville ice cave,NS,nova scotia,hiber-logger,45.26523055,-63.81240277,NA,NA,NA,NA,NA,NA,NA,NA,NA,NA,NA,NA,NA,NA,NA,NA,76.6,92876,NA,NA
mine 25,IL,illinois,hiber,NA,NA,alexander,NA,NA,NA,NA,NA,NA,NA,NA,NA,NA,NA,NA,NA,NA,NA,NA,NA,NA,NA
mine 26,IL,illinois,hiber,NA,NA,alexander,NA,NA,NA,NA,NA,NA,NA,NA,NA,NA,NA,NA,NA,NA,NA,NA,NA,NA,NA
mine 30,IL,illinois,hiber,NA,NA,alexander,NA,NA,NA,NA,NA,NA,NA,NA,NA,NA,NA,NA,NA,NA,NA,NA,72976,NA,NA
minnetonka cave,ID,idaho,hiber,NA,NA,bear lake,NA,NA,NA,NA,NA,NA,NA,NA,NA,NA,NA,NA,NA,NA,NA,NA,42314,NA,NA
minor rexrode,WV,west virginia,hiber,NA,NA,pendleton,NA,NA,NA,NA,NA,NA,NA,NA,NA,NA,NA,NA,NA,NA,NA,NA,NA,NA,NA
minors saltpeter,VA,virginia,hiber,36.613056,-83.242222,lee,NA,NA,NA,NA,NA,NA,NA,NA,NA,NA,NA,NA,NA,NA,NA,426,40667,duplicate with roadside no. 1,NA
minton hollow,KY,kentucky,hiber,NA,NA,pulaski,NA,NA,NA,NA,NA,NA,NA,NA,NA,NA,NA,NA,NA,NA,NA,NA,NA,NA,NA
misty,KY,kentucky,hiber,NA,NA,jackson,NA,NA,NA,NA,NA,NA,NA,NA,NA,NA,NA,NA,NA,NA,NA,NA,NA,NA,NA
mitchell,AR,arkansas,hiber,NA,NA,madison,NA,NA,NA,NA,NA,NA,NA,NA,NA,NA,NA,"Arkansas Ecological Services Field Office, AR-99, marshall cave",NA,NA,NA,NA,NA,NA,NA
mitchell cave,AL,alabama,hiber,NA,NA,marshall,NA,NA,NA,NA,NA,NA,NA,NA,NA,NA,NA,NA,NA,NA,NA,NA,93170,"duplicate with dunham, kings school and quarry cave",NA
mitchell crushed stone quarry,IN,indiana,hiber,NA,NA,lawrence,NA,NA,NA,NA,NA,NA,NA,NA,NA,NA,NA,NA,NA,NA,NA,NA,NA,NA,NA
mitchells cave,NY,new york,hiber,42.88722,-74.47833,montgomery,,,,,,,,,,,,,,,,,,,
monroe overton,KY,kentucky,hiber,NA,NA,christian,NA,NA,NA,NA,NA,NA,NA,NA,NA,NA,NA,NA,NA,NA,NA,NA,NA,NA,NA
monte cristo mine,AR,arkansas,hiber,34.51667,-93.33334,garland,NA,NA,NA,NA,NA,NA,NA,NA,NA,NA,NA,NA,NA,NA,NA,NA,7647,NA,NA
moodys sweet potato,KY,kentucky,hiber,NA,NA,livingston,NA,NA,NA,NA,NA,NA,NA,NA,NA,NA,NA,NA,NA,NA,NA,NA,NA,NA,NA
morning hole,KY,kentucky,hiber,NA,NA,jackson,NA,NA,NA,NA,NA,NA,NA,NA,NA,NA,NA,NA,NA,NA,NA,NA,NA,NA,NA
morton,KY,kentucky,hiber,NA,NA,estill,NA,NA,NA,NA,NA,NA,NA,NA,NA,NA,NA,NA,NA,NA,NA,NA,NA,NA,NA
morton 2,KY,kentucky,hiber,NA,NA,estill,NA,NA,NA,NA,NA,NA,NA,NA,NA,NA,NA,NA,NA,NA,NA,NA,NA,NA,NA
mose prater,MO,missouri,hiber,NA,NA,shannon,NA,NA,NA,NA,NA,NA,NA,NA,NA,NA,NA,chimney,NA,NA,NA,NA,NA,NA,NA
mountain eye,TN,tennessee,hiber,NA,NA,fentress,NA,NA,NA,NA,NA,NA,NA,NA,NA,NA,NA,cobb creek saltpeter,NA,NA,NA,NA,NA,NA,NA
mountain grove,VA,virginia,hiber,38.108611,-79.873056,bath,NA,NA,NA,NA,NA,NA,NA,NA,NA,NA,NA,mountain grove saltpeter,NA,NA,NA,667,111620,NA,NA
mountain springs cave,AL,alabama,hiber,NA,NA,lawrence,NA,NA,NA,NA,NA,NA,NA,NA,NA,NA,NA,NA,NA,NA,NA,NA,98134,duplicate with backward confusion and saltpeter cave lawrence al,NA
mud cave no 2,MO,missouri,hiber,NA,NA,crawford,NA,NA,NA,NA,NA,NA,NA,NA,NA,NA,NA,NA,NA,NA,NA,NA,NA,NA,NA
mud river,MO,missouri,hiber,NA,NA,crawford,NA,NA,NA,NA,NA,NA,NA,NA,NA,NA,NA,NA,NA,NA,NA,NA,NA,NA,NA
mullen springs,KY,kentucky,hiber,NA,NA,rockcastle,NA,NA,NA,NA,NA,NA,NA,NA,NA,NA,NA,NA,NA,NA,NA,NA,NA,NA,NA
murcers lucifugus,KY,kentucky,hiber,NA,NA,breckinridge,NA,NA,NA,NA,NA,NA,NA,NA,NA,NA,NA,NA,NA,NA,NA,NA,NA,NA,NA
murder branch,KY,kentucky,hiber,NA,NA,menifee,NA,NA,NA,NA,NA,NA,NA,NA,NA,NA,NA,NA,NA,NA,NA,NA,NA,NA,NA
mushroom,MO,missouri,hiber,NA,NA,franklin,NA,NA,NA,NA,NA,NA,NA,NA,NA,NA,NA,NA,NA,NA,NA,NA,NA,NA,NA
myers mine,TN,tennessee,hiber,NA,NA,NA,NA,NA,NA,NA,NA,NA,NA,NA,NA,NA,NA,NA,NA,NA,NA,NA,NA,NA,NA
mystery cave,MN,minnesota,hiber,43.6174,-92.3119,fillmore,SPRING VALLEY,NA,NA,NA,NA,NA,NA,NA,NA,NA,378,NA,NA,NA,NA,378.8,12571,NA,NA
mystery cave,MO,missouri,NA,37.3956,-89.4915,perry,perryville,NA,NA,NA,NA,NA,NA,NA,NA,NA,NA,NA,NA,NA,NA,NA,47343,duplicate with bat cave mo,NA
mystery mo,MO,missouri,hiber,37.666614,-88.4195,perry,NA,NA,NA,NA,NA,NA,NA,NA,NA,NA,NA,NA,NA,NA,yes,258.2,34987,duplicate with mystery mo,NA
mystery mt,MT,montana,hiber,45.1242216,-108.3045611,carbon,NA,NA,NA,NA,NA,NA,NA,NA,NA,NA,NA,NA,NA,NA,NA,2374,73052,NA,NA
nameless,MO,missouri,hiber,NA,NA,crawford,NA,NA,NA,NA,NA,NA,NA,NA,NA,NA,NA,NA,NA,NA,NA,NA,NA,NA,NA
nanih waiya cave,MS,mississippi,hiber,32.92414,-88.92167,neshoba,NA,NA,NA,NA,NA,NA,NA,NA,NA,NA,NA,NA,NA,NA,NA,123.2,66878,NA,NA
natural bridge cave,ID,idaho,hiber,NA,NA,fremont,NA,NA,NA,NA,NA,NA,NA,NA,NA,NA,NA,NA,NA,NA,NA,NA,24850,NA,NA
neda mine,WI,wisconsin,hiber,43.4252,-88.5348,dodge,neda,NA,NA,NA,NA,NA,NA,NA,NA,NA,335,NA,NA,NA,NA,NA,43227,NA,NA
nellies hole,VA,virginia,hiber,NA,NA,montgomery,NA,NA,NA,NA,NA,NA,NA,NA,NA,NA,NA,aunt nellies hole,NA,NA,NA,NA,NA,NA,NA
neotomoas nemesis,KY,kentucky,hiber,NA,NA,jackson,NA,NA,NA,NA,NA,NA,NA,NA,NA,NA,NA,NA,NA,NA,NA,NA,NA,NA,NA
new mammoth cave,TN,tennessee,hiber,36.48599,-84.22907,campbell,NA,NA,NA,NA,NA,NA,NA,NA,NA,NA,NA,NA,NA,NA,NA,390.4,70000,NA,NA
new river,VA,virginia,hiber,37.274743,-80.598683,giles,pembroke,NA,NA,NA,NA,NA,NA,NA,NA,NA,NA,NA,NA,NA,NA,NA,108875,NA,NA
new trout,WV,west virginia,hiber,NA,NA,pendleton,NA,NA,NA,NA,NA,NA,NA,NA,NA,NA,NA,NA,NA,NA,NA,NA,NA,NA,NA
newberry,VA,virginia,hiber,37.11586,-80.97808,bland,NA,NA,NA,NA,NA,NA,NA,NA,NA,NA,788,newberry-bane,NA,NA,NA,781.2,77514,duplicate with coon,NA
newberry-bane,VA,virginia,hiber,,,bland,,,,,,,,,,,,,,,,,,,
nichols,AR,arkansas,hiber,NA,NA,washington,NA,NA,NA,NA,NA,NA,NA,NA,NA,NA,NA,"Arkansas Ecological Services Field Office, AR-83, WA4901",NA,NA,NA,NA,NA,NA,NA
nickajack cave,TN,tennessee,hiber,34.9897,-85.6106,marion,NA,NA,NA,NA,NA,NA,NA,NA,NA,NA,NA,NA,NA,NA,NA,197.7,35051,NA,NA
nickwackett,VT,vermont,hiber,43.78439,-73.00916,rutland,NA,NA,NA,NA,NA,NA,NA,NA,NA,NA,NA,NA,NA,NA,NA,NA,NA,NA,NA
niter ice cave,ID,idaho,hiber,NA,NA,caribou,NA,NA,NA,NA,NA,NA,NA,NA,NA,NA,NA,NA,NA,NA,NA,NA,105560,NA,NA
nitre,AL,alabama,hiber,NA,NA,jackson,NA,NA,NA,NA,NA,NA,NA,NA,NA,NA,NA,"Daphne, AL field office",NA,NA,NA,NA,NA,NA,NA
norris mine cave,TN,tennessee,hiber,36.22313,-84.09331,campbell,NA,NA,NA,NA,NA,NA,NA,NA,NA,NA,NA,NA,NA,NA,NA,280.1,89477,NA,NA
north bend,CA,california,hiber,41.73219,-121.50551,siskiyou,NA,NA,NA,NA,NA,NA,NA,NA,NA,NA,1380,NA,NA,NA,NA,1379.1,29498,"duplicate with craig cave, incline cave, juniper-hercules leg, labrynth lavabrook",NA
north firestone,KY,kentucky,hiber,NA,NA,pulaski,NA,NA,NA,NA,NA,NA,NA,NA,NA,NA,NA,NA,NA,NA,NA,NA,NA,NA,NA
north goldson,KY,kentucky,hiber,NA,NA,pulaski,NA,NA,NA,NA,NA,NA,NA,NA,NA,NA,NA,NA,NA,NA,NA,NA,NA,NA,NA
norton valley,KY,kentucky,hiber,NA,NA,breckinridge,NA,NA,NA,NA,NA,NA,NA,NA,NA,NA,NA,NA,NA,NA,NA,NA,NA,NA,NA
norway mine,MI,michigan,hiber,45.80008,-87.90943,ontonagon,NA,NA,NA,NA,NA,NA,16T,429328,5072238,NAD83,0,NA,NA,NA,NA,344,84499,"duplicate with iron mountain mine, jones adit",NA
nugents blowing springs cave,AL,alabama,hiber,NA,NA,lauderdale,NA,NA,NA,NA,NA,NA,NA,NA,NA,NA,NA,NA,NA,NA,NA,NA,55931,NA,NA
oaks,TN,tennessee,hiber,NA,NA,union,NA,NA,NA,NA,NA,NA,NA,NA,NA,NA,NA,NA,NA,NA,NA,NA,NA,NA,NA
old indian cave,FL,florida,hiber,NA,NA,jackson,NA,NA,NA,NA,NA,NA,NA,NA,NA,NA,NA,NA,NA,NA,NA,NA,NA,NA,NA
old mans pit,KY,kentucky,hiber,NA,NA,rockcastle,NA,NA,NA,NA,NA,NA,NA,NA,NA,NA,NA,NA,NA,NA,NA,NA,NA,NA,NA
old mine (all tunnels),MA,massachusetts,hiber,,,hampden,,,,,,,,,,,,,,,,,,,
olde formation pit,KY,kentucky,hiber,NA,NA,bell,NA,NA,NA,NA,NA,NA,NA,NA,NA,NA,NA,NA,NA,NA,NA,NA,118307,NA,NA
olde formation pit,VA,virginia,hiber,36.62552,-83.64611,lee,NA,NA,NA,NA,offset in park,NA,NA,NA,NA,NA,NA,NA,NA,NA,NA,758.4,118307,"duplicate with big salt cave, gap cave, grassy springs cave",NA
onlcav,AL,alabama,hiber,NA,NA,jackson,NA,NA,NA,NA,NA,NA,NA,NA,NA,NA,NA,NA,NA,NA,NA,NA,109896,duplicate with fern and crosca,nabat
onondaga,MO,missouri,hiber,NA,NA,crawford,NA,NA,NA,NA,NA,NA,NA,NA,NA,NA,NA,NA,NA,NA,NA,NA,NA,NA,NA
onyx crawford mo,MO,missouri,hiber,NA,NA,crawford,NA,NA,NA,NA,NA,NA,NA,NA,NA,NA,NA,cave 021,NA,NA,NA,NA,NA,NA,NA
onyx dent mo,MO,missouri,hiber,NA,NA,dent,NA,NA,NA,NA,NA,NA,NA,NA,NA,NA,NA,NA,NA,NA,NA,NA,NA,NA,NA
onyx pulaski mo,MO,missouri,hiber,NA,NA,pulaski,NA,NA,NA,NA,NA,NA,NA,NA,NA,NA,NA,NA,NA,NA,NA,NA,NA,NA,NA
organ,WV,west virginia,hiber,NA,NA,greenbrier,NA,NA,NA,NA,NA,NA,NA,NA,NA,NA,NA,NA,NA,NA,NA,NA,NA,NA,NA
organ cave,WV,west virginia,hiber,37.7182,-80.4351,greenbrier,NA,NA,NA,NA,NA,NA,NA,NA,NA,NA,NA,NA,NA,NA,NA,671.9,35436,NA,NA
osbourn cave,GA,georgia,hiber,NA,NA,floyd,NA,NA,NA,NA,NA,NA,NA,NA,NA,NA,NA,NA,NA,NA,NA,NA,38379,NA,NA
ot-13,OK,oklahoma,hiber,38.410858,-94.4434,ottawa,NA,NA,NA,NA,NA,NA,NA,NA,NA,NA,NA,NA,NA,NA,NA,279.2,98136,NA,NA
ozzys hole,IN,indiana,hiber,NA,NA,greene,NA,NA,NA,NA,NA,NA,NA,NA,NA,NA,NA,joe nelson cave,NA,NA,NA,NA,NA,NA,NA
panther cave,TX,texas,hiber,34.25048243,-100.0133945,cottle,NA,NA,NA,NA,NA,NA,NA,NA,NA,NA,NA,NA,NA,NA,NA,464.1,19270,duplicate with walkup cave,NA
panther spring,MO,missouri,hiber,NA,NA,carter,NA,NA,NA,NA,NA,NA,NA,NA,NA,NA,NA,NA,NA,NA,NA,NA,NA,NA,NA
panther/neyman,IN,indiana,hiber,NA,NA,washington,NA,NA,NA,NA,NA,NA,NA,NA,NA,NA,NA,NA,NA,NA,NA,NA,NA,NA,NA
parkers pit,IN,indiana,hiber,NA,NA,harrison,NA,NA,NA,NA,NA,NA,NA,NA,NA,NA,NA,NA,NA,NA,NA,NA,NA,NA,NA
patton,WV,west virginia,hiber,NA,NA,monroe,NA,NA,NA,NA,NA,NA,NA,NA,NA,NA,NA,NA,NA,NA,NA,NA,NA,NA,NA
peacock,WV,west virginia,hiber,NA,NA,grant,NA,NA,NA,NA,NA,NA,NA,NA,NA,NA,NA,NA,NA,NA,NA,NA,NA,NA,NA
pearsons cave,TN,tennessee,hiber,36.54818,-83.02026,hawkins,NA,NA,NA,NA,NA,NA,NA,NA,NA,NA,NA,NA,NA,NA,NA,431.7,28379,NA,NA
peccary cave,AR,arkansas,hiber,35.72187,-94.46655,crawford,NATURAL DAM,NA,NA,NA,NA,NA,15S,367356,3954092,NAD83,396,NA,NA,NA,NA,396.8,41375,NA,NA
peery saltpetre,VA,virginia,hiber,37.615148,-79.742535,botetourt,fincastle,NA,NA,NA,NA,NA,NA,NA,NA,NA,NA,NA,NA,NA,NA,NA,92509,NA,NA
peerys saltpeter,VA,virginia,hiber,,,botetourt,,,,,,,,,,,,,,,,,,,
penitentiary,KY,kentucky,hiber,NA,NA,breckinridge,NA,NA,NA,NA,NA,NA,NA,NA,NA,NA,NA,NA,NA,NA,NA,NA,NA,NA,NA
penns,PA,pennsylvania,hiber,NA,NA,centre,NA,NA,NA,NA,NA,NA,NA,NA,NA,NA,NA,NA,NA,NA,NA,NA,NA,NA,NA
peter,KY,kentucky,hiber,NA,NA,estill,NA,NA,NA,NA,NA,NA,NA,NA,NA,NA,NA,NA,NA,NA,NA,NA,NA,NA,NA
piasa quary,IL,illinois,hiber,NA,NA,madison,NA,NA,NA,NA,NA,NA,NA,NA,NA,NA,NA,NA,NA,NA,NA,NA,NA,NA,NA
picnic entrance,AL,alabama,hiber,NA,NA,jackson,NA,NA,NA,NA,NA,NA,NA,NA,NA,NA,NA,NA,NA,NA,NA,NA,51435,"duplicate with russell cave, main entrance, and ridley cave",nabat
piercys,WV,west virginia,hiber,NA,NA,greenbrier,NA,NA,NA,NA,NA,NA,NA,NA,NA,NA,NA,NA,NA,NA,NA,NA,NA,NA,NA
pigeon roost cave,AR,arkansas,hiber,36.302022,-93.991866,benton,rogers,NA,NA,NA,NA,NA,NA,NA,NA,NA,NA,NA,no,no,yes,367.3,39071,NA,NA
pilot,KY,kentucky,hiber,NA,NA,estill,NA,NA,NA,NA,NA,NA,NA,NA,NA,NA,NA,NA,NA,NA,NA,NA,NA,NA,NA
pilot knob cave,MO,missouri,hiber,37.623611,-90.642222,iron,NA,NA,NA,NA,NA,NA,NA,NA,NA,NA,NA,NA,NA,NA,yes,295,60911,NA,NA
pine hill,KY,kentucky,hiber,NA,NA,rockcastle,NA,NA,NA,NA,NA,NA,NA,NA,NA,NA,NA,NA,NA,NA,NA,NA,NA,NA,NA
pipistrelle mine,AR,arkansas,hiber,34.27306,-94.11416,polk,NA,NA,NA,NA,NA,NA,NA,NA,NA,NA,NA,NA,NA,NA,NA,237,82505,NA,NA
piquet,MO,missouri,hiber,NA,NA,pulaski,NA,NA,NA,NA,NA,NA,NA,NA,NA,NA,NA,NA,NA,NA,NA,NA,NA,NA,NA
pitts cave,MS,mississippi,,,,wayne,,,,,,,,,,,,,,,,,,,
plymouth,VT,vermont,hiber,43.54477,-72.75157,windsor,NA,NA,NA,NA,NA,NA,NA,NA,NA,NA,NA,NA,NA,NA,NA,NA,NA,NA,NA
pocahontas,VA,virginia,maternity,NA,NA,NA,NA,NA,NA,NA,NA,NA,NA,NA,NA,NA,NA,NA,NA,NA,NA,NA,NA,NA,NA
poplar cave,TN,tennessee,hiber,36.2,-82.8,greene,NA,NA,NA,NA,yes- with offset,NA,NA,NA,NA,NA,NA,NA,NA,NA,NA,503,103159,duplicate with double mouth cave,NA
posey cave,AL,alabama,hiber,NA,NA,blount,NA,NA,NA,NA,NA,NA,NA,NA,NA,NA,NA,NA,NA,NA,NA,NA,45691,duplicate with blowing saltpeter cave and white cave,NA
pothooks,TX,texas,hiber,30.18184513,-100.2099828,childress,NA,NA,NA,NA,NA,NA,NA,NA,NA,NA,NA,NA,NA,NA,NA,NA,63693,NA,NA
potowatomi,WI,wisconsin,hiber,44.87694,-87.43083,door,NA,NA,NA,NA,NA,NA,NA,NA,NA,NA,NA,NA,NA,NA,NA,182,45087,NA,NA
powder mill creek cave,MO,missouri,hiber,37.19213,-91.1724,shannon,NA,NA,37.19,-91.17,NA,NA,NA,662207,4117759,NA,159,NA,NA,NA,NA,184.6,34671,NA,NA
prairie hall,KY,kentucky,hiber,NA,NA,estill,NA,NA,NA,NA,NA,NA,NA,NA,NA,NA,NA,NA,NA,NA,NA,NA,NA,NA,NA
primitive baptist spring,IN,indiana,hiber,NA,NA,monroe,NA,NA,NA,NA,NA,NA,NA,NA,NA,NA,NA,NA,NA,NA,NA,NA,NA,NA,NA
princeton,MA,massachusetts,maternity,NA,NA,NA,NA,NA,NA,NA,NA,NA,NA,NA,NA,NA,NA,NA,NA,NA,NA,NA,NA,NA,NA
prison culvert,MS,mississippi,hiber,33.17018,-89.04725,winston,louisville,NA,NA,NA,NA,NA,NA,NA,NA,NA,NA,NA,NA,NA,NA,77.8,47684,duplicate with louisville culverts,NA
pruett saltpeter,KY,kentucky,hiber,NA,NA,warren,NA,NA,NA,NA,NA,NA,NA,NA,NA,NA,NA,NA,NA,NA,NA,NA,NA,NA,NA
pump station,WI,wisconsin,hiber,42.884233,-90.162057,iowa,mineral point,NA,NA,NA,NA,NA,NA,NA,NA,NA,NA,NA,NA,NA,NA,NA,126409,duplicate with johnston pottery,NA
putnams,NH,new hampshire,maternity,NA,NA,NA,NA,NA,NA,NA,NA,NA,NA,NA,NA,NA,NA,NA,NA,NA,NA,NA,NA,NA,NA
quarry cave,AL,alabama,hiber,34.4534,-86.3266,marshall,NA,NA,NA,NA,NA,NA,NA,NA,NA,NA,NA,NA,NA,NA,NA,202.2,93170,"duplicate with dunham, kings school and mitchell cave",NA
railroad,MO,missouri,hiber,NA,NA,pulaski,NA,NA,NA,NA,NA,NA,NA,NA,NA,NA,NA,NA,NA,NA,NA,NA,NA,NA,NA
rainbow,TN,tennessee,hiber,NA,NA,blount,NA,NA,NA,NA,NA,NA,NA,NA,NA,NA,NA,NA,NA,NA,NA,NA,NA,NA,NA
randall creek culvert,GA,georgia,hiber,NA,NA,muscogee,NA,NA,NA,NA,NA,NA,NA,NA,NA,NA,NA,NA,NA,NA,NA,NA,108929,NA,NA
ravens nest north mine,NE,nebraska,hiber,41.056028,-96.057722,cass,NA,NA,NA,NA,NA,NA,NA,NA,NA,NA,NA,NA,NA,NA,NA,NA,59019,duplicate with ravens nest south mine,NA
ravens nest south mine,NE,nebraska,hiber,41.055167,-96.058444,cass,NA,NA,NA,NA,NA,NA,NA,NA,NA,NA,NA,NA,NA,NA,NA,NA,59019,duplicate with ravens nest north mine,NA
rawdon,NS,nova scotia,hiber-logger,45.05652778,-63.8411333,NA,NA,NA,NA,NA,NA,NA,NA,NA,NA,NA,NA,NA,NA,NA,NA,99.2,7708,NA,NA
rays,IN,indiana,hiber,NA,NA,greene,NA,NA,NA,NA,NA,NA,NA,NA,NA,NA,NA,jim rays cave,NA,NA,NA,NA,NA,NA,NA
rays cave,IN,indiana,hiber-logger,39.05033709,-86.80413192,NA,NA,NA,NA,NA,NA,NA,NA,NA,NA,NA,NA,NA,NA,NA,NA,198,35243,NA,NA
rdsdca,AL,alabama,hiber,NA,NA,jackson,NA,NA,NA,NA,NA,NA,NA,NA,NA,NA,NA,NA,NA,NA,NA,NA,58235,duplicate with chispc,nabat
red creek culvert,GA,georgia,hiber,NA,NA,monroe,NA,NA,NA,NA,NA,NA,NA,NA,NA,NA,NA,NA,NA,NA,NA,NA,12996,NA,NA
redbud,TN,tennessee,hiber,NA,NA,fentress,NA,NA,NA,NA,NA,NA,NA,NA,NA,NA,NA,NA,NA,NA,NA,NA,NA,NA,NA
redmond creek,KY,kentucky,hiber,NA,NA,wayne,NA,NA,NA,NA,NA,NA,NA,NA,NA,NA,NA,NA,NA,NA,NA,NA,NA,NA,NA
reed,AR,arkansas,hiber,NA,NA,marion,NA,NA,NA,NA,NA,NA,NA,NA,NA,NA,NA,"Arkansas Ecological Services Field Office, AR-60",NA,NA,NA,NA,NA,NA,NA
reedy creek trib culvert,GA,georgia,hiber,NA,NA,treutlen,NA,NA,NA,NA,NA,NA,NA,NA,NA,NA,NA,NA,NA,NA,NA,NA,78355,NA,NA
reeves,IN,indiana,hiber,NA,NA,monroe,NA,NA,NA,NA,NA,NA,NA,NA,NA,NA,NA,NA,NA,NA,NA,NA,NA,NA,NA
resurgence,KY,kentucky,hiber,NA,NA,jackson,NA,NA,NA,NA,NA,NA,NA,NA,NA,NA,NA,NA,NA,NA,NA,NA,NA,NA,NA
rhymer 1,IL,illinois,hiber,NA,NA,alexander,NA,NA,NA,NA,NA,NA,NA,NA,NA,NA,NA,NA,NA,NA,NA,NA,NA,NA,NA
rice,TN,tennessee,hiber,NA,NA,van buren,NA,NA,NA,NA,NA,NA,NA,NA,NA,NA,NA,NA,NA,NA,NA,NA,NA,NA,NA
richs,IL,illinois,hiber,NA,NA,union,NA,NA,NA,NA,NA,NA,NA,NA,NA,NA,NA,NA,NA,NA,NA,NA,80948,NA,NA
rickwood caverns,AL,alabama,hiber,NA,NA,blount,NA,NA,NA,NA,NA,NA,NA,NA,NA,NA,NA,NA,NA,NA,NA,NA,57979,NA,NA
riders mill,KY,kentucky,hiber,NA,NA,hart,NA,NA,NA,NA,NA,NA,NA,NA,NA,NA,NA,NA,NA,NA,NA,NA,NA,NA,NA
ridley cave,AL,alabama,hiber,NA,NA,jackson,NA,NA,NA,NA,NA,NA,NA,NA,NA,NA,NA,NA,NA,NA,NA,NA,51435,"duplicate with russell cave, main entrance, and picnic entrance",NA
risen,KY,kentucky,hiber,NA,NA,estill,NA,NA,NA,NA,NA,NA,NA,NA,NA,NA,NA,NA,NA,NA,NA,NA,NA,NA,NA
river,IN,indiana,hiber,NA,NA,washington,NA,NA,NA,NA,NA,NA,NA,NA,NA,NA,NA,wet clifty cave,NA,NA,NA,NA,NA,NA,NA
river,MO,missouri,hiber,NA,NA,camden,NA,NA,NA,NA,NA,NA,NA,NA,NA,NA,NA,NA,NA,NA,NA,NA,NA,NA,NA
roadside no. 1,VA,virginia,hiber,36.616944,-83.2325,lee,NA,NA,NA,NA,NA,NA,NA,NA,NA,NA,NA,NA,NA,NA,NA,413,40667,duplicate with minors saltpeter,NA
robber baron,TX,texas,hiber,29.508897,-98.457128,bexar,san antonio,NA,NA,NA,NA,NA,NA,NA,NA,NA,NA,NA,NA,NA,NA,NA,7197,NA,NA
roberts,FL,florida,hiber,29.738002,-82.871612,gilchrist,Bell,NA,NA,NA,NA,NA,NA,NA,NA,NA,NA,NA,NA,NA,NA,19,112133,NA,NA
robinson ladder,IN,indiana,hiber,NA,NA,crawford,NA,NA,NA,NA,NA,NA,NA,NA,NA,NA,NA,NA,NA,NA,NA,NA,NA,NA,NA
robinsons ice cave,MN,minnesota,hiber,46.142,-92.8616,pine,SANDSTONE,NA,NA,NA,NA,NA,NA,NA,NA,NA,319,NA,NA,NA,NA,318,75002,NA,NA
rocheport,MO,missouri,hiber,NA,NA,boone,NA,NA,NA,NA,NA,NA,NA,NA,NA,NA,NA,boone,NA,NA,NA,NA,NA,NA,NA
rockhouse cave,AL,alabama,hiber,NA,NA,covington,NA,NA,NA,NA,NA,NA,NA,NA,NA,NA,NA,NA,NA,NA,NA,NA,14148,NA,NA
rocky hollow,VA,virginia,hiber,NA,NA,wise,NA,NA,NA,NA,NA,NA,NA,NA,NA,NA,NA,NA,NA,NA,NA,NA,NA,NA,NA
rose,TN,tennessee,hiber,NA,NA,white,NA,NA,NA,NA,NA,NA,NA,NA,NA,NA,NA,NA,NA,NA,NA,NA,NA,NA,NA
round springs,MO,missouri,hiber,37.28426,-91.40668,shannon,NA,NA,NA,NA,NA,NA,NA,NA,NA,NA,NA,NA,NA,NA,yes,204,95253,NA,NA
round top mine no 4,MD,maryland,hiber,NA,NA,washington,NA,NA,NA,NA,NA,NA,NA,NA,NA,NA,NA,round top mines,NA,NA,NA,NA,NA,NA,NA
round up #2,TX,texas,hiber,34.96642,-100.10428,collingsworth,wellington,NA,NA,NA,NA,NA,NA,NA,NA,NA,NA,NA,NA,NA,NA,NA,127804,NA,NA
row land trust mine,MA,massachusetts,hiber,,,berkshire,,,,,,,,,,,,,,,,,,,
rowland,AR,arkansas,hiber,NA,NA,stone,NA,NA,NA,NA,NA,NA,NA,NA,NA,NA,NA,"Arkansas Ecological Services Field Office, AR-17",NA,NA,NA,NA,NA,NA,NA
roxbury iron mine,CT,connecticut,hiber,41.56799,-73.33854,litchfield,NA,NA,NA,NA,NA,NA,NA,NA,NA,NA,NA,"New England FO, Concord, NH",NA,NA,NA,NA,NA,NA,NA
rufe caldwell,VA,virginia,hiber,NA,NA,craig,NA,NA,NA,NA,NA,NA,NA,NA,NA,NA,NA,NA,NA,NA,NA,NA,NA,NA,NA
ruffner mine #3,AL,alabama,hiber-logger,33.56799303,-86.69609946,jefferson,birmingham,NA,NA,NA,NA,NA,NA,NA,NA,NA,NA,NA,NA,NA,NA,NA,39812,NA,NA
run to the mill cave,TN,tennessee,hiber,NA,NA,cumberland,NA,NA,NA,NA,NA,NA,NA,NA,NA,NA,NA,NA,NA,NA,NA,NA,NA,NA,NA
running bull,MO,missouri,hiber,NA,NA,perry,NA,NA,NA,NA,NA,NA,NA,NA,NA,NA,NA,NA,NA,NA,NA,NA,NA,NA,NA
russell cave,AL,alabama,hiber,34.97654,-85.81424,jackson,Russell Cave NWR,NA,NA,NA,NA,NWR used,NA,NA,NA,NA,NA,NA,NA,NA,NA,327.5,51435,"duplicate with main entrance, picnic entrance, and ridley cave",NA
ruth,PA,pennsylvania,hiber,NA,NA,huntingdon,NA,NA,NA,NA,NA,NA,NA,NA,NA,NA,NA,NA,NA,NA,NA,NA,NA,NA,NA
rutherford cave,MO,missouri,,,,boone,,,,,,,,,,,,,,,,,,,
ryden,MO,missouri,hiber,NA,NA,pulaski,NA,NA,NA,NA,NA,NA,NA,NA,NA,NA,NA,NA,NA,NA,NA,NA,NA,NA,NA
s penn rr-east and west kittatinny mt tunnel,PA,pennsylvania,hiber,NA,NA,franklin,NA,NA,NA,NA,NA,NA,NA,NA,NA,NA,NA,NA,NA,NA,NA,NA,NA,NA,NA
s penn rr-east blue mt tunnel destroyed,PA,pennsylvania,hiber,NA,NA,franklin,NA,NA,NA,NA,NA,NA,NA,NA,NA,NA,NA,NA,NA,NA,NA,NA,NA,NA,NA
s penn rr-west sideling hil tunnel destroyed,PA,pennsylvania,hiber,NA,NA,fulton,NA,NA,NA,NA,NA,NA,NA,NA,NA,NA,NA,NA,NA,NA,NA,NA,NA,NA,NA
s penn rr-west tuscarora mt tunnel destroyed,PA,pennsylvania,hiber,NA,NA,huntingdon,NA,NA,NA,NA,NA,NA,NA,NA,NA,NA,NA,NA,NA,NA,NA,NA,NA,NA,NA
salamander,IN,indiana,hiber,NA,NA,monroe,NA,NA,NA,NA,NA,NA,NA,NA,NA,NA,NA,NA,NA,NA,NA,NA,NA,NA,NA
salisbury mine,PA,pennsylvania,hiber,NA,NA,somerset,NA,NA,NA,NA,NA,NA,NA,NA,NA,NA,NA,NA,NA,NA,NA,NA,NA,NA,NA
saloon,MO,missouri,hiber,NA,NA,crawford,NA,NA,NA,NA,NA,NA,NA,NA,NA,NA,NA,NA,NA,NA,NA,NA,NA,NA,NA
saltpeter,AR,arkansas,hiber,NA,NA,stone,NA,NA,NA,NA,NA,NA,NA,NA,NA,NA,NA,"Arkansas Ecological Services Field Office, AR-46",NA,NA,NA,NA,NA,NA,NA
saltpeter,TN,tennessee,hiber,NA,NA,blount,NA,NA,NA,NA,NA,NA,NA,NA,NA,NA,NA,NA,NA,NA,NA,NA,NA,NA,NA
saltpeter cave,AL,alabama,hiber,NA,NA,lawrence,NA,NA,NA,NA,NA,NA,NA,NA,NA,NA,NA,NA,NA,NA,NA,NA,98134,duplicate with backward confusion and mountain springs cave,NA
saltpeter cave,KY,kentucky,hiber,38.376744,-83.122222,Carter,Olive Hill,NA,NA,NA,NA,NA,NA,NA,NA,NA,NA,NA,NA,NA,NA,253.6,125177,NA,NA
saltpeter cave (AL0074),AL,alabama,hiber,NA,NA,bibb,NA,NA,NA,NA,NA,NA,NA,NA,NA,NA,NA,NA,NA,NA,NA,NA,49604,"duplicate with saltpeter cave (AL0353), six mile creek cave, and saltpeter sink",NA
saltpeter cave (AL0353),AL,alabama,hiber,NA,NA,bibb,NA,NA,NA,NA,NA,NA,NA,NA,NA,NA,NA,NA,NA,NA,NA,NA,49604,"duplicate with six mile creek cave, saltpeter sink, and saltpeter cave (AL0074)",NA
saltpeter sink,AL,alabama,hiber,NA,NA,bibb,NA,NA,NA,NA,NA,NA,NA,NA,NA,NA,NA,NA,NA,NA,NA,NA,49604,"duplicate with saltpeter cave (AL0353), six mile creek cave, and saltpeter cave (AL0074)",NA
saltpeter-crawford,IN,indiana,hiber,NA,NA,crawford,NA,NA,NA,NA,NA,NA,NA,NA,NA,NA,NA,NA,NA,NA,NA,NA,NA,NA,NA
saltpeter-monroe,IN,indiana,hiber,NA,NA,monroe,NA,NA,NA,NA,NA,NA,NA,NA,NA,NA,NA,NA,NA,NA,NA,NA,NA,NA,NA
san 305,AL,alabama,hiber,NA,NA,escambia,NA,NA,NA,NA,NA,NA,NA,NA,NA,NA,NA,NA,NA,NA,NA,NA,102550,NA,nabat
sanders cave,AL,alabama,hiber,NA,NA,conecuh,NA,NA,NA,NA,NA,NA,NA,NA,NA,NA,NA,NA,NA,NA,NA,NA,77462,NA,NA
sandy cave,AL,alabama,hiber,NA,NA,madison,NA,NA,NA,NA,NA,NA,NA,NA,NA,NA,NA,NA,NA,NA,NA,NA,79972,duplicate with bos cave,NA
sauta,AL,alabama,hiber,34.612418,-86.132884,jackson,Sauta Cave NWR,NA,NA,NA,NA,NA,NA,NA,NA,NA,NA,NA,NA,NA,NA,256.5,84808,duplicate with grass skeleton,NA
savannah culvert,GA,georgia,hiber,NA,NA,liberty,NA,NA,NA,NA,NA,NA,NA,NA,NA,NA,NA,NA,NA,NA,NA,NA,62236,NA,NA
schoharie,NY,new york,hiber,42.678611,-74.243333,schoharie,wright,NA,NA,NA,NA,NA,NA,NA,NA,NA,NA,NA,NA,NA,NA,NA,43120,duplicate with knox cave,NA
schoolhouse cave,WV,west virginia,hiber,38.7851,-79.3742,pendleton,NA,NA,NA,NA,NA,NA,NA,NA,NA,NA,NA,NA,NA,NA,NA,670.4,56560,NA,NA
scotia hollow,MO,missouri,hiber,NA,NA,washington,NA,NA,NA,NA,NA,NA,NA,NA,NA,NA,NA,NA,NA,NA,NA,NA,NA,NA,NA
scott gap,TN,tennessee,hiber,NA,NA,blount,NA,NA,NA,NA,NA,NA,NA,NA,NA,NA,NA,NA,NA,NA,NA,NA,NA,NA,NA
scroggins branch culvert,GA,georgia,hiber,NA,NA,talbot,NA,NA,NA,NA,NA,NA,NA,NA,NA,NA,NA,NA,NA,NA,NA,NA,128791,NA,NA
scuffle creek culvert,GA,georgia,hiber,NA,NA,twiggs,NA,NA,NA,NA,NA,NA,NA,NA,NA,NA,NA,NA,NA,NA,NA,NA,85105,NA,NA
seawra,PA,pennsylvania,hiber,NA,NA,mifflin,NA,NA,NA,NA,NA,NA,NA,NA,NA,NA,NA,NA,NA,NA,NA,NA,NA,NA,NA
secesh cave,MO,missouri,hiber,36.910308,-91.082631,carter,NA,NA,NA,NA,NA,NA,NA,NA,NA,NA,NA,NA,NA,NA,yes,237.6,79053,NA,NA
second cave,AL,alabama,hiber,NA,NA,blount,NA,NA,NA,NA,NA,NA,NA,NA,NA,NA,NA,NA,NA,NA,NA,NA,1659,"duplicate with crowson cave, bishopella cave, sewer cave, and horseshoe cave",NA
sequiota cave,MO,missouri,hiber,37.147775,-93.236903,greene,springfield,NA,NA,NA,NA,NA,NA,NA,NA,NA,NA,NA,NA,NA,yes,366.9,16703,NA,NA
sevastio,MA,massachusetts,maternity,NA,NA,NA,NA,NA,NA,NA,NA,NA,NA,NA,NA,NA,NA,NA,NA,NA,NA,NA,NA,NA,NA
sewer cave,AL,alabama,hiber,NA,NA,blount,NA,NA,NA,NA,NA,NA,NA,NA,NA,NA,NA,NA,NA,NA,NA,NA,1659,"duplicate with crowson cave, bishopella cave, second cave, and horseshoe cave",NA
sexton spring,IN,indiana,hiber,NA,NA,greene,NA,NA,NA,NA,NA,NA,NA,NA,NA,NA,NA,NA,NA,NA,NA,NA,NA,NA,NA
sharer,PA,pennsylvania,hiber,NA,NA,centre,NA,NA,NA,NA,NA,NA,NA,NA,NA,NA,NA,jacob salter farm,NA,NA,NA,NA,NA,NA,NA
shaw hill bat,KY,kentucky,hiber,NA,NA,livingston,NA,NA,NA,NA,NA,NA,NA,NA,NA,NA,NA,NA,NA,NA,NA,NA,NA,NA,NA
sheep cave,MO,missouri,hiber,38.21256,-91.09484,franklin,NA,NA,NA,NA,NA,NA,NA,NA,NA,NA,NA,NA,NA,NA,NA,188.1,98946,NA,NA
shelta cave,AL,alabama,hiber,NA,NA,madison,NA,NA,NA,NA,NA,NA,NA,NA,NA,NA,NA,NA,NA,NA,NA,NA,92517,duplicate with three caves,NA
shickshinny mine portal 3,PA,pennsylvania,hiber,NA,NA,luzerne,NA,NA,NA,NA,NA,NA,NA,NA,NA,NA,NA,NA,NA,NA,NA,NA,NA,NA,NA
shindle iron mine,PA,pennsylvania,hiber-logger,40.660278,-77.408889,NA,NA,NA,NA,NA,NA,NA,NA,NA,NA,NA,NA,NA,NA,NA,NA,271,11712,NA,NA
shire,VA,virginia,hiber,37.5584,-80.21843,craig,NA,NA,NA,NA,NA,NA,NA,NA,NA,NA,744,shires saltpeter,NA,NA,NA,744,89372,NA,NA
showroom cave,IN,indiana,hiber,38.96043,-85.61496,jennings,NA,NA,NA,NA,NA,NA,NA,NA,NA,NA,NA,NA,NA,NA,NA,200.8,27051,duplicate with biehle cave,NA
signature,TN,tennessee,hiber,NA,NA,franklin,NA,NA,NA,NA,NA,NA,NA,NA,NA,NA,NA,NA,NA,NA,NA,NA,NA,NA,NA
silver mine,AR,arkansas,hiber,NA,NA,montgomery,NA,NA,NA,NA,NA,NA,NA,NA,NA,NA,NA,NA,NA,NA,NA,NA,NA,NA,NA
sinks and rises,KY,kentucky,hiber,NA,NA,jackson,NA,NA,NA,NA,NA,NA,NA,NA,NA,NA,NA,NA,NA,NA,NA,NA,NA,NA,NA
sinks of roundstone,KY,kentucky,hiber,NA,NA,rockcastle,NA,NA,NA,NA,NA,NA,NA,NA,NA,NA,NA,NA,NA,NA,NA,NA,NA,NA,NA
sinnett cave,WV,west virginia,hiber,38.51901,-79.3692,pendleton,MAYERS,NA,NA,NA,NA,NA,17,642169,4264663,NAD83,701,NA,NA,NA,NA,711,42156,NA,NA
sittons cave,GA,georgia,hiber,34.85944,-85.48556,dade,NA,NA,NA,NA,NA,NA,NA,NA,NA,NA,257,NA,NA,NA,NA,249.3,102243,"duplicate with howwat, listed as sitton in nabat_combo_grids",NA
six mile bluff cave,AL,alabama,hiber,NA,NA,bibb,NA,NA,NA,NA,NA,NA,NA,NA,NA,NA,NA,NA,NA,NA,NA,NA,16002,NA,NA
six mile creek cave,AL,alabama,hiber,NA,NA,bibb,NA,NA,NA,NA,NA,NA,NA,NA,NA,NA,NA,NA,NA,NA,NA,NA,49604,"duplicate with saltpeter cave (AL0353), saltpeter sink, and saltpeter cave (AL0074)",NA
skinner hollow,VT,vermont,hiber,NA,NA,bennington,NA,NA,NA,NA,NA,NA,NA,NA,NA,NA,NA,NA,NA,NA,NA,NA,NA,NA,NA
skylight cave,KY,kentucky,hiber,NA,NA,bell,NA,NA,NA,NA,NA,NA,NA,NA,NA,NA,NA,NA,NA,NA,NA,NA,118307,NA,NA
slaven,MO,missouri,hiber,NA,NA,laclede,NA,NA,NA,NA,NA,NA,NA,NA,NA,NA,NA,NA,NA,NA,NA,NA,NA,NA,NA
sleeping child mine,AR,arkansas,hiber,34.5566493,-93.26201468,garland,bear,NA,NA,NA,NA,NA,NA,NA,NA,NA,NA,NA,NA,NA,NA,207.9,77801,duplicate with spillway,NA
slick crawl,IL,illinois,hiber,NA,NA,pike,NA,NA,NA,NA,NA,NA,NA,NA,NA,NA,NA,NA,NA,NA,NA,NA,NA,NA,NA
sliding rock cave,NC,north carolina,hiber,NA,NA,rutherford,NA,NA,NA,NA,NA,NA,NA,NA,NA,NA,NA,NA,NA,NA,NA,NA,NA,NA,NA
smittle,MO,missouri,hiber,NA,NA,wright,NA,NA,NA,NA,NA,NA,NA,NA,NA,NA,NA,NA,NA,NA,NA,NA,NA,NA,NA
smokehole,KY,kentucky,hiber,NA,NA,rockcastle,NA,NA,NA,NA,NA,NA,NA,NA,NA,NA,NA,NA,NA,NA,NA,NA,NA,NA,NA
smokehole,WV,west virginia,hiber,NA,NA,pendleton,NA,NA,NA,NA,NA,NA,NA,NA,NA,NA,NA,NA,NA,NA,NA,NA,NA,NA,NA
snedegars,WV,west virginia,hiber,NA,NA,pocahontas,NA,NA,NA,NA,NA,NA,NA,NA,NA,NA,NA,NA,NA,NA,NA,NA,NA,NA,NA
soudan underground mine,MN,minnesota,hiber,47.81974,-92.2423,st louis,SOUDAN,NA,NA,NA,NA,NA,NA,NA,NA,NA,486,NA,NA,NA,NA,489.1,128481,NA,NA
south bethlehem,NY,new york,hiber,42.51916,-73.84888,albany,south bethlehem,NA,NA,NA,NA,NA,NA,NA,NA,NA,NA,NA,NA,NA,NA,59,93425,NA,NA
south bluff adit,MI,michigan,hiber,46.72064,-89.18613,ontonagon,NA,NA,NA,NA,NA,NA,16T,332936,5176441,NAD83,369,NA,NA,NA,NA,375.3,56547,"duplicate with beatens cave, glen adit",NA
south goldson,KY,kentucky,hiber,NA,NA,pulaski,NA,NA,NA,NA,NA,NA,NA,NA,NA,NA,NA,NA,NA,NA,NA,NA,NA,NA,NA
south lake mine,MI,michigan,hiber,46.77556,-89.05368,ontonagon,mass city,NA,NA,NA,NA,NA,NA,NA,NA,NA,NA,NA,NA,NA,NA,NA,94759,duplicate with mass c,NA
south portal,WI,wisconsin,hiber,44.83181,-92.25112,pierce,NA,NA,NA,NA,NA,NA,NA,NA,NA,NA,NA,NA,NA,NA,NA,331,96551,duplicate with crystal_wi,NA
spanglers,VA,virginia,hiber,36.683611,-83.191389,lee,NA,NA,NA,NA,NA,NA,NA,NA,NA,NA,NA,NA,NA,NA,NA,486,46043,NA,NA
sparkle,KY,kentucky,hiber,NA,NA,lee,NA,NA,NA,NA,NA,NA,NA,NA,NA,NA,NA,NA,NA,NA,NA,NA,NA,NA,NA
spaws creek sodalis,KY,kentucky,hiber,NA,NA,morgan,NA,NA,NA,NA,NA,NA,NA,NA,NA,NA,NA,NA,NA,NA,NA,NA,NA,NA,NA
spillway,AR,arkansas,hiber,34.5758,-93.21156,garland,mountain pine,NA,NA,NA,NA,NA,NA,NA,NA,83,NA,NA,NA,NA,NA,NA,77801,duplicate with sleeping child mine,NA
sq-1,OK,oklahoma,hiber,35.62,-94.83,sequoyah,NA,NA,NA,NA,NA,NA,NA,NA,NA,NA,NA,NA,NA,NA,NA,395,12191,duplicate with crystal cave,NA
st. john,WI,wisconsin,hiber,42.68641,-90.71564,grant,NA,NA,NA,NA,NA,NA,NA,NA,NA,NA,NA,NA,NA,NA,NA,243.4,88841,NA,NA
stampfli,WI,wisconsin,hiber,43.10298,-89.83261,iowa,NA,NA,NA,NA,NA,NA,NA,NA,NA,NA,NA,NA,NA,NA,NA,303.7,20379,NA,NA
stanley-carden,AL,alabama,hiber,NA,NA,dekalb,NA,NA,NA,NA,NA,NA,NA,NA,NA,NA,NA,"Daphne, AL field office",NA,NA,NA,NA,89698,NA,NA
starr chapel,VA,virginia,hiber,38.1703,-79.75323,bath,NA,NA,NA,NA,NA,NA,NA,NA,NA,NA,629,NA,NA,NA,NA,630.3,126254,NA,NA
stegen,WI,wisconsin,hiber,42.916584,-90.183656,iowa,NA,NA,NA,NA,NA,NA,NA,NA,NA,NA,NA,NA,NA,NA,NA,334.6,41435,NA,NA
steifel,PA,pennsylvania,hiber-logger,40.848888,-80.284444,beaver,NA,NA,NA,NA,NA,NA,NA,NA,NA,NA,NA,steifel park mine,NA,NA,NA,318,106558,NA,NA
stickpile tunnel,MD,maryland,hiber,39.5963442,-78.4283019,allegany,NA,NA,NA,NA,NA,NA,NA,NA,NA,NA,NA,NA,no,no,yes,219.6,114790,NA,NA
stillhouse,KY,kentucky,hiber,NA,NA,lee,NA,NA,NA,NA,NA,NA,NA,NA,NA,NA,NA,NA,NA,NA,NA,NA,NA,NA,NA
stoneley,VA,virginia,hiber,37.16847,-81.45264,tazewell,NA,NA,NA,NA,NA,NA,NA,NA,NA,NA,808,NA,NA,NA,NA,804,124556,NA,NA
storms pit,IN,indiana,hiber,NA,NA,lawrence,NA,NA,NA,NA,NA,NA,NA,NA,NA,NA,NA,NA,NA,NA,NA,NA,NA,NA,NA
stover,PA,pennsylvania,hiber,NA,NA,centre,NA,NA,NA,NA,NA,NA,NA,NA,NA,NA,NA,NA,NA,NA,NA,NA,NA,NA,NA
strawberry blonde,WI,wisconsin,hiber,42.53747,-90.37296,lafayette,NA,NA,NA,NA,NA,NA,NA,NA,NA,NA,NA,NA,NA,NA,NA,242.5,13787,NA,NA
stream,KY,kentucky,hiber,NA,NA,wayne,NA,NA,NA,NA,NA,NA,NA,NA,NA,NA,NA,NA,NA,NA,NA,NA,NA,NA,NA
string,KY,kentucky,hiber,NA,NA,jackson,NA,NA,NA,NA,NA,NA,NA,NA,NA,NA,NA,NA,NA,NA,NA,NA,NA,NA,NA
stumphouse,SC,south carolina,hiber,34.81071,-83.1239,oconee,Mt. Rest,NA,NA,NA,NA,NA,NA,NA,NA,NA,NA,NA,NA,NA,NA,473.2,62523,NA,NA
sullivan cave,IN,indiana,hiber,38.936756,-86.652326,lawrence,NA,NA,NA,NA,NA,NA,NA,NA,NA,NA,NA,NA,NA,NA,NA,223.5,76729,NA,NA
summer,AR,arkansas,hiber,NA,NA,marion,NA,NA,NA,NA,NA,NA,NA,NA,NA,NA,NA,"Arkansas Ecological Services Field Office, AR-56",NA,NA,NA,NA,NA,NA,NA
surprise cave,NY,new york,hiber,41.50889,-74.54,sullivan,MAMAKATING,NA,NA,NA,NA,NA,NA,NA,NA,NA,223,NA,NA,NA,NA,219,16176,NA,NA
susan,MO,missouri,hiber,NA,NA,washington,NA,NA,NA,NA,NA,NA,NA,NA,NA,NA,NA,mud,NA,NA,NA,NA,NA,NA,NA
swinney,IN,indiana,hiber,NA,NA,harrison,NA,NA,NA,NA,NA,NA,NA,NA,NA,NA,NA,NA,NA,NA,NA,NA,NA,NA,NA
talley cave,AL,alabama,hiber,NA,NA,dekalb,NA,NA,NA,NA,NA,NA,NA,NA,NA,NA,NA,NA,NA,NA,NA,NA,26859,NA,NA
tar kiln,KY,kentucky,hiber,NA,NA,elliott,NA,NA,NA,NA,NA,NA,NA,NA,NA,NA,NA,NA,NA,NA,NA,NA,NA,NA,NA
tawneys,VA,virginia,hiber,37.31529,-80.51102,giles,NA,NA,NA,NA,NA,NA,NA,NA,NA,NA,610,NA,NA,NA,NA,612.6,78920,NA,NA
taylor mine_mi,MI,michigan,hiber,46.663304,-88.448235,baraga,NA,Al Kurta email,NA,NA,no,NA,NA,NA,NA,NA,401,NEED TO GET LAT/LONGS,no,no,yes,432.1,124193,NA,NA
taylor mine,MI,michigan,hiber,46.663304,-88.448235,baraga,NA,Al Kurta email,NA,NA,no,NA,NA,NA,NA,NA,401,NEED TO GET LAT/LONGS,no,no,yes,432.1,124193,NA,NA
taylor mine nj,NJ,new jersey,hiber,NA,NA,morris,NA,NA,NA,NA,NA,NA,NA,NA,NA,NA,NA,NA,NA,NA,NA,NA,NA,NA,NA
taylors,NL,newfoundland and labrador,hiber,49.6,-56.9,Division No. 6,NA,NA,NA,NA,NA,NA,NA,NA,NA,NA,NA,NA,NA,NA,NA,252,259724,NA,NA
teamers,KY,kentucky,hiber,NA,NA,rockcastle,NA,NA,NA,NA,NA,NA,NA,NA,NA,NA,NA,NA,NA,NA,NA,NA,NA,NA,NA
temple of wisdom,MO,missouri,hiber,NA,NA,crawford,NA,NA,NA,NA,NA,NA,NA,NA,NA,NA,NA,NA,NA,NA,NA,NA,NA,NA,NA
testhole 25,IL,illinois,hiber,NA,NA,alexander,NA,NA,NA,NA,NA,NA,NA,NA,NA,NA,NA,NA,NA,NA,NA,NA,NA,NA,NA
thornhill,KY,kentucky,hiber,NA,NA,breckinridge,NA,NA,NA,NA,NA,NA,NA,NA,NA,NA,NA,NA,NA,NA,NA,NA,NA,NA,NA
three caves,AL,alabama,hiber,NA,NA,madison,NA,NA,NA,NA,NA,NA,NA,NA,NA,NA,NA,NA,NA,NA,NA,NA,92517,duplicate with shelta cave,NA
tippy dam,MI,michigan,hiber,44.25921389,-85.93912079,manistee,wellston,NA,NA,NA,NA,NA,NA,NA,NA,NA,NA,NA,NA,NA,NA,204.8,13519,NA,NA
tobaccoport,TN,tennessee,hiber,NA,NA,stewart,NA,NA,NA,NA,NA,NA,NA,NA,NA,NA,NA,NA,NA,NA,NA,NA,NA,NA,NA
toby,MO,missouri,hiber,NA,NA,camden,NA,NA,NA,NA,NA,NA,NA,NA,NA,NA,NA,NA,NA,NA,NA,NA,NA,NA,NA
toothless,IL,illinois,hiber,NA,NA,jackson,NA,NA,NA,NA,NA,NA,NA,NA,NA,NA,NA,bat cave,NA,NA,NA,NA,NA,NA,NA
townsend,KY,kentucky,hiber,NA,NA,estill,NA,NA,NA,NA,NA,NA,NA,NA,NA,NA,NA,NA,NA,NA,NA,NA,NA,NA,NA
triple h cave,MS,mississippi,hiber,31.752665,-88.69118,wayne,NA,NA,NA,NA,NA,NA,NA,NA,NA,NA,NA,NA,NA,NA,NA,66,13700,duplicate with williams cave,NA
tripoli chalk mine,MS,mississippi,hiber,34.8734,-88.11499,tishomingo,NA,NA,NA,NA,NA,NA,NA,NA,NA,NA,NA,NA,NA,NA,NA,141.7,41083,NA,NA
trussell,TN,tennessee,hiber,NA,NA,grundy,NA,NA,NA,NA,NA,NA,NA,NA,NA,NA,NA,NA,NA,NA,NA,NA,NA,NA,NA
tubb,WV,west virginia,hiber,NA,NA,pocahontas,NA,NA,NA,NA,NA,NA,NA,NA,NA,NA,NA,NA,NA,NA,NA,NA,NA,NA,NA
tulks,NL,newfoundland and labrador,hiber,48.5,-57.2,Division No. 6,NA,NA,NA,NA,NA,NA,NA,NA,NA,NA,NA,NA,NA,NA,NA,420,17036,NA,NA
tumbling creek,MO,missouri,hiber,NA,NA,taney,NA,NA,NA,NA,NA,NA,NA,NA,NA,NA,NA,NA,NA,NA,NA,NA,NA,NA,NA
tumbling rock cave,AL,alabama,hiber,NA,NA,jackson,NA,NA,NA,NA,NA,NA,NA,NA,NA,NA,NA,NA,NA,NA,NA,NA,17275,NA,NA
tunnel,MO,missouri,hiber,NA,NA,pulaski,NA,NA,NA,NA,NA,NA,NA,NA,NA,NA,NA,NA,NA,NA,NA,NA,NA,NA,NA
tunnel 2 - old mine,MA,massachusetts,hiber,,,hampden,,,,,,,,,,,,,,,,,,,
tunnel city,WI,wisconsin,hiber,44.00857,-90.57844,monroe,NA,NA,NA,NA,NA,NA,NA,NA,NA,NA,323,NA,NA,NA,NA,330.2,62619,duplicate with cp tunnel,NA
tunnel springs,AL,alabama,hiber,NA,NA,monroe,NA,NA,NA,NA,NA,NA,NA,NA,NA,NA,NA,NA,NA,NA,NA,NA,29828,NA,NA
twigly,AR,arkansas,hiber,NA,NA,baxter,NA,NA,NA,NA,NA,NA,NA,NA,NA,NA,NA,"Arkansas Ecological Services Field Office, AR-86",NA,NA,NA,NA,NA,NA,NA
twin bluffs,WI,wisconsin,hiber,NA,NA,juneau,NA,NA,NA,NA,NA,NA,NA,NA,NA,NA,NA,NA,NA,NA,NA,NA,NA,NA,NA
twin culvert,IL,illinois,hiber,39.45,-90.66,pike,NA,NA,39.45,-90.66,NA,NA,NA,NA,NA,NA,NA,NA,NA,NA,NA,152,6575,NA,NA
twin domes,IN,indiana,hiber,NA,NA,harrison,NA,NA,NA,NA,NA,NA,NA,NA,NA,NA,NA,NA,NA,NA,NA,NA,NA,NA,NA
twin springs,KY,kentucky,hiber,NA,NA,rockcastle,NA,NA,NA,NA,NA,NA,NA,NA,NA,NA,NA,NA,NA,NA,NA,NA,NA,NA,NA
twin springs,MO,missouri,hiber,NA,NA,franklin,NA,NA,NA,NA,NA,NA,NA,NA,NA,NA,NA,NA,NA,NA,NA,NA,NA,NA,NA
two lick run cave,WV,west virginia,hiber,38.99441,-79.7023,randolph,PARSONS,NA,NA,NA,NA,NA,17,612381,4316957,NAD83,764,NA,NA,NA,NA,759.4,23792,NA,NA
tyson quarry,MO,missouri,hiber,NA,NA,st louis,NA,NA,NA,NA,NA,NA,NA,NA,NA,NA,NA,NA,NA,NA,NA,NA,NA,NA,NA
uga stadium culvert,GA,georgia,hiber,33.94883,-83.37187,clarke,athens,NA,NA,NA,NA,NA,NA,NA,NA,NA,NA,"double barreled, ~1000' long",NA,NA,NA,NA,129856,NA,NA
UNI001A,SC,south carolina,hiber,NA,NA,union,NA,NA,NA,NA,NA,NA,NA,NA,NA,NA,NA,NA,NA,NA,NA,NA,NA,NA,NA
UNI003B,SC,south carolina,hiber,NA,NA,union,NA,NA,NA,NA,NA,NA,NA,NA,NA,NA,NA,NA,NA,NA,NA,NA,NA,NA,NA
upper marthas,WV,west virginia,hiber,NA,NA,pocahontas,NA,NA,NA,NA,NA,NA,NA,NA,NA,NA,NA,NA,NA,NA,NA,NA,NA,NA,NA
upper virgin falls,TN,tennessee,hiber,NA,NA,white,NA,NA,NA,NA,NA,NA,NA,NA,NA,NA,NA,NA,NA,NA,NA,NA,NA,NA,NA
us steel no 2,PA,pennsylvania,hiber,NA,NA,armstrong,NA,NA,NA,NA,NA,NA,NA,NA,NA,NA,NA,NA,NA,NA,NA,NA,NA,NA,NA
waddell cave,MS,mississippi,hiber,34.0151,-89.43142,smith,NA,NA,NA,NA,NA,NA,NA,NA,NA,NA,NA,NA,NA,NA,NA,95.2,2671,NA,NA
wal 302,AL,alabama,hiber,NA,NA,covington,NA,NA,NA,NA,NA,NA,NA,NA,NA,NA,NA,NA,NA,NA,NA,NA,64020,NA,nabat
walkup cave,TX,texas,hiber,34.25199,-99.97327,hardeman,NA,NA,NA,NA,NA,NA,NA,NA,NA,NA,NA,NA,NA,NA,NA,489,19270,duplicate with panther cave,NA
wallier,IN,indiana,hiber,NA,NA,harrison,NA,NA,NA,NA,NA,NA,NA,NA,NA,NA,NA,NA,NA,NA,NA,NA,NA,NA,NA
wallier cave,IN,indiana,hiber,37.9846,-86.04465,harrison,NA,NA,NA,NA,NA,NA,NA,NA,NA,NA,NA,NA,NA,NA,NA,178.9,63659,NA,NA
walter williams preserve,NY,new york,hiber,41.88305,-74.06472,ulster,NA,NA,NA,NA,NA,NA,NA,NA,NA,NA,124,NA,NA,NA,NA,89.7,1584,"duplicate with martin mine , williams hotel mine, williams lake mine",NA
walter williams preserve mine,NY,new york,hiber,41.88305,-74.06472,ulster,NA,NA,NA,NA,NA,NA,NA,NA,NA,NA,124,NA,NA,NA,NA,89.7,1584,"duplicate with martin mine , williams hotel mine, williams lake mine",NA
war eagle cavern,AR,arkansas,hiber,NA,NA,benton,NA,NA,NA,NA,NA,NA,NA,NA,NA,NA,NA,"Arkansas Ecological Services Field Office, AR-29",NA,NA,NA,NA,NA,NA,NA
war fork,KY,kentucky,hiber,NA,NA,jackson,NA,NA,NA,NA,NA,NA,NA,NA,NA,NA,NA,NA,NA,NA,NA,NA,NA,NA,NA
ward,TN,tennessee,hiber,NA,NA,bedford,NA,NA,NA,NA,NA,NA,NA,NA,NA,NA,NA,NA,NA,NA,NA,NA,NA,NA,NA
wares,VA,virginia,hiber,37.874167,-79.894444,alleghany,NA,NA,NA,NA,NA,NA,NA,NA,NA,NA,NA,NA,NA,NA,NA,812,86237,NA,NA
waterfall,KY,kentucky,hiber,NA,NA,rockcastle,NA,NA,NA,NA,NA,NA,NA,NA,NA,NA,NA,NA,NA,NA,NA,NA,NA,NA,NA
watkins saltpeter,AL,alabama,hiber,NA,NA,lauderdale,NA,NA,NA,NA,NA,NA,NA,NA,NA,NA,NA,"Daphne, AL field office",NA,NA,NA,NA,NA,NA,NA
watson,MO,missouri,hiber,NA,NA,dent,NA,NA,NA,NA,NA,NA,NA,NA,NA,NA,NA,NA,NA,NA,NA,NA,NA,NA,NA
weaver cave complex,AL,alabama,hiber,NA,NA,calhoun,NA,NA,NA,NA,NA,NA,NA,NA,NA,NA,NA,NA,NA,NA,NA,NA,42475,NA,NA
well,KY,kentucky,hiber,NA,NA,menifee,NA,NA,NA,NA,NA,NA,NA,NA,NA,NA,NA,NA,NA,NA,NA,NA,NA,NA,NA
wells,KY,kentucky,hiber,NA,NA,pulaski,NA,NA,NA,NA,NA,NA,NA,NA,NA,NA,NA,NA,NA,NA,NA,NA,NA,NA,NA
wet cave,TN,tennessee,hiber,35.229998,-85.920019,franklin,sewanee,NA,NA,NA,NA,NA,NA,NA,NA,NA,NA,NAD83,NA,NA,NA,NA,60283,NA,NA
wheeler-saltpeter cave,AL,alabama,hiber,NA,NA,jackson,NA,NA,NA,NA,NA,NA,NA,NA,NA,NA,NA,NA,NA,NA,NA,NA,10475,duplicate with blowho,NA
white bear quarry,MO,missouri,hiber,NA,NA,madison,NA,NA,NA,NA,NA,NA,NA,NA,NA,NA,NA,NA,NA,NA,NA,NA,NA,NA,NA
white buis,TN,tennessee,maternity,NA,NA,claiborne,NA,NA,NA,NA,NA,NA,NA,NA,NA,NA,NA,NA,NA,NA,NA,NA,NA,NA,NA
white cave,AL,alabama,hiber,NA,NA,blount,NA,NA,NA,NA,NA,NA,NA,NA,NA,NA,NA,NA,NA,NA,NA,NA,45691,duplicate with blowing saltpeter cave and posey cave,NA
white oak blowhole,TN,tennessee,hiber,NA,NA,blount,NA,NA,NA,NA,NA,NA,NA,NA,NA,NA,NA,NA,NA,NA,NA,NA,NA,NA,NA
white oak sink,TN,tennessee,maternity,35.62732,-83.72646,Blount,NA,NA,NA,NA,NA,NA,NA,NA,NA,NA,NA,NA,NA,NA,NA,486.9,70752,NA,NA
white river cave,GA,georgia,hiber,34.03487,-85.01149,polk,Rockmart,NA,NA,NA,NA,NA,NA,NA,NA,NA,257,NA,NA,NA,NA,253.5,57835,NA,NA
whitecap_2,ME,maine,hiber,NA,NA,oxford,NA,NA,NA,NA,NA,NA,NA,NA,NA,NA,NA,NA,NA,NA,NA,NA,98264,NA,NA
whites creek,MO,missouri,hiber,NA,NA,oregon,NA,NA,NA,NA,NA,NA,NA,NA,NA,NA,NA,NA,NA,NA,NA,NA,NA,NA,NA
whiteside cave,TN,tennessee,hiber,34.991389,-85.5075,marion,NA,NA,NA,NA,NA,NA,NA,NA,NA,NA,NA,NAD83,NA,NA,NA,NA,100153,NA,NA
wildcat,IN,indiana,hiber,NA,NA,crawford,NA,NA,NA,NA,NA,NA,NA,NA,NA,NA,NA,sheep,NA,NA,NA,NA,NA,NA,NA
wildcat,MO,missouri,hiber,NA,NA,franklin,NA,NA,NA,NA,NA,NA,NA,NA,NA,NA,NA,NA,NA,NA,NA,NA,NA,NA,NA
wildcat hollow sink,KY,kentucky,hiber,37.193,-86.093,edmonson,NA,NA,NA,NA,offset insde nps,NA,NA,NA,NA,NA,NA,NA,NA,NA,NA,226.5,71632,"duplicate with bat cave ky, jt cave, lee cave, long cave, mammoth cave historic entrance",NA
williams cave,MS,mississippi,hiber,31.744599,-88.68856,wayne,waynesboro,NA,NA,NA,NA,NA,NA,NA,NA,NA,NA,also known as pitts cave,no,no,yes,62.5,13700,duplicate with triple h cave,NA
williams fire pit mine,NY,new york,hiber,NA,NA,ulster,NA,NA,NA,NA,NA,NA,NA,NA,NA,NA,NA,NA,NA,NA,NA,NA,NA,NA,NA
williams hotel mine,NY,new york,hiber,41.86497,-74.0796,ulster,NA,NA,NA,NA,NA,NA,NA,NA,NA,NA,74,NA,NA,NA,NA,66.8,1584,"duplicate with martin mine , williams williams preserve, williams lake mine",NA
williams lake mine,NY,new york,hiber,41.86638,-74.07583,ulster,ROSENDALE,NA,NA,NA,NA,NA,NA,NA,NA,NA,92,NA,NA,NA,NA,90,1584,"duplicate with martin mine , williams williams preserve, williams lake mine",NA
williams mine,TN,tennessee,hiber,35.88988,-82.94675,cocke,NA,NA,NA,NA,NA,NA,NA,NA,NA,NA,NA,NA,NA,NA,NA,NA,67615,NA,NA
williams mine 11,NY,new york,hiber,41.86939,-74.07804,ulster,,,,,,,,,,,,,,,,,,,
williams mine 13,NY,new york,hiber,NA,NA,ulster,NA,NA,NA,NA,NA,NA,NA,NA,NA,NA,NA,NA,NA,NA,NA,NA,NA,NA,NA
williams mine 4b,NY,new york,hiber,NA,NA,ulster,NA,NA,NA,NA,NA,NA,NA,NA,NA,NA,NA,NA,NA,NA,NA,NA,NA,NA,NA
williams mine 7-8,NY,new york,hiber,41.86525,-74.07892,ulster,NA,NA,NA,NA,NA,NA,NA,NA,NA,NA,NA,NA,NA,NA,NA,NA,NA,NA,NA
williams mine 9-10,NY,new york,hiber,NA,NA,ulster,NA,NA,NA,NA,NA,NA,NA,NA,NA,NA,NA,NA,NA,NA,NA,NA,NA,NA,NA
williams mountain,MO,missouri,hiber,NA,NA,shannon,NA,NA,NA,NA,NA,NA,NA,NA,NA,NA,NA,NA,NA,NA,NA,NA,NA,NA,NA
williams saltpeter cave,AL,alabama,hiber,NA,NA,jackson,NA,NA,NA,NA,NA,NA,NA,NA,NA,NA,NA,NA,NA,NA,NA,NA,107153,duplicate with mcfarland spring cave and mcfarland blowing cave,NA
willsboro,NY,new york,maternity,NA,NA,NA,NA,NA,NA,NA,NA,NA,NA,NA,NA,NA,NA,NA,NA,NA,NA,NA,NA,NA,NA
wilson,KY,kentucky,hiber,NA,NA,hart,NA,NA,NA,NA,NA,NA,NA,NA,NA,NA,NA,NA,NA,NA,NA,NA,71632,NA,NA
winchester,CT,connecticut,hiber,,,litchfield,,,,,,,,,,,,,,,,,,,
wind,MO,missouri,hiber,NA,NA,shannon,NA,NA,NA,NA,NA,NA,NA,NA,NA,NA,NA,NA,NA,NA,NA,NA,NA,NA,NA
wind jackson ky,KY,kentucky,hiber,NA,NA,jackson,NA,NA,NA,NA,NA,NA,NA,NA,NA,NA,NA,NA,NA,NA,NA,NA,NA,NA,NA
wind pulaski ky,KY,kentucky,hiber,NA,NA,pulaski,NA,NA,NA,NA,NA,NA,NA,NA,NA,NA,NA,NA,NA,NA,NA,NA,NA,NA,NA
wind wayne ky,KY,kentucky,hiber,NA,NA,wayne,NA,NA,NA,NA,NA,NA,NA,NA,NA,NA,NA,NA,NA,NA,NA,NA,NA,NA,NA
winged deer saltpeter cave,TN,tennessee,hiber,36.391111,-82.368271,washington,NA,NA,NA,NA,NA,NA,NA,NA,NA,NA,NA,NA,NA,NA,NA,453.4,23259,NA,NA
witheros,VA,virginia,hiber,38.02233,-79.60233,bath,NA,NA,NA,NA,NA,NA,NA,NA,NA,NA,498,NA,NA,NA,NA,503.3,128346,NA,NA
wolf creek,AR,arkansas,hiber,NA,NA,newton,NA,NA,NA,NA,NA,NA,NA,NA,NA,NA,NA,"Arkansas Ecological Services Field Office, AR-64",NA,NA,NA,NA,NA,NA,NA
wolf den,MO,missouri,hiber,NA,NA,pulaski,NA,NA,NA,NA,NA,NA,NA,NA,NA,NA,NA,NA,NA,NA,NA,NA,NA,NA,NA
wolf river cave,TN,tennessee,hiber,36.52985,-84.94028,fentress,NA,NA,NA,NA,NA,NA,NA,NA,NA,NA,NA,NA,NA,NA,NA,274,27179,NA,NA
woods terry,VA,virginia,hiber,38.299722,-79.658333,highland,NA,NA,NA,NA,NA,NA,NA,NA,NA,NA,NA,NA,NA,NA,NA,693,74509,NA,NA
woodward,PA,pennsylvania,hiber-logger,40.8891666,-77.388333,centre,NA,NA,NA,NA,NA,NA,NA,NA,NA,NA,NA,woodward caverns,NA,NA,NA,331,112405,NA,NA
worleys cave,TN,tennessee,hiber,36.51496,-82.29984,sullivan,NA,NA,NA,NA,yes,NA,NA,NA,NA,NA,NA,NA,NA,NA,NA,490.7,102496,NA,NA
wyandotte cave,IN,indiana,hiber,38.22994,-86.29495,crawford,NA,NA,NA,NA,NA,NA,NA,NA,NA,NA,NA,"big wyandotte cave, great epson",NA,NA,NA,173.8,7339,NA,NA
xanadu,TN,tennessee,hiber,NA,NA,fentress,NA,NA,NA,NA,NA,NA,NA,NA,NA,NA,NA,alph cave,NA,NA,NA,NA,NA,NA,NA
yew ridge,IA,iowa,hiber,NA,NA,dubuque,NA,NA,NA,NA,NA,NA,NA,NA,NA,NA,NA,"Rock Island, IL",NA,NA,NA,NA,NA,NA,NA
ygdrasils,TN,tennessee,hiber,NA,NA,fentress,NA,NA,NA,NA,NA,NA,NA,NA,NA,NA,NA,NA,NA,NA,NA,NA,NA,NA,NA
youngs adit,MI,michigan,hiber,46.73519,-89.13631,ontonagon,NA,NA,NA,NA,NA,NA,16T,336787,5177954,NAD83,347,NA,NA,NA,NA,342,52451,NA,NA
zarathustras,TN,tennessee,hiber,NA,NA,fentress,NA,NA,NA,NA,NA,NA,NA,NA,NA,NA,NA,NA,NA,NA,NA,NA,NA,NA,NA
zimmerman,IL,illinois,hiber,41.33955,-89.04024,lasalle,NA,NA,NA,NA,NA,NA,NA,NA,NA,NA,177,NA,NA,NA,NA,165.1,125291,duplicate with blackball,NA
zircon_3,ME,maine,hiber,NA,NA,oxford,NA,NA,NA,NA,NA,NA,NA,NA,NA,NA,NA,NA,NA,NA,NA,NA,77878,NA,NA
zoar east,MA,massachusetts,hiber,42.65232,-72.95343,franklin,charlemont,NA,NA,NA,NA,NA,NA,NA,NA,NA,NA,NA,NA,NA,NA,198,4560,NA,NA
tainter cave,WI,wisconsin,,,,,,,,,,,,,,,,,,,,,,,
taliesin root cellar,WI,wisconsin,,,,,,,,,,,,,,,,,,,,,,,
governor dodge (twin valley cave),WI,wisconsin,,,,,,,,,,,,,,,,,,,,,,,
baap firing range,WI,wisconsin,,,,,,,,,,,,,,,,,,,,,,,
firing range tunnel,WI,wisconsin,,,,,,,,,,,,,,,,,,,,,,,
north,WI,wisconsin,,,,,,,,,,,,,,,,,,,,,,,
duck egg cave,WI,wisconsin,,,,,,,,,,,,,,,,,,,,,,,
arthur + co. mine,WI,wisconsin,,,,,,,,,,,,,,,,,,,,,,,
brachen hartford prospect,WI,wisconsin,,,,,,,,,,,,,,,,,,,,,,,
kennedy rd,WI,wisconsin,,,,,,,,,,,,,,,,,,,,,,,
kickapoo caverns (tree fork),WI,wisconsin,,,,,,,,,,,,,,,,,,,,,,,
kickapoo caverns (tourist),WI,wisconsin,,,,,,,,,,,,,,,,,,,,,,,
star valley cave,WI,wisconsin,,,,,,,,,,,,,,,,,,,,,,,
black cave,WI,wisconsin,,,,,,,,,,,,,,,,,,,,,,,
haines cave,WI,wisconsin,,,,,,,,,,,,,,,,,,,,,,,
popp's cave,WI,wisconsin,,,,,,,,,,,,,,,,,,,,,,,
knapp chapel cave,WI,wisconsin,,,,,,,,,,,,,,,,,,,,,,,
hochunk tunnel north,WI,wisconsin,,,,,,,,,,,,,,,,,,,,,,,
irvine park,WI,wisconsin,,,,,,,,,,,,,,,,,,,,,,,
webb caves (party cave),,,,,,,,,,,,,,,,,,,,,,,,,
westby cave,,,,,,,,,,,,,,,,,,,,,,,,,
west cary no.7 shaft,,,,,,,,,,,,,,,,,,,,,,,,,
wellever cave,,,,,,,,,,,,,,,,,,,,,,,,,
wauzeka crack,,,,,,,,,,,,,,,,,,,,,,,,,
roger's cave,,,,,,,,,,,,,,,,,,,,,,,,,
germania no. 2,,,,,,,,,,,,,,,,,,,,,,,,,
flint cave,,,,,,,,,,,,,,,,,,,,,,,,,
cobb cave,,,,,,,,,,,,,,,,,,,,,,,,,
bridgeport cave,,,,,,,,,,,,,,,,,,,,,,,,,
